{"type":"FeatureCollection","name":"отримано_відмовляється_АСТ_98_55_11","crs":{"type":"name","properties":{"name":"urn:ogc:def:crs:OGC:1.3:CRS84"}},"features":[{"type":"Feature","properties":{"id":"1","№":1,"район":"Брусилівський","н.п.":"Болячів","кадастр":"1820980300:04:000:0166","площа факт":9.7742,"площа обміну":9.77,"статус":"ОТРИМАНО АСТ від АПФ","примітка":"відмовляється АСТ"},"geometry":{"type":"MultiPolygon","coordinates":[[[[29.395642907,50.220100588],[29.395952826,50.220462697],[29.396258253,50.220321877],[29.397691066,50.220468444],[29.398095308,50.220784569],[29.398688196,50.22060639],[29.399191253,50.220543165],[29.400183891,50.220928261],[29.401778401,50.220321877],[29.401136105,50.219732728],[29.400597116,50.218976883],[29.400610591,50.218953892],[29.401396617,50.218683739],[29.401450516,50.218609015],[29.396370543,50.217916381],[29.395642907,50.220100588]]]]},"id":"1"},{"type":"Feature","properties":{"id":"2","№":2,"район":"Брусилівський","н.п.":"Болячів","кадастр":"1820980300:04:000:0167","площа факт":8.1574,"площа обміну":8.16,"статус":"ОТРИМАНО АСТ від АПФ","примітка":"відмовляється АСТ"},"geometry":{"type":"MultiPolygon","coordinates":[[[[29.401450516,50.218609015],[29.402142219,50.217726695],[29.402196117,50.217399054],[29.402694682,50.216873099],[29.396976906,50.216091342],[29.396635546,50.21712027],[29.396370543,50.217916381],[29.401450516,50.218609015]]]]},"id":"2"},{"type":"Feature","properties":{"id":"3","№":3,"район":"Брусилівський","н.п.":"Болячів","кадастр":"1820980300:04:000:0169","площа факт":9.2265,"площа обміну":9.23,"статус":"ОТРИМАНО АСТ від АПФ","примітка":"відмовляється АСТ"},"geometry":{"type":"MultiPolygon","coordinates":[[[[29.385370672,50.208393794],[29.382770049,50.207870615],[29.380191885,50.207350304],[29.379360943,50.209851192],[29.384643037,50.210575563],[29.385370672,50.208393794]],[[29.382774541,50.209756333],[29.382177161,50.2096586],[29.381647155,50.20956949],[29.3810902,50.209014703],[29.38174597,50.208649633],[29.382455639,50.208813483],[29.38291378,50.208919842],[29.382774541,50.209756333]]]]},"id":"3"},{"type":"Feature","properties":{"id":"4","№":4,"район":"Брусилівський","н.п.":"Болячів","кадастр":"1820980300:04:000:0170","площа факт":9.8513,"площа обміну":9.85,"статус":"ОТРИМАНО АСТ від АПФ","примітка":"відмовляється АСТ"},"geometry":{"type":"MultiPolygon","coordinates":[[[[29.383874977,50.212895199],[29.386556448,50.213263111],[29.387998244,50.208925592],[29.385370672,50.208393794],[29.384643037,50.210575563],[29.383874977,50.212895199]]]]},"id":"4"},{"type":"Feature","properties":{"id":"5","№":5,"район":"Брусилівський","н.п.":"Болячів","кадастр":"1820980300:04:000:0171","площа факт":9.5969,"площа обміну":9.1963,"статус":"ОТРИМАНО АСТ від АПФ","примітка":"відмовляється АСТ"},"geometry":{"type":"MultiPolygon","coordinates":[[[[29.386556448,50.213263111],[29.3893547,50.213645392],[29.390697682,50.209598235],[29.38946699,50.20944301],[29.388406978,50.209006079],[29.387998244,50.208925592],[29.386556448,50.213263111]]]]},"id":"5"},{"type":"Feature","properties":{"id":"6","№":6,"район":"Брусилівський","н.п.":"Болячів","кадастр":"1820980300:04:000:0172","площа факт":8.9486,"площа обміну":8.6444,"статус":"ОТРИМАНО АСТ від АПФ","примітка":"відмовляється АСТ"},"geometry":{"type":"MultiPolygon","coordinates":[[[[29.3893547,50.213645392],[29.392022697,50.214010424],[29.393334237,50.210052407],[29.392296683,50.209796576],[29.390697682,50.209598235],[29.3893547,50.213645392]]]]},"id":"6"},{"type":"Feature","properties":{"id":"7","№":7,"район":"Брусилівський","н.п.":"Болячів","кадастр":"1820980300:04:000:0173","площа факт":8.5018,"площа обміну":8.5,"статус":"ОТРИМАНО АСТ від АПФ","примітка":"відмовляється АСТ"},"geometry":{"type":"MultiPolygon","coordinates":[[[[29.392022697,50.214010424],[29.394699676,50.214378328],[29.395925877,50.210681918],[29.394515522,50.210345605],[29.393334237,50.210052407],[29.392022697,50.214010424]]]]},"id":"7"},{"type":"Feature","properties":{"id":"8","№":8,"район":"Брусилівський","н.п.":"Болячів","кадастр":"1820980300:04:000:0174","площа факт":7.354,"площа обміну":7.35,"статус":"ОТРИМАНО АСТ від АПФ","примітка":"відмовляється АСТ"},"geometry":{"type":"MultiPolygon","coordinates":[[[[29.394699676,50.214378328],[29.39707572,50.214703115],[29.397583268,50.213174008],[29.398337853,50.210897502],[29.396208846,50.210750905],[29.395925877,50.210681918],[29.394699676,50.214378328]]]]},"id":"8"},{"type":"Feature","properties":{"id":"9","№":9,"район":"Брусилівський","н.п.":"Болячів","кадастр":"1820980300:04:000:0213","площа факт":8.7718,"площа обміну":8.5492,"статус":"ОТРИМАНО АСТ від АПФ","примітка":"відмовляється АСТ"},"geometry":{"type":"MultiPolygon","coordinates":[[[[29.377568804,50.209718965],[29.379360943,50.209851192],[29.380191885,50.207350304],[29.374245037,50.206053816],[29.374240546,50.206053816],[29.377568804,50.209718965]]]]},"id":"9"},{"type":"Feature","properties":{"id":"10","№":10,"район":"Брусилівський","н.п.":"Болячів","кадастр":"1820980300:04:000:0234","площа факт":9.9941,"площа обміну":9.6024,"статус":"ОТРИМАНО АСТ від АПФ","примітка":"відмовляється АСТ"},"geometry":{"type":"MultiPolygon","coordinates":[[[[29.383219207,50.214694493],[29.389062748,50.215476273],[29.38969606,50.213743118],[29.381305796,50.212596269],[29.382163687,50.213096402],[29.383219207,50.214694493]]]]},"id":"10"},{"type":"Feature","properties":{"id":"11","№":11,"район":"Брусилівський","н.п.":"Болячів","кадастр":"1820980300:04:000:2100","площа факт":9.9754,"площа обміну":9.6969,"статус":"ОТРИМАНО АСТ від АПФ","примітка":"відмовляється АСТ"},"geometry":{"type":"MultiPolygon","coordinates":[[[[29.383874977,50.212895199],[29.384643037,50.210575563],[29.379360943,50.209851192],[29.377568804,50.209718965],[29.377959571,50.210098399],[29.377887706,50.210141517],[29.379190263,50.211294173],[29.38123393,50.212535907],[29.383874977,50.212895199]]]]},"id":"11"}]}