{"type":"FeatureCollection","name":"отримано_без_примітки_12","crs":{"type":"name","properties":{"name":"urn:ogc:def:crs:OGC:1.3:CRS84"}},"features":[{"type":"Feature","properties":{"id":"1","кадастр":"1822580900:05:000:0028","№":14,"район":"Коростишівський","н.п.":"Вільнянка","Фактична площа, га":2.68956,"Площа по обміну, га":0.9891,"примітка":"без примітки"},"geometry":{"type":"MultiPolygon","coordinates":[[[[29.188347673,50.292306977],[29.189883792,50.295104694],[29.19096177,50.294857928],[29.189425651,50.292060196],[29.189210055,50.292108978],[29.188347673,50.292306977]]]]},"id":"1"},{"type":"Feature","properties":{"id":"2","кадастр":"1822580900:05:000:0058","№":15,"район":"Коростишівський","н.п.":"Вільнянка","Фактична площа, га":3.293978,"Площа по обміну, га":1.9257,"примітка":"без примітки"},"geometry":{"type":"MultiPolygon","coordinates":[[[[29.190319475,50.290961144],[29.191114484,50.292430367],[29.191595082,50.293423214],[29.193198575,50.29299853],[29.191545675,50.29052209],[29.190265576,50.290860707],[29.190319475,50.290961144]]]]},"id":"2"},{"type":"Feature","properties":{"id":"3","кадастр":"1822580900:05:000:0073","№":16,"район":"Коростишівський","н.п.":"Вільнянка","Фактична площа, га":4.696282,"Площа по обміну, га":3.1922,"примітка":"без примітки"},"geometry":{"type":"MultiPolygon","coordinates":[[[[29.19737125,50.294350044],[29.197788966,50.295735951],[29.201157648,50.294843581],[29.201463076,50.293296957],[29.201472059,50.293179308],[29.197389216,50.294261092],[29.19737125,50.294350044]]]]},"id":"3"},{"type":"Feature","properties":{"id":"4","кадастр":"1822580900:05:000:0074","№":17,"район":"Коростишівський","н.п.":"Вільнянка","Фактична площа, га":4.356559,"Площа по обміну, га":1.48,"примітка":"без примітки"},"geometry":{"type":"MultiPolygon","coordinates":[[[[29.197820407,50.295836378],[29.198161767,50.296869324],[29.201409177,50.297681318],[29.200425521,50.296169218],[29.201049851,50.295365806],[29.201157648,50.294843581],[29.197788966,50.295735951],[29.197820407,50.295836378]]]]},"id":"4"},{"type":"Feature","properties":{"id":"5","кадастр":"1822580900:05:000:0091","№":24,"район":"Коростишівський","н.п.":"Вільнянка","Фактична площа, га":3.398716,"Площа по обміну, га":2.6569,"примітка":"без примітки"},"geometry":{"type":"MultiPolygon","coordinates":[[[[29.208896635,50.292022891],[29.210464195,50.294573858],[29.21193294,50.294192226],[29.210324956,50.291649848],[29.208896635,50.292022891]]]]},"id":"5"},{"type":"Feature","properties":{"id":"6","кадастр":"1822580900:05:000:0092","№":25,"район":"Коростишівський","н.п.":"Вільнянка","Фактична площа, га":2.662575,"Площа по обміну, га":2.6625,"примітка":"без примітки"},"geometry":{"type":"MultiPolygon","coordinates":[[[[29.210324956,50.291649848],[29.21193294,50.294192226],[29.213069309,50.293896674],[29.211456833,50.29135428],[29.210360889,50.291641239],[29.210324956,50.291649848]]]]},"id":"6"},{"type":"Feature","properties":{"id":"7","кадастр":"1822580900:05:000:0098","№":28,"район":"Коростишівський","н.п.":"Вільнянка","Фактична площа, га":3.414127,"Площа по обміну, га":3.4141,"примітка":"без примітки"},"geometry":{"type":"MultiPolygon","coordinates":[[[[29.210019529,50.288711309],[29.211663446,50.291302627],[29.212880663,50.290984101],[29.213091767,50.290929578],[29.21144785,50.288341109],[29.210019529,50.288711309]]]]},"id":"7"},{"type":"Feature","properties":{"id":"8","кадастр":"1822580900:05:000:0102","№":29,"район":"Коростишівський","н.п.":"Вільнянка","Фактична площа, га":4.925361,"Площа по обміну, га":4.9253,"примітка":"без примітки"},"geometry":{"type":"MultiPolygon","coordinates":[[[[29.206879917,50.286139939],[29.208699005,50.289006893],[29.210558518,50.288521905],[29.208739429,50.285654921],[29.206969748,50.286116979],[29.206879917,50.286139939]]]]},"id":"8"},{"type":"Feature","properties":{"id":"9","кадастр":"1822580900:05:000:0103","№":30,"район":"Коростишівський","н.п.":"Вільнянка","Фактична площа, га":4.745406,"Площа по обміну, га":4.7453,"примітка":"без примітки"},"geometry":{"type":"MultiPolygon","coordinates":[[[[29.208739429,50.285654921],[29.210558518,50.288521905],[29.212350657,50.288057],[29.210531568,50.285189989],[29.210482161,50.285201469],[29.208739429,50.285654921]]]]},"id":"9"},{"type":"Feature","properties":{"id":"10","кадастр":"1822580900:05:000:0105","№":31,"район":"Коростишівський","н.п.":"Вільнянка","Фактична площа, га":5.00597,"Площа по обміну, га":2.0977,"примітка":"без примітки"},"geometry":{"type":"MultiPolygon","coordinates":[[[[29.203371996,50.283694712],[29.205285407,50.286556074],[29.206879917,50.286139939],[29.206969748,50.286116979],[29.204988963,50.282988673],[29.204688028,50.283037465],[29.203336063,50.283427796],[29.203371996,50.283694712]]]]},"id":"10"},{"type":"Feature","properties":{"id":"11","кадастр":"1822580900:07:000:0144","№":49,"район":"Коростишівський","н.п.":"Вільнянка","Фактична площа, га":3.346756,"Площа по обміну, га":2.5262,"примітка":"без примітки"},"geometry":{"type":"MultiPolygon","coordinates":[[[[29.215975359,50.282848038],[29.218360386,50.28638675],[29.219447348,50.286234646],[29.217062321,50.282695922],[29.215975359,50.282848038]]]]},"id":"11"},{"type":"Feature","properties":{"id":"12","кадастр":"1822581500:07:000:0057","№":94,"район":"Коростишівський","н.п.":"Вільня","Фактична площа, га":4.0195,"Площа по обміну, га":4.0195,"примітка":"без примітки"},"geometry":{"type":"MultiPolygon","coordinates":[[[[29.271989809,50.244042709],[29.273112703,50.246610609],[29.274922808,50.246357846],[29.273737032,50.243649182],[29.271989809,50.244042709]]]]},"id":"12"},{"type":"Feature","properties":{"id":"13","кадастр":"1822581500:07:000:0060","№":95,"район":"Коростишівський","н.п.":"Вільня","Фактична площа, га":5.3106,"Площа по обміну, га":5.044335,"примітка":"без примітки"},"geometry":{"type":"MultiPolygon","coordinates":[[[[29.272614138,50.246682416],[29.273054312,50.247974928],[29.275681884,50.247604412],[29.277402158,50.247311443],[29.278471153,50.245128482],[29.277384192,50.245240505],[29.276503843,50.24676284],[29.275502221,50.246823158],[29.275353999,50.246294655],[29.274922808,50.246357846],[29.273112703,50.246610609],[29.272614138,50.246682416]]]]},"id":"13"},{"type":"Feature","properties":{"id":"14","кадастр":"1822581500:07:000:0066","№":96,"район":"Коростишівський","н.п.":"Вільня","Фактична площа, га":4.5011,"Площа по обміну, га":4.5011,"примітка":"без примітки"},"geometry":{"type":"MultiPolygon","coordinates":[[[[29.274136782,50.25115436],[29.275201286,50.253779314],[29.277249445,50.253506486],[29.276184941,50.250881518],[29.275439339,50.250979167],[29.27447365,50.251108408],[29.274136782,50.25115436]]]]},"id":"14"},{"type":"Feature","properties":{"id":"15","кадастр":"1822583600:13:000:0097","№":186,"район":"Коростишівський","н.п.":"Голубівка","Фактична площа, га":3.3937,"Площа по обміну, га":3.0,"примітка":"без примітки"},"geometry":{"type":"MultiPolygon","coordinates":[[[[29.245835359,50.252736817],[29.245907224,50.253469152],[29.251714833,50.253477767],[29.251750765,50.252811487],[29.251750765,50.252748304],[29.245835359,50.252736817]]]]},"id":"15"},{"type":"Feature","properties":{"id":"16","кадастр":"1822583600:14:000:0020","№":107,"район":"Коростишівський","н.п.":"Кропивня","Фактична площа, га":1.0885,"Площа по обміну, га":1.0885,"примітка":"без примітки"},"geometry":{"type":"MultiPolygon","coordinates":[[[[29.247905976,50.246363591],[29.247640973,50.246639332],[29.252622131,50.246751351],[29.252595182,50.246466994],[29.247905976,50.246363591]]]]},"id":"16"},{"type":"Feature","properties":{"id":"17","кадастр":"1822583600:14:000:0021","№":108,"район":"Коростишівський","н.п.":"Кропивня","Фактична площа, га":1.0624,"Площа по обміну, га":1.0624,"примітка":"без примітки"},"geometry":{"type":"MultiPolygon","coordinates":[[[[29.247398428,50.246897837],[29.252640097,50.2470156],[29.252622131,50.246751351],[29.247640973,50.246639332],[29.247398428,50.246897837]]]]},"id":"17"},{"type":"Feature","properties":{"id":"18","кадастр":"1822583600:14:000:0023","№":109,"район":"Коростишівський","н.п.":"Кропивня","Фактична площа, га":1.0061,"Площа по обміну, га":1.0061,"примітка":"без примітки"},"geometry":{"type":"MultiPolygon","coordinates":[[[[29.247169357,50.247133363],[29.246958253,50.247354527],[29.248444965,50.247388994],[29.252680522,50.247483778],[29.252662555,50.24725687],[29.247169357,50.247133363]]]]},"id":"18"},{"type":"Feature","properties":{"id":"19","кадастр":"1822583600:14:000:0042","№":187,"район":"Коростишівський","н.п.":"Голубівка","Фактична площа, га":3.77,"Площа по обміну, га":3.77,"примітка":"без примітки"},"geometry":{"type":"MultiPolygon","coordinates":[[[[29.236030248,50.237024802],[29.236097621,50.237648211],[29.242462185,50.238125099],[29.244168984,50.238254375],[29.244061186,50.238130844],[29.243755759,50.238110735],[29.243562621,50.237590754],[29.236030248,50.237024802]]]]},"id":"19"},{"type":"Feature","properties":{"id":"20","кадастр":"1822583600:14:000:0047","№":110,"район":"Коростишівський","н.п.":"Кропивня","Фактична площа, га":4.7791,"Площа по обміну, га":1.710277,"примітка":"без примітки"},"geometry":{"type":"MultiPolygon","coordinates":[[[[29.229477038,50.239096097],[29.229243476,50.239920568],[29.23651983,50.240765133],[29.236344658,50.239891841],[29.229477038,50.239096097]]]]},"id":"20"},{"type":"Feature","properties":{"id":"21","кадастр":"1822583600:14:000:0053","№":111,"район":"Коростишівський","н.п.":"Кропивня","Фактична площа, га":5.4151,"Площа по обміну, га":5.4151,"примітка":"без примітки"},"geometry":{"type":"MultiPolygon","coordinates":[[[[29.228214905,50.243563008],[29.227985834,50.244367295],[29.236164995,50.245315187],[29.236452456,50.244516661],[29.228214905,50.243563008]]]]},"id":"21"},{"type":"Feature","properties":{"id":"22","кадастр":"1822583600:14:000:0054","№":112,"район":"Коростишівський","н.п.":"Кропивня","Фактична площа, га":5.4095,"Площа по обміну, га":5.4095,"примітка":"без примітки"},"geometry":{"type":"MultiPolygon","coordinates":[[[[29.227985834,50.244367295],[29.227756764,50.245177313],[29.235877534,50.246116572],[29.236164995,50.245315187],[29.227985834,50.244367295]]]]},"id":"22"},{"type":"Feature","properties":{"id":"23","кадастр":"1822583600:14:000:0106","№":113,"район":"Коростишівський","н.п.":"Кропивня","Фактична площа, га":2.3567,"Площа по обміну, га":2.3567,"примітка":"без примітки"},"geometry":{"type":"MultiPolygon","coordinates":[[[[29.248444965,50.247388994],[29.248435982,50.248095561],[29.251629493,50.248167366],[29.251687883,50.248167366],[29.25273442,50.248101306],[29.252680522,50.247483778],[29.248444965,50.247388994]]]]},"id":"23"},{"type":"Feature","properties":{"id":"24","кадастр":"1822583600:15:000:0054","№":114,"район":"Коростишівський","н.п.":"Кропивня","Фактична площа, га":5.9651,"Площа по обміну, га":5.9651,"примітка":"без примітки"},"geometry":{"type":"MultiPolygon","coordinates":[[[[29.227756764,50.245177313],[29.227500744,50.246076359],[29.235563124,50.247009856],[29.235877534,50.246116572],[29.227756764,50.245177313]]]]},"id":"24"},{"type":"Feature","properties":{"id":"25","кадастр":"1822581600:03:000:0338","№":100,"район":"Коростишівський","н.п.":"Віленька","Фактична площа, га":4.9205,"Площа по обміну, га":4.2199,"примітка":"без примітки"},"geometry":{"type":"MultiPolygon","coordinates":[[[[29.283456803,50.232709554],[29.284224863,50.233942111],[29.284265287,50.234036922],[29.288276265,50.232790002],[29.287674393,50.231997012],[29.287310576,50.231511443],[29.283456803,50.232709554]]]]},"id":"25"},{"type":"Feature","properties":{"id":"26","кадастр":"1822581600:03:000:0334","№":98,"район":"Коростишівський","н.п.":"Віленька","Фактична площа, га":3.3406,"Площа по обміну, га":3.3406,"примітка":"без примітки"},"geometry":{"type":"MultiPolygon","coordinates":[[[[29.312189418,50.222281821],[29.312656542,50.22291117],[29.318253046,50.221207023],[29.317484986,50.220666741],[29.312189418,50.222281821]]]]},"id":"26"},{"type":"Feature","properties":{"id":"27","кадастр":"1822581600:03:000:0337","№":99,"район":"Коростишівський","н.п.":"Віленька","Фактична площа, га":4.9753,"Площа по обміну, га":4.847,"примітка":"без примітки"},"geometry":{"type":"MultiPolygon","coordinates":[[[[29.291456301,50.237001819],[29.295709824,50.235680279],[29.294807017,50.234487989],[29.290553494,50.235809562],[29.290584935,50.23584691],[29.291272146,50.236760497],[29.291456301,50.237001819]]]]},"id":"27"},{"type":"Feature","properties":{"id":"28","кадастр":"1822581600:03:000:0339","№":101,"район":"Коростишівський","н.п.":"Віленька","Фактична площа, га":4.7761,"Площа по обміну, га":2.58,"примітка":"без примітки"},"geometry":{"type":"MultiPolygon","coordinates":[[[[29.284826734,50.235303921],[29.289156614,50.23395935],[29.288990425,50.233738124],[29.288330164,50.232864703],[29.288276265,50.232790002],[29.284265287,50.234036922],[29.284826734,50.235303921]]]]},"id":"28"},{"type":"Feature","properties":{"id":"29","кадастр":"1822581600:03:000:0340","№":102,"район":"Коростишівський","н.п.":"Віленька","Фактична площа, га":4.7525,"Площа по обміну, га":1.62,"примітка":"без примітки"},"geometry":{"type":"MultiPolygon","coordinates":[[[[29.283672399,50.236924251],[29.289929165,50.234979274],[29.289731535,50.23471783],[29.289156614,50.23395935],[29.284826734,50.235303921],[29.284934532,50.23554525],[29.286228106,50.235137288],[29.28666828,50.235436077],[29.285226484,50.235910115],[29.283155868,50.236481826],[29.283672399,50.236924251]]]]},"id":"29"},{"type":"Feature","properties":{"id":"30","кадастр":"1822581601:01:002:0018","№":104,"район":"Коростишівський","н.п.":"Віленька","Фактична площа, га":4.5306,"Площа по обміну, га":3.8531,"примітка":"без примітки"},"geometry":{"type":"MultiPolygon","coordinates":[[[[29.292242327,50.23804466],[29.291456301,50.237001819],[29.291272146,50.236760497],[29.286335904,50.238294594],[29.290665783,50.238716893],[29.292242327,50.23804466]]]]},"id":"30"},{"type":"Feature","properties":{"id":"31","кадастр":"1822588700:12:000:0003","№":167,"район":"Коростишівський","н.п.":"Щигліївка","Фактична площа, га":5.1101,"Площа по обміну, га":4.894883,"примітка":"без примітки"},"geometry":{"type":"MultiPolygon","coordinates":[[[[29.246396806,50.210934869],[29.244802297,50.205392622],[29.243742284,50.205562233],[29.245489508,50.211627605],[29.24555239,50.211662098],[29.246041972,50.211184945],[29.246396806,50.210934869]]]]},"id":"31"},{"type":"Feature","properties":{"id":"32","кадастр":"1822588700:12:000:0004","№":168,"район":"Коростишівський","н.п.":"Щигліївка","Фактична площа, га":4.0445,"Площа по обміну, га":3.142,"примітка":"без примітки"},"geometry":{"type":"MultiPolygon","coordinates":[[[[29.242888885,50.205697347],[29.244433987,50.21105847],[29.245489508,50.211627605],[29.243742284,50.205562233],[29.242888885,50.205697347]]]]},"id":"32"},{"type":"Feature","properties":{"id":"33","кадастр":"1822588700:07:000:0017","№":164,"район":"Коростишівський","н.п.":"Щигліївка","Фактична площа, га":3.5783,"Площа по обміну, га":2.910457,"примітка":"без примітки"},"geometry":{"type":"MultiPolygon","coordinates":[[[[29.26834714,50.208307556],[29.265980079,50.213053287],[29.266307964,50.213168259],[29.26709399,50.212236974],[29.267803659,50.210880255],[29.268809773,50.210311111],[29.269452068,50.209023327],[29.26834714,50.208307556]]]]},"id":"33"},{"type":"Feature","properties":{"id":"34","кадастр":"1820983900:02:000:0041","№":183,"район":"Коростишівський","н.п.":"Щигліївка","Фактична площа, га":2.5314,"Площа по обміну, га":2.16,"примітка":"без примітки"},"geometry":{"type":"MultiPolygon","coordinates":[[[[29.369052775,50.231261474],[29.370566436,50.233516897],[29.371725263,50.233137649],[29.370216093,50.230887954],[29.369052775,50.231261474]]]]},"id":"34"},{"type":"Feature","properties":{"id":"35","кадастр":"1820983900:02:000:0042","№":182,"район":"Коростишівський","н.п.":"Щигліївка","Фактична площа, га":2.4662,"Площа по обміну, га":2.4662,"примітка":"без примітки"},"geometry":{"type":"MultiPolygon","coordinates":[[[[29.370216093,50.230887954],[29.371725263,50.233137649],[29.372861632,50.232764143],[29.371356954,50.230523051],[29.370216093,50.230887954]]]]},"id":"35"},{"type":"Feature","properties":{"id":"36","кадастр":"1820983900:02:000:0043","№":175,"район":"Коростишівський","н.п.":"Щигліївка","Фактична площа, га":2.5366,"Площа по обміну, га":2.5366,"примітка":"без примітки"},"geometry":{"type":"MultiPolygon","coordinates":[[[[29.371356954,50.230523051],[29.372861632,50.232764143],[29.374033933,50.232382016],[29.372533747,50.230146652],[29.371356954,50.230523051]]]]},"id":"36"},{"type":"Feature","properties":{"id":"37","кадастр":"1820983900:02:000:0044","№":174,"район":"Коростишівський","н.п.":"Щигліївка","Фактична площа, га":2.2264,"Площа по обміну, га":2.2264,"примітка":"без примітки"},"geometry":{"type":"MultiPolygon","coordinates":[[[[29.372533747,50.230146652],[29.374033933,50.232382016],[29.375062504,50.232042983],[29.373571301,50.229816223],[29.372533747,50.230146652]]]]},"id":"37"},{"type":"Feature","properties":{"id":"38","кадастр":"1820983900:02:000:0045","№":176,"район":"Коростишівський","н.п.":"Щигліївка","Фактична площа, га":0.4571,"Площа по обміну, га":0.4571,"примітка":"без примітки"},"geometry":{"type":"MultiPolygon","coordinates":[[[[29.371990266,50.229842083],[29.372241794,50.230209864],[29.373553335,50.229793237],[29.373315281,50.229439819],[29.371990266,50.229842083]]]]},"id":"38"},{"type":"Feature","properties":{"id":"39","кадастр":"1820983900:02:000:0055","№":184,"район":"Коростишівський","н.п.":"Щигліївка","Фактична площа, га":2.3102,"Площа по обміну, га":0.71,"примітка":"без примітки"},"geometry":{"type":"MultiPolygon","coordinates":[[[[29.366775546,50.228767455],[29.368594634,50.231376402],[29.369506424,50.231083334],[29.367691827,50.228477244],[29.366775546,50.228767455]]]]},"id":"39"},{"type":"Feature","properties":{"id":"40","кадастр":"1820983900:02:000:0056","№":181,"район":"Коростишівський","н.п.":"Щигліївка","Фактична площа, га":2.3099,"Площа по обміну, га":2.3099,"примітка":"без примітки"},"geometry":{"type":"MultiPolygon","coordinates":[[[[29.369506424,50.231083334],[29.370418214,50.230793137],[29.368603617,50.228184158],[29.367691827,50.228477244],[29.369506424,50.231083334]]]]},"id":"40"},{"type":"Feature","properties":{"id":"41","кадастр":"1820983900:02:000:3118","№":177,"район":"Коростишівський","н.п.":"Щигліївка","Фактична площа, га":2.3364,"Площа по обміну, га":2.3364,"примітка":"без примітки"},"geometry":{"type":"MultiPolygon","coordinates":[[[[29.370737116,50.228040487],[29.371514159,50.229158232],[29.371990266,50.229842083],[29.373315281,50.229439819],[29.372830191,50.228715734],[29.372093572,50.227618094],[29.370737116,50.228040487]]]]},"id":"41"},{"type":"Feature","properties":{"id":"42","кадастр":"1820983500:05:000:0994","№":12,"район":"Брусилівський","н.п.":"Озера","Фактична площа, га":21.1893,"Площа по обміну, га":9.4492,"примітка":"без примітки"},"geometry":{"type":"MultiPolygon","coordinates":[[[[29.360500814,50.15442151],[29.367274111,50.152122056],[29.367274111,50.152078886],[29.36766937,50.146653573],[29.367601996,50.146665086],[29.362917282,50.147842302],[29.3628544,50.147859571],[29.363317032,50.152018448],[29.362104306,50.152611311],[29.360500814,50.15442151]]]]},"id":"42"},{"type":"Feature","properties":{"id":"43","кадастр":"1822581500:02:000:0007","№":65,"район":"Коростишівський","н.п.":"Вільня","Фактична площа, га":6.0663,"Площа по обміну, га":6.0663,"примітка":"без примітки"},"geometry":{"type":"MultiPolygon","coordinates":[[[[29.259602041,50.273596778],[29.260729427,50.277124697],[29.262593431,50.276797464],[29.262782077,50.276765889],[29.261654691,50.273237943],[29.259602041,50.273596778]]]]},"id":"43"},{"type":"Feature","properties":{"id":"44","кадастр":"1822581500:04:000:1128","№":80,"район":"Коростишівський","н.п.":"Вільня","Фактична площа, га":1.7543,"Площа по обміну, га":1.7201,"примітка":"без примітки"},"geometry":{"type":"MultiPolygon","coordinates":[[[[29.311960347,50.273946998],[29.310927285,50.274908655],[29.312360097,50.275548791],[29.313568332,50.274426393],[29.311960347,50.273946998]]]]},"id":"44"},{"type":"Feature","properties":{"id":"45","кадастр":"1822580900:06:000:0059","№":35,"район":"Коростишівський","н.п.":"Вільнянка","Фактична площа, га":1.7657,"Площа по обміну, га":1.7657,"примітка":"без примітки"},"geometry":{"type":"MultiPolygon","coordinates":[[[[29.228888641,50.295463364],[29.232634616,50.296177826],[29.233712594,50.296438932],[29.234027005,50.296088878],[29.230038485,50.295084609],[29.229018897,50.295420324],[29.228888641,50.295463364]]]]},"id":"45"},{"type":"Feature","properties":{"id":"46","кадастр":"1822580900:06:000:0178","№":36,"район":"Коростишівський","н.п.":"Вільнянка","Фактична площа, га":5.155364,"Площа по обміну, га":2.7,"примітка":"без примітки"},"geometry":{"type":"MultiPolygon","coordinates":[[[[29.230379845,50.300788576],[29.227478286,50.304018991],[29.228470925,50.3043862],[29.228929065,50.304592754],[29.231983337,50.301193107],[29.231341042,50.301029574],[29.230379845,50.300788576]]]]},"id":"46"},{"type":"Feature","properties":{"id":"47","кадастр":"1822580900:06:000:0192","№":38,"район":"Коростишівський","н.п.":"Вільнянка","Фактична площа, га":4.95839,"Площа по обміну, га":4.9584,"примітка":"без примітки"},"geometry":{"type":"MultiPolygon","coordinates":[[[[29.234094378,50.297959631],[29.231341042,50.301029574],[29.231983337,50.301193107],[29.233002925,50.301448448],[29.235756262,50.298378532],[29.234094378,50.297959631]]]]},"id":"47"},{"type":"Feature","properties":{"id":"48","кадастр":"1822580900:06:000:0195","№":39,"район":"Коростишівський","н.п.":"Вільнянка","Фактична площа, га":4.425061,"Площа по обміну, га":4.4251,"примітка":"без примітки"},"geometry":{"type":"MultiPolygon","coordinates":[[[[29.238864433,50.29916181],[29.236479405,50.301824284],[29.238406292,50.302309136],[29.239439354,50.300900468],[29.239529186,50.300530363],[29.24042301,50.299589308],[29.240449959,50.299563486],[29.238864433,50.29916181]]]]},"id":"48"},{"type":"Feature","properties":{"id":"49","кадастр":"1822580900:06:000:0197","№":40,"район":"Коростишівський","н.п.":"Вільнянка","Фактична площа, га":4.408526,"Площа по обміну, га":4.4085,"примітка":"без примітки"},"geometry":{"type":"MultiPolygon","coordinates":[[[[29.240342161,50.295601093],[29.237498993,50.298771607],[29.238981213,50.299144595],[29.24162226,50.296197912],[29.240458942,50.295638394],[29.240342161,50.295601093]]]]},"id":"49"},{"type":"Feature","properties":{"id":"50","кадастр":"1822580900:06:000:0199","№":41,"район":"Коростишівський","н.п.":"Вільнянка","Фактична площа, га":4.630691,"Площа по обміну, га":4.6307,"примітка":"без примітки"},"geometry":{"type":"MultiPolygon","coordinates":[[[[29.237000428,50.295199383],[29.234476162,50.298008408],[29.236079655,50.298412962],[29.238895874,50.295273987],[29.23723399,50.295205122],[29.237000428,50.295199383]]]]},"id":"50"},{"type":"Feature","properties":{"id":"51","кадастр":"1822580900:06:000:0201","№":42,"район":"Коростишівський","н.п.":"Вільнянка","Фактична площа, га":3.427318,"Площа по обміну, га":3.4273,"примітка":"без примітки"},"geometry":{"type":"MultiPolygon","coordinates":[[[[29.226993196,50.29612331],[29.23270199,50.297563681],[29.233299369,50.296900886],[29.228345161,50.295652741],[29.226993196,50.29612331]]]]},"id":"51"},{"type":"Feature","properties":{"id":"52","кадастр":"1822580900:07:000:0121","№":45,"район":"Коростишівський","н.п.":"Вільнянка","Фактична площа, га":3.756662,"Площа по обміну, га":3.6887,"примітка":"без примітки"},"geometry":{"type":"MultiPolygon","coordinates":[[[[29.227904986,50.280520323],[29.226512597,50.280792995],[29.226984213,50.281478976],[29.231287143,50.281639707],[29.230209165,50.280063951],[29.229324324,50.280239037],[29.227904986,50.280520323]]]]},"id":"52"},{"type":"Feature","properties":{"id":"53","кадастр":"1822580900:07:000:0135","№":47,"район":"Коростишівський","н.п.":"Вільнянка","Фактична площа, га":3.358028,"Площа по обміну, га":3.358,"примітка":"без примітки"},"geometry":{"type":"MultiPolygon","coordinates":[[[[29.223808668,50.285620482],[29.225933184,50.288768704],[29.227038112,50.288920801],[29.227271674,50.289018372],[29.227339047,50.289081506],[29.227406421,50.289070027],[29.224967495,50.285456895],[29.223961382,50.285600393],[29.223808668,50.285620482]]]]},"id":"53"},{"type":"Feature","properties":{"id":"54","кадастр":"1822580900:07:000:0141","№":48,"район":"Коростишівський","н.п.":"Вільнянка","Фактична площа, га":3.346923,"Площа по обміну, га":3.346923,"примітка":"без примітки"},"geometry":{"type":"MultiPolygon","coordinates":[[[[29.219240735,50.282388818],[29.221630254,50.285927565],[29.22250162,50.285804158],[29.222726198,50.285772589],[29.220444478,50.282391688],[29.219968371,50.282288363],[29.219240735,50.282388818]]]]},"id":"54"},{"type":"Feature","properties":{"id":"55","кадастр":"1822580900:08:000:0221","№":54,"район":"Коростишівський","н.п.":"Вільнянка","Фактична площа, га":4.076553,"Площа по обміну, га":1.2952,"примітка":"без примітки"},"geometry":{"type":"MultiPolygon","coordinates":[[[[29.257652697,50.290513481],[29.256754381,50.292565234],[29.256642092,50.292634103],[29.257877275,50.293251045],[29.260320693,50.291259583],[29.260033232,50.291184974],[29.257706596,50.290493394],[29.257652697,50.290513481]]]]},"id":"55"},{"type":"Feature","properties":{"id":"56","кадастр":"1822580900:08:000:0227","№":55,"район":"Коростишівський","н.п.":"Вільнянка","Фактична площа, га":4.302201,"Площа по обміну, га":4.2466,"примітка":"без примітки"},"geometry":{"type":"MultiPolygon","coordinates":[[[[29.266478644,50.288102917],[29.264295738,50.289262299],[29.264318196,50.289279517],[29.265944147,50.290298257],[29.266860428,50.290872186],[29.267529673,50.290019899],[29.268212393,50.289187686],[29.266478644,50.288102917]]]]},"id":"56"},{"type":"Feature","properties":{"id":"57","кадастр":"1822580900:08:000:0228","№":56,"район":"Коростишівський","н.п.":"Вільнянка","Фактична площа, га":5.77286,"Площа по обміну, га":2.21,"примітка":"без примітки"},"geometry":{"type":"MultiPolygon","coordinates":[[[[29.261874779,50.287402683],[29.260536289,50.288450161],[29.260756376,50.288619477],[29.261389688,50.288223448],[29.262288004,50.287790109],[29.262844959,50.288252146],[29.262755127,50.288295193],[29.264295738,50.289262299],[29.266478644,50.288102917],[29.263761241,50.28639823],[29.261874779,50.287402683]]]]},"id":"57"},{"type":"Feature","properties":{"id":"58","кадастр":"1822580900:08:000:0237","№":57,"район":"Коростишівський","н.п.":"Вільнянка","Фактична площа, га":3.467731,"Площа по обміну, га":2.9058,"примітка":"без примітки"},"geometry":{"type":"MultiPolygon","coordinates":[[[[29.26692331,50.283057555],[29.267659929,50.283640181],[29.268486379,50.284326121],[29.270300976,50.28358565],[29.268935537,50.281889412],[29.268643584,50.281909503],[29.26692331,50.283057555]]]]},"id":"58"},{"type":"Feature","properties":{"id":"59","кадастр":"1822580900:08:000:0240","№":58,"район":"Коростишівський","н.п.":"Вільнянка","Фактична площа, га":3.671752,"Площа по обміну, га":3.636,"примітка":"без примітки"},"geometry":{"type":"MultiPolygon","coordinates":[[[[29.270467164,50.286332222],[29.270615386,50.286274824],[29.271837095,50.285778329],[29.272111081,50.285666401],[29.270440215,50.28359426],[29.268535786,50.284366301],[29.268841214,50.284621732],[29.270359366,50.285996443],[29.270485131,50.286243255],[29.270467164,50.286332222]]]]},"id":"59"},{"type":"Feature","properties":{"id":"60","кадастр":"1822580900:08:000:0241","№":59,"район":"Коростишівський","н.п.":"Вільнянка","Фактична площа, га":4.440741,"Площа по обміну, га":3.8497,"примітка":"без примітки"},"geometry":{"type":"MultiPolygon","coordinates":[[[[29.270440215,50.28359426],[29.272111081,50.285666401],[29.273269908,50.285195729],[29.274145765,50.284839852],[29.27247939,50.282767675],[29.270440215,50.28359426]]]]},"id":"60"},{"type":"Feature","properties":{"id":"61","кадастр":"1822580900:08:000:0246","№":60,"район":"Коростишівський","н.п.":"Вільнянка","Фактична площа, га":4.081612,"Площа по обміну, га":4.0712,"примітка":"без примітки"},"geometry":{"type":"MultiPolygon","coordinates":[[[[29.271837095,50.285778329],[29.274055934,50.288530514],[29.275106963,50.287993865],[29.275425865,50.287864724],[29.273269908,50.285195729],[29.272111081,50.285666401],[29.271837095,50.285778329]]]]},"id":"61"},{"type":"Feature","properties":{"id":"62","кадастр":"1822580900:08:000:0247","№":61,"район":"Коростишівський","н.п.":"Вільнянка","Фактична площа, га":4.895894,"Площа по обміну, га":3.6445,"примітка":"без примітки"},"geometry":{"type":"MultiPolygon","coordinates":[[[[29.273269908,50.285195729],[29.275425865,50.287864724],[29.277164105,50.287158746],[29.27501264,50.284486842],[29.274145765,50.284839852],[29.273269908,50.285195729]]]]},"id":"62"},{"type":"Feature","properties":{"id":"63","кадастр":"1822580900:08:000:0248","№":62,"район":"Коростишівський","н.п.":"Вільнянка","Фактична площа, га":2.810349,"Площа по обміну, га":1.6865,"примітка":"без примітки"},"geometry":{"type":"MultiPolygon","coordinates":[[[[29.27501264,50.284486842],[29.277164105,50.287158746],[29.277896232,50.286860281],[29.278197167,50.286742616],[29.277878265,50.2864011],[29.277029357,50.285393756],[29.276427486,50.284549982],[29.276059177,50.284062078],[29.27501264,50.284486842]]]]},"id":"63"},{"type":"Feature","properties":{"id":"64","кадастр":"1822580900:08:000:1221","№":63,"район":"Коростишівський","н.п.":"Вільнянка","Фактична площа, га":3.075271,"Площа по обміну, га":0.83,"примітка":"без примітки"},"geometry":{"type":"MultiPolygon","coordinates":[[[[29.260320693,50.291259583],[29.257877275,50.293251045],[29.258348891,50.293483473],[29.259040594,50.293827808],[29.261654691,50.291692891],[29.260985446,50.291431759],[29.260320693,50.291259583]]]]},"id":"64"},{"type":"Feature","properties":{"id":"65","кадастр":"1822580900:08:000:1224","№":64,"район":"Коростишівський","н.п.":"Вільнянка","Фактична площа, га":2.143903,"Площа по обміну, га":1.9203,"примітка":"без примітки"},"geometry":{"type":"MultiPolygon","coordinates":[[[[29.269205031,50.290513481],[29.268216884,50.289282387],[29.267592555,50.290039987],[29.266029487,50.29203437],[29.26820341,50.290975492],[29.269205031,50.290513481]]]]},"id":"65"},{"type":"Feature","properties":{"id":"66","кадастр":"1822580900:08:000:1248","№":172,"район":"Коростишівський","н.п.":"Квітневе","Фактична площа, га":0.7,"Площа по обміну, га":1.5,"примітка":"без примітки"},"geometry":{"type":"MultiPolygon","coordinates":[[[[29.279306587,50.290456088],[29.280308208,50.291646978],[29.281848819,50.291130451],[29.280878638,50.290002681],[29.279306587,50.290456088]]]]},"id":"66"},{"type":"Feature","properties":{"id":"67","кадастр":"1822581500:02:000:0016","№":66,"район":"Коростишівський","н.п.":"Вільня","Фактична площа, га":6.3425,"Площа по обміну, га":6.1827,"примітка":"без примітки"},"geometry":{"type":"MultiPolygon","coordinates":[[[[29.258407282,50.270005439],[29.25954365,50.273559459],[29.261668166,50.273189142],[29.260504848,50.269546095],[29.26028476,50.269577675],[29.26005569,50.269718349],[29.258407282,50.270005439]]]]},"id":"67"},{"type":"Feature","properties":{"id":"68","кадастр":"1822581500:02:000:0017","№":67,"район":"Коростишівський","н.п.":"Вільня","Фактична площа, га":6.0014,"Площа по обміну, га":5.7743,"примітка":"без примітки"},"geometry":{"type":"MultiPolygon","coordinates":[[[[29.260504848,50.269546095],[29.261668166,50.273189142],[29.263648951,50.272841787],[29.262521566,50.269267616],[29.260504848,50.269546095]]]]},"id":"68"},{"type":"Feature","properties":{"id":"69","кадастр":"1822581500:03:000:0081","№":68,"район":"Коростишівський","н.п.":"Вільня","Фактична площа, га":6.652,"Площа по обміну, га":6.6307,"примітка":"без примітки"},"geometry":{"type":"MultiPolygon","coordinates":[[[[29.292040206,50.28687176],[29.292673518,50.286848801],[29.293711072,50.286808623],[29.294748626,50.286768445],[29.294348876,50.286346572],[29.293383187,50.285333487],[29.292880131,50.284805412],[29.292368091,50.28426585],[29.291582065,50.283439276],[29.289524923,50.28422567],[29.292040206,50.28687176]]]]},"id":"69"},{"type":"Feature","properties":{"id":"70","кадастр":"1822581500:03:000:0093","№":69,"район":"Коростишівський","н.п.":"Вільня","Фактична площа, га":7.0317,"Площа по обміну, га":6.9324,"примітка":"без примітки"},"geometry":{"type":"MultiPolygon","coordinates":[[[[29.295390922,50.279903215],[29.290135777,50.281918113],[29.290387306,50.282182168],[29.29131257,50.283155138],[29.296567715,50.281140292],[29.295390922,50.279903215]]]]},"id":"70"},{"type":"Feature","properties":{"id":"71","кадастр":"1822581500:03:000:0094","№":70,"район":"Коростишівський","н.п.":"Вільня","Фактична площа, га":6.3218,"Площа по обміну, га":6.22,"примітка":"без примітки"},"geometry":{"type":"MultiPolygon","coordinates":[[[[29.296567715,50.281140292],[29.29131257,50.283155138],[29.291582065,50.283439276],[29.292368091,50.28426585],[29.297623235,50.282253922],[29.296567715,50.281140292]]]]},"id":"71"},{"type":"Feature","properties":{"id":"72","кадастр":"1822581500:03:000:0096","№":71,"район":"Коростишівський","н.п.":"Вільня","Фактична площа, га":5.7594,"Площа по обміну, га":5.6431,"примітка":"без примітки"},"geometry":{"type":"MultiPolygon","coordinates":[[[[29.298638332,50.283318733],[29.293383187,50.285333487],[29.294348876,50.286346572],[29.298072393,50.284917341],[29.29960402,50.284331861],[29.298638332,50.283318733]]]]},"id":"72"},{"type":"Feature","properties":{"id":"73","кадастр":"1822581500:03:000:0097","№":72,"район":"Коростишівський","н.п.":"Вільня","Фактична площа, га":5.7484,"Площа по обміну, га":5.6963,"примітка":"без примітки"},"geometry":{"type":"MultiPolygon","coordinates":[[[[29.298072393,50.284917341],[29.294348876,50.286346572],[29.294748626,50.286768445],[29.29612754,50.286716787],[29.300668524,50.287643748],[29.298072393,50.284917341]]]]},"id":"73"},{"type":"Feature","properties":{"id":"74","кадастр":"1822581500:04:000:0109","№":75,"район":"Коростишівський","н.п.":"Вільня","Фактична площа, га":6.4259,"Площа по обміну, га":6.4258,"примітка":"без примітки"},"geometry":{"type":"MultiPolygon","coordinates":[[[[29.299550122,50.276814687],[29.294407267,50.27878666],[29.295507703,50.279940529],[29.300650558,50.277971473],[29.300044195,50.277334239],[29.299550122,50.276814687]]]]},"id":"74"},{"type":"Feature","properties":{"id":"75","кадастр":"1822581500:04:000:0110","№":76,"район":"Коростишівський","н.п.":"Вільня","Фактична площа, га":5.8745,"Площа по обміну, га":5.8744,"примітка":"без примітки"},"geometry":{"type":"MultiPolygon","coordinates":[[[[29.298544008,50.275758341],[29.293405645,50.277730359],[29.294407267,50.27878666],[29.299550122,50.276814687],[29.299002149,50.276240589],[29.298544008,50.275758341]]]]},"id":"75"},{"type":"Feature","properties":{"id":"76","кадастр":"1822581500:04:000:0128","№":78,"район":"Коростишівський","н.п.":"Вільня","Фактична площа, га":3.9668,"Площа по обміну, га":3.8577,"примітка":"без примітки"},"geometry":{"type":"MultiPolygon","coordinates":[[[[29.310689231,50.27513256],[29.308182931,50.277460539],[29.308313187,50.277618412],[29.308371578,50.277644246],[29.309638202,50.278080548],[29.312126536,50.275769823],[29.310689231,50.27513256]]]]},"id":"76"},{"type":"Feature","properties":{"id":"77","кадастр":"1822581500:04:000:0147","№":79,"район":"Коростишівський","н.п.":"Вільня","Фактична площа, га":4.4146,"Площа по обміну, га":4.2469,"примітка":"без примітки"},"geometry":{"type":"MultiPolygon","coordinates":[[[[29.320206881,50.272500171],[29.317062778,50.275422487],[29.318504574,50.275853069],[29.320826719,50.27369151],[29.321657661,50.272919296],[29.320206881,50.272500171]]]]},"id":"77"},{"type":"Feature","properties":{"id":"78","кадастр":"1822581500:06:000:0079","№":89,"район":"Коростишівський","н.п.":"Вільня","Фактична площа, га":3.7189,"Площа по обміну, га":3.3823,"примітка":"без примітки"},"geometry":{"type":"MultiPolygon","coordinates":[[[[29.301629721,50.292978444],[29.303147874,50.29222089],[29.303781187,50.290312605],[29.300569709,50.291052972],[29.301629721,50.292978444]]]]},"id":"78"},{"type":"Feature","properties":{"id":"79","кадастр":"1822581500:06:000:0080","№":90,"район":"Коростишівський","н.п.":"Вільня","Фактична площа, га":6.5576,"Площа по обміну, га":5.369,"примітка":"без примітки"},"geometry":{"type":"MultiPolygon","coordinates":[[[[29.292040206,50.28687176],[29.289524923,50.28422567],[29.286600907,50.285347837],[29.287966346,50.286777055],[29.288819745,50.286624951],[29.289286869,50.286975075],[29.292040206,50.28687176]]]]},"id":"79"},{"type":"Feature","properties":{"id":"80","кадастр":"1822581500:06:000:0087","№":91,"район":"Коростишівський","н.п.":"Вільня","Фактична площа, га":7.6735,"Площа по обміну, га":7.6351,"примітка":"без примітки"},"geometry":{"type":"MultiPolygon","coordinates":[[[[29.282625862,50.279208601],[29.286241581,50.277825082],[29.286048443,50.277621283],[29.284939023,50.276455876],[29.284822242,50.276332445],[29.284099099,50.276355409],[29.281934159,50.276424301],[29.280739399,50.277222292],[29.280820248,50.277305535],[29.281076268,50.277578226],[29.282625862,50.279208601]]]]},"id":"80"},{"type":"Feature","properties":{"id":"81","кадастр":"1822581500:06:000:1086","№":93,"район":"Коростишівський","н.п.":"Вільня","Фактична площа, га":2.672,"Площа по обміну, га":2.5965,"примітка":"без примітки"},"geometry":{"type":"MultiPolygon","coordinates":[[[[29.281251439,50.279736738],[29.282625862,50.279208601],[29.281076268,50.277578226],[29.280820248,50.277305535],[29.280739399,50.277222292],[29.28045643,50.277411741],[29.279697354,50.277919806],[29.279737778,50.277965732],[29.28105381,50.279527206],[29.281251439,50.279736738]]]]},"id":"81"},{"type":"Feature","properties":{"id":"82","кадастр":"1822581500:08:000:0013","№":97,"район":"Коростишівський","н.п.":"Вільня","Фактична площа, га":5.7549,"Площа по обміну, га":5.6127,"примітка":"без примітки"},"geometry":{"type":"MultiPolygon","coordinates":[[[[29.252545774,50.271027462],[29.253682143,50.274587148],[29.255613521,50.274248415],[29.254477152,50.270694445],[29.252545774,50.271027462]]]]},"id":"82"},{"type":"Feature","properties":{"id":"83","кадастр":"1822583600:13:000:0018","№":105,"район":"Коростишівський","н.п.":"Щигліївка","Фактична площа, га":5.3356,"Площа по обміну, га":5.1252,"примітка":"без примітки"},"geometry":{"type":"MultiPolygon","coordinates":[[[[29.253614769,50.263996301],[29.253533921,50.265207951],[29.25350248,50.265291215],[29.258816015,50.265357252],[29.258694742,50.264056597],[29.253614769,50.263996301]]]]},"id":"83"},{"type":"Feature","properties":{"id":"84","кадастр":"1822581500:05:000:0193","№":81,"район":"Коростишівський","н.п.":"Вільня","Фактична площа, га":1.6846,"Площа по обміну, га":1.6846,"примітка":"без примітки"},"geometry":{"type":"MultiPolygon","coordinates":[[[[29.306615371,50.259241281],[29.310563467,50.261595879],[29.311021608,50.261328839],[29.307073512,50.258977099],[29.306615371,50.259241281]]]]},"id":"84"},{"type":"Feature","properties":{"id":"85","кадастр":"1822581500:05:000:0194","№":82,"район":"Коростишівський","н.п.":"Вільня","Фактична площа, га":3.357,"Площа по обміну, га":3.357,"примітка":"без примітки"},"geometry":{"type":"MultiPolygon","coordinates":[[[[29.307073512,50.258977099],[29.311021608,50.261328839],[29.311933398,50.260800497],[29.30798081,50.258448732],[29.307118428,50.258948384],[29.307073512,50.258977099]]]]},"id":"85"},{"type":"Feature","properties":{"id":"86","кадастр":"1822581500:05:000:0203","№":84,"район":"Коростишівський","н.п.":"Вільня","Фактична площа, га":6.0057,"Площа по обміну, га":5.73,"примітка":"без примітки"},"geometry":{"type":"MultiPolygon","coordinates":[[[[29.309382182,50.251613881],[29.314498088,50.254663839],[29.314781057,50.254497274],[29.315755729,50.253931522],[29.310644315,50.25088439],[29.309382182,50.251613881]]]]},"id":"86"},{"type":"Feature","properties":{"id":"87","кадастр":"1822581500:05:000:0214","№":85,"район":"Коростишівський","н.п.":"Вільня","Фактична площа, га":6.4319,"Площа по обміну, га":6.4319,"примітка":"без примітки"},"geometry":{"type":"MultiPolygon","coordinates":[[[[29.295098969,50.259930444],[29.299994788,50.26285066],[29.301517432,50.262124212],[29.296486866,50.25912642],[29.295098969,50.259930444]]]]},"id":"87"},{"type":"Feature","properties":{"id":"88","кадастр":"1822581500:05:000:0218","№":86,"район":"Коростишівський","н.п.":"Вільня","Фактична площа, га":2.104,"Площа по обміну, га":2.104,"примітка":"без примітки"},"geometry":{"type":"MultiPolygon","coordinates":[[[[29.293086743,50.262109855],[29.291173331,50.263218187],[29.291734779,50.263534028],[29.291577573,50.263757987],[29.292228852,50.263938876],[29.29421862,50.26278462],[29.293086743,50.262109855]]]]},"id":"88"},{"type":"Feature","properties":{"id":"89","кадастр":"1822581500:05:000:1193","№":87,"район":"Коростишівський","н.п.":"Вільня","Фактична площа, га":1.7701,"Площа по обміну, га":1.7701,"примітка":"без примітки"},"geometry":{"type":"MultiPolygon","coordinates":[[[[29.306134773,50.259519819],[29.310078377,50.261874403],[29.310563467,50.261595879],[29.306615371,50.259241281],[29.306134773,50.259519819]]]]},"id":"89"},{"type":"Feature","properties":{"id":"90","кадастр":"1822581500:05:000:1219","№":88,"район":"Коростишівський","н.п.":"Вільня","Фактична площа, га":1.5423,"Площа по обміну, га":1.5423,"примітка":"без примітки"},"geometry":{"type":"MultiPolygon","coordinates":[[[[29.292228852,50.261598751],[29.290292983,50.262721451],[29.291173331,50.263218187],[29.293086743,50.262109855],[29.292228852,50.261598751]]]]},"id":"90"},{"type":"Feature","properties":{"id":"91","кадастр":"1822588700:12:000:0301","№":171,"район":"Коростишівський","н.п.":"Щигліївка","Фактична площа, га":5.4083,"Площа по обміну, га":5.4083,"примітка":"без примітки"},"geometry":{"type":"MultiPolygon","coordinates":[[[[29.246396806,50.210934869],[29.247124442,50.210417467],[29.247623007,50.210026537],[29.246603419,50.206485024],[29.246486638,50.206485024],[29.246199177,50.206485024],[29.246015022,50.206433279],[29.245803918,50.206315416],[29.245709595,50.206223425],[29.245660188,50.206059565],[29.245660188,50.205941701],[29.245763494,50.205815212],[29.246028497,50.205697347],[29.246329433,50.205625478],[29.246356382,50.205628353],[29.246221635,50.205165514],[29.244802297,50.205392622],[29.246396806,50.210934869]],[[29.247012152,50.209681596],[29.246836981,50.209779329],[29.246661809,50.209813824],[29.246509096,50.20977358],[29.246374348,50.209667223],[29.246396806,50.209477505],[29.246468671,50.209371147],[29.24663486,50.20922742],[29.246881896,50.209161305],[29.247075034,50.209215922],[29.247155883,50.209348151],[29.247137916,50.20950625],[29.247012152,50.209681596]]]]},"id":"91"},{"type":"Feature","properties":{"id":"92","кадастр":"1822588700:12:000:0005","№":169,"район":"Коростишівський","н.п.":"Щигліївка","Фактична площа, га":3.3455,"Площа по обміну, га":1.123,"примітка":"без примітки"},"geometry":{"type":"MultiPolygon","coordinates":[[[[29.244433987,50.21105847],[29.242888885,50.205697347],[29.242273539,50.205797963],[29.24279007,50.207580277],[29.242956259,50.210259371],[29.244433987,50.21105847]]]]},"id":"92"},{"type":"Feature","properties":{"id":"93","кадастр":"1822588700:12:000:0261","№":170,"район":"Коростишівський","н.п.":"Щигліївка","Фактична площа, га":4.8627,"Площа по обміну, га":4.8627,"примітка":"без примітки"},"geometry":{"type":"MultiPolygon","coordinates":[[[[29.246603419,50.206485024],[29.247623007,50.210026537],[29.247932925,50.209782204],[29.248179962,50.20953787],[29.248638103,50.208942839],[29.248727934,50.208793361],[29.247618515,50.204941279],[29.246221635,50.205165514],[29.246356382,50.205628353],[29.24652257,50.205639852],[29.246697742,50.205720345],[29.246859439,50.205852584],[29.246962745,50.206022194],[29.246940287,50.206223425],[29.246917829,50.206407407],[29.246792065,50.206487899],[29.246603419,50.206485024]]]]},"id":"93"},{"type":"Feature","properties":{"id":"94","кадастр":"1822588700:06:000:0016","№":146,"район":"Коростишівський","н.п.":"Щигліївка","Фактична площа, га":3.2924,"Площа по обміну, га":0.6,"примітка":"без примітки"},"geometry":{"type":"MultiPolygon","coordinates":[[[[29.263909463,50.18236298],[29.264659556,50.182613206],[29.266519069,50.17725464],[29.265728551,50.177338058],[29.263909463,50.18236298]]]]},"id":"94"},{"type":"Feature","properties":{"id":"95","кадастр":"1822588700:06:000:0391","№":158,"район":"Коростишівський","н.п.":"Щигліївка","Фактична площа, га":3.3197,"Площа по обміну, га":0.9,"примітка":"без примітки"},"geometry":{"type":"MultiPolygon","coordinates":[[[[29.267354502,50.177176975],[29.265306343,50.182828916],[29.265948638,50.183044626],[29.268100103,50.177102187],[29.267354502,50.177176975]]]]},"id":"95"},{"type":"Feature","properties":{"id":"96","кадастр":"1822580900:06:000:0052","№":34,"район":"Коростишівський","н.п.":"Вільнянка","Фактична площа, га":1.538487,"Площа по обміну, га":1.4472,"примітка":"без примітки"},"geometry":{"type":"MultiPolygon","coordinates":[[[[29.215939426,50.302805459],[29.220417528,50.304193989],[29.220448969,50.304171039],[29.220749905,50.303861205],[29.216285278,50.302478403],[29.215939426,50.302805459]]]]},"id":"96"},{"type":"Feature","properties":{"id":"97","кадастр":"1822580900:04:000:0082","№":13,"район":"Коростишівський","н.п.":"Вільнянка","Фактична площа, га":3.692302,"Площа по обміну, га":2.5517,"примітка":"без примітки"},"geometry":{"type":"MultiPolygon","coordinates":[[[[29.207257209,50.299285182],[29.208447477,50.301066871],[29.209561388,50.300751279],[29.210944793,50.30029797],[29.210037495,50.298938018],[29.208043235,50.299262229],[29.207257209,50.299285182]]]]},"id":"97"},{"type":"Feature","properties":{"id":"98","кадастр":"1822580900:05:000:0079","№":18,"район":"Коростишівський","н.п.":"Вільнянка","Фактична площа, га":3.507076,"Площа по обміну, га":3.4109,"примітка":"без примітки"},"geometry":{"type":"MultiPolygon","coordinates":[[[[29.207221277,50.294499253],[29.208658581,50.296656998],[29.210545043,50.296708645],[29.208793328,50.294083188],[29.208465443,50.294169271],[29.207221277,50.294499253]]]]},"id":"98"},{"type":"Feature","properties":{"id":"99","кадастр":"1822580900:05:000:0080","№":19,"район":"Коростишівський","н.п.":"Вільнянка","Фактична площа, га":2.701986,"Площа по обміну, га":2.696,"примітка":"без примітки"},"geometry":{"type":"MultiPolygon","coordinates":[[[[29.208793328,50.294083188],[29.210545043,50.296708645],[29.21067979,50.296714383],[29.211694887,50.296694299],[29.209907239,50.293787635],[29.208793328,50.294083188]]]]},"id":"99"},{"type":"Feature","properties":{"id":"100","кадастр":"1822580900:05:000:0084","№":20,"район":"Коростишівський","н.п.":"Вільнянка","Фактична площа, га":3.543381,"Площа по обміну, га":3.1695,"примітка":"без примітки"},"geometry":{"type":"MultiPolygon","coordinates":[[[[29.217870804,50.296553704],[29.217996568,50.298017015],[29.218876917,50.2980371],[29.220031253,50.297973977],[29.220987958,50.297666972],[29.219874047,50.296031492],[29.217870804,50.296553704]]]]},"id":"100"},{"type":"Feature","properties":{"id":"101","кадастр":"1822580900:05:000:0087","№":21,"район":"Коростишівський","н.п.":"Вільнянка","Фактична площа, га":3.212615,"Площа по обміну, га":3.1785,"примітка":"без примітки"},"geometry":{"type":"MultiPolygon","coordinates":[[[[29.214870431,50.293477734],[29.216640112,50.296266775],[29.217161135,50.296217997],[29.217825889,50.296057315],[29.217911229,50.29603723],[29.217592327,50.295532228],[29.216087648,50.293159222],[29.214870431,50.293477734]]]]},"id":"101"},{"type":"Feature","properties":{"id":"102","кадастр":"1822580900:05:000:0088","№":22,"район":"Коростишівський","н.п.":"Вільнянка","Фактична площа, га":2.837107,"Площа по обміну, га":2.8154,"примітка":"без примітки"},"geometry":{"type":"MultiPolygon","coordinates":[[[[29.213734062,50.293773288],[29.215391454,50.296384416],[29.216640112,50.296266775],[29.214870431,50.293477734],[29.213734062,50.293773288]]]]},"id":"102"},{"type":"Feature","properties":{"id":"103","кадастр":"1822580900:05:000:0090","№":23,"район":"Коростишівський","н.п.":"Вільнянка","Фактична площа, га":1.312947,"Площа по обміну, га":1.2718,"примітка":"без примітки"},"geometry":{"type":"MultiPolygon","coordinates":[[[[29.212031755,50.294215181],[29.213518467,50.296562312],[29.214174237,50.296499187],[29.212624643,50.294060232],[29.212031755,50.294215181]]]]},"id":"103"},{"type":"Feature","properties":{"id":"104","кадастр":"1822580900:05:000:0094","№":26,"район":"Коростишівський","н.п.":"Вільнянка","Фактична площа, га":3.540843,"Площа по обміну, га":3.5408,"примітка":"без примітки"},"geometry":{"type":"MultiPolygon","coordinates":[[[[29.212880663,50.290984101],[29.214493139,50.293526515],[29.215997817,50.293133396],[29.214389833,50.290593831],[29.213091767,50.290929578],[29.212880663,50.290984101]]]]},"id":"104"},{"type":"Feature","properties":{"id":"105","кадастр":"1822580900:05:000:0095","№":27,"район":"Коростишівський","н.п.":"Вільнянка","Фактична площа, га":3.835464,"Площа по обміну, га":3.8354,"примітка":"без примітки"},"geometry":{"type":"MultiPolygon","coordinates":[[[[29.214389833,50.290593831],[29.215997817,50.293133396],[29.21768665,50.292694363],[29.217506987,50.292430367],[29.216720961,50.291279671],[29.215975359,50.290180601],[29.214488647,50.290565135],[29.214389833,50.290593831]]]]},"id":"105"},{"type":"Feature","properties":{"id":"106","кадастр":"1822580900:05:000:1078","№":32,"район":"Коростишівський","н.п.":"Вільнянка","Фактична площа, га":1.369903,"Площа по обміну, га":1.3692,"примітка":"без примітки"},"geometry":{"type":"MultiPolygon","coordinates":[[[[29.205586343,50.294932532],[29.206650846,50.29652788],[29.207234751,50.296616828],[29.207692892,50.296628305],[29.206417284,50.294714458],[29.205586343,50.294932532]]]]},"id":"106"},{"type":"Feature","properties":{"id":"107","кадастр":"1822580900:05:000:1080","№":33,"район":"Коростишівський","н.п.":"Вільнянка","Фактична площа, га":0.841994,"Площа по обміну, га":0.7653,"примітка":"без примітки"},"geometry":{"type":"MultiPolygon","coordinates":[[[[29.210491144,50.294616899],[29.211142423,50.295678565],[29.212013789,50.295451887],[29.211344544,50.294393085],[29.210491144,50.294616899]]]]},"id":"107"},{"type":"Feature","properties":{"id":"108","кадастр":"1822580900:06:000:0185","№":37,"район":"Коростишівський","н.п.":"Вільнянка","Фактична площа, га":4.203088,"Площа по обміну, га":4.0876,"примітка":"без примітки"},"geometry":{"type":"MultiPolygon","coordinates":[[[[29.219743792,50.299167548],[29.225120209,50.300521756],[29.225897251,50.299658166],[29.224473422,50.299299528],[29.223745786,50.299009746],[29.223440359,50.299038437],[29.223094508,50.298946625],[29.22216026,50.299087213],[29.221275419,50.298441654],[29.221113722,50.298315411],[29.220071677,50.29886342],[29.219743792,50.299167548]]]]},"id":"108"},{"type":"Feature","properties":{"id":"109","кадастр":"1822580900:07:000:0150","№":50,"район":"Коростишівський","н.п.":"Вільнянка","Фактична площа, га":4.622754,"Площа по обміну, га":1.7615,"примітка":"без примітки"},"geometry":{"type":"MultiPolygon","coordinates":[[[[29.220377104,50.288249276],[29.21586307,50.289609534],[29.216554772,50.290645485],[29.221257453,50.289224992],[29.220642107,50.28832963],[29.220377104,50.288249276]]]]},"id":"109"},{"type":"Feature","properties":{"id":"110","кадастр":"1822580900:07:000:0151","№":51,"район":"Коростишівський","н.п.":"Вільнянка","Фактична площа, га":4.46125,"Площа по обміну, га":3.1694,"примітка":"без примітки"},"geometry":{"type":"MultiPolygon","coordinates":[[[[29.221257453,50.289224992],[29.216554772,50.290645485],[29.216941048,50.291222279],[29.217224017,50.291638369],[29.221935681,50.290217907],[29.221257453,50.289224992]]]]},"id":"110"},{"type":"Feature","properties":{"id":"111","кадастр":"1822580900:07:000:0152","№":52,"район":"Коростишівський","н.п.":"Вільнянка","Фактична площа, га":4.289824,"Площа по обміну, га":4.2417,"примітка":"без примітки"},"geometry":{"type":"MultiPolygon","coordinates":[[[[29.221935681,50.290217907],[29.217224017,50.291638369],[29.217722582,50.292367237],[29.217875296,50.29259106],[29.22258696,50.291167756],[29.221935681,50.290217907]]]]},"id":"111"},{"type":"Feature","properties":{"id":"112","кадастр":"1822587000:02:000:0151","№":118,"район":"Коростишівський","н.п.":"Стрижівка","Фактична площа, га":3.3459,"Площа по обміну, га":3.0437,"примітка":"без примітки"},"geometry":{"type":"MultiPolygon","coordinates":[[[[28.954812648,50.295787599],[28.952701607,50.301391068],[28.953415768,50.301500089],[28.955526809,50.295890895],[28.954812648,50.295787599]]]]},"id":"112"},{"type":"Feature","properties":{"id":"113","кадастр":"1822587000:02:000:0164","№":119,"район":"Коростишівський","н.п.":"Стрижівка","Фактична площа, га":3.3025,"Площа по обміну, га":2.9424,"примітка":"без примітки"},"geometry":{"type":"MultiPolygon","coordinates":[[[[28.946588572,50.300564791],[28.945591442,50.304082105],[28.946709844,50.304242759],[28.947729432,50.300650863],[28.947262308,50.300579137],[28.946588572,50.300564791]]]]},"id":"113"},{"type":"Feature","properties":{"id":"114","кадастр":"1822587000:06:000:0019","№":140,"район":"Коростишівський","н.п.":"Стрижівка","Фактична площа, га":3.3889,"Площа по обміну, га":2.7222,"примітка":"без примітки"},"geometry":{"type":"MultiPolygon","coordinates":[[[[28.942990819,50.291193583],[28.952486012,50.292812013],[28.952719573,50.292358628],[28.944226002,50.290909491],[28.943925067,50.291256714],[28.94302226,50.291167756],[28.942990819,50.291193583]]]]},"id":"114"},{"type":"Feature","properties":{"id":"115","кадастр":"1822587000:02:000:0066","№":116,"район":"Коростишівський","н.п.":"Стрижівка","Фактична площа, га":2.1041,"Площа по обміну, га":2.0646,"примітка":"без примітки"},"geometry":{"type":"MultiPolygon","coordinates":[[[[28.951129555,50.295778991],[28.949220635,50.300845957],[28.949714709,50.30092342],[28.951619137,50.295862202],[28.951129555,50.295778991]]]]},"id":"115"},{"type":"Feature","properties":{"id":"116","кадастр":"1822587000:02:000:0070","№":117,"район":"Коростишівський","н.п.":"Стрижівка","Фактична площа, га":3.1959,"Площа по обміну, га":3.1194,"примітка":"без примітки"},"geometry":{"type":"MultiPolygon","coordinates":[[[[28.952023379,50.301284915],[28.952701607,50.301391068],[28.954812648,50.295787599],[28.954129928,50.295687173],[28.953276529,50.297953893],[28.953312462,50.297968239],[28.953245088,50.298039969],[28.952023379,50.301284915]]]]},"id":"116"},{"type":"Feature","properties":{"id":"117","кадастр":"1822587000:06:000:0211","№":141,"район":"Коростишівський","н.п.":"Стрижівка","Фактична площа, га":3.5334,"Площа по обміну, га":3.4985,"примітка":"без примітки"},"geometry":{"type":"MultiPolygon","coordinates":[[[[28.957534543,50.292771839],[28.957265049,50.29344617],[28.963431983,50.294499253],[28.963701478,50.293822069],[28.957534543,50.292771839]]]]},"id":"117"},{"type":"Feature","properties":{"id":"118","кадастр":"1822587000:06:000:0213","№":142,"район":"Коростишівський","н.п.":"Стрижівка","Фактична площа, га":3.67,"Площа по обміну, га":3.6241,"примітка":"без примітки"},"geometry":{"type":"MultiPolygon","coordinates":[[[[28.954794682,50.291842109],[28.963876649,50.29338878],[28.964083262,50.292875142],[28.956142155,50.291523586],[28.955949017,50.291621152],[28.954794682,50.291842109]]]]},"id":"118"},{"type":"Feature","properties":{"id":"119","кадастр":"1822587000:06:000:0214","№":143,"район":"Коростишівський","н.п.":"Стрижівка","Фактична площа, га":3.6112,"Площа по обміну, га":3.1169,"примітка":"без примітки"},"geometry":{"type":"MultiPolygon","coordinates":[[[[28.956142155,50.291523586],[28.964083262,50.292875142],[28.96436174,50.292172108],[28.960049826,50.291437498],[28.95886405,50.291578108],[28.958325061,50.291624021],[28.956577838,50.291308367],[28.956142155,50.291523586]]]]},"id":"119"},{"type":"Feature","properties":{"id":"120","кадастр":"1822587000:07:000:0068","№":144,"район":"Коростишівський","н.п.":"Стрижівка","Фактична площа, га":4.7563,"Площа по обміну, га":4.6633,"примітка":"без примітки"},"geometry":{"type":"MultiPolygon","coordinates":[[[[28.952369231,50.295428932],[28.950267173,50.301009491],[28.951286761,50.301170155],[28.952423129,50.298148998],[28.952351264,50.298123175],[28.952490503,50.297973977],[28.953388818,50.295581007],[28.95239618,50.295434671],[28.952369231,50.295428932]]]]},"id":"120"},{"type":"Feature","properties":{"id":"121","кадастр":"1822587000:04:000:0007","№":120,"район":"Коростишівський","н.п.":"Стрижівка","Фактична площа, га":2.7537,"Площа по обміну, га":2.6853,"примітка":"без примітки"},"geometry":{"type":"MultiPolygon","coordinates":[[[[28.959425497,50.322694288],[28.959659059,50.322691421],[28.960193557,50.322788923],[28.96208451,50.318667859],[28.961895864,50.318406875],[28.96142874,50.318340912],[28.959425497,50.322694288]]]]},"id":"121"},{"type":"Feature","properties":{"id":"122","кадастр":"1822587000:04:000:0009","№":121,"район":"Коростишівський","н.п.":"Стрижівка","Фактична площа, га":2.5831,"Площа по обміну, га":2.5677,"примітка":"без примітки"},"geometry":{"type":"MultiPolygon","coordinates":[[[[28.991760356,50.31805985],[28.991805271,50.318515858],[28.999005268,50.318226193],[28.998816622,50.317775919],[28.991760356,50.31805985]]]]},"id":"122"},{"type":"Feature","properties":{"id":"123","кадастр":"1822587000:04:000:0010","№":122,"район":"Коростишівський","н.п.":"Стрижівка","Фактична площа, га":2.5529,"Площа по обміну, га":2.5528,"примітка":"без примітки"},"geometry":{"type":"MultiPolygon","coordinates":[[[[28.99180078,50.318469971],[28.991845696,50.318960389],[28.998407889,50.318584689],[28.99835399,50.318097134],[28.99180078,50.318469971]]]]},"id":"123"},{"type":"Feature","properties":{"id":"124","кадастр":"1822587000:04:000:0014","№":123,"район":"Коростишівський","н.п.":"Стрижівка","Фактична площа, га":2.1061,"Площа по обміну, га":2.0566,"примітка":"без примітки"},"geometry":{"type":"MultiPolygon","coordinates":[[[[28.985058924,50.319072238],[28.985058924,50.31946801],[28.99180078,50.319195559],[28.991760356,50.318802653],[28.985058924,50.319072238]]]]},"id":"124"},{"type":"Feature","properties":{"id":"125","кадастр":"1822587000:04:000:0017","№":124,"район":"Коростишівський","н.п.":"Стрижівка","Фактична площа, га":2.8646,"Площа по обміну, га":2.5059,"примітка":"без примітки"},"geometry":{"type":"MultiPolygon","coordinates":[[[[28.977580449,50.313642948],[28.984717564,50.312762387],[28.984699598,50.312208801],[28.981609393,50.312593157],[28.978222744,50.313175421],[28.977248072,50.313353254],[28.977580449,50.313642948]]]]},"id":"125"},{"type":"Feature","properties":{"id":"126","кадастр":"1822587000:04:000:0020","№":125,"район":"Коростишівський","н.п.":"Стрижівка","Фактична площа, га":2.9928,"Площа по обміну, га":2.9418,"примітка":"без примітки"},"geometry":{"type":"MultiPolygon","coordinates":[[[[28.979408521,50.315217592],[28.984771463,50.314555044],[28.984749005,50.313895354],[28.978734784,50.314638221],[28.979408521,50.315217592]]]]},"id":"126"},{"type":"Feature","properties":{"id":"127","кадастр":"1822587000:04:000:0021","№":126,"район":"Коростишівський","н.п.":"Стрижівка","Фактична площа, га":2.9927,"Площа по обміну, га":2.9135,"примітка":"без примітки"},"geometry":{"type":"MultiPolygon","coordinates":[[[[28.980172089,50.315880132],[28.984793921,50.315309373],[28.984771463,50.314555044],[28.979408521,50.315217592],[28.980172089,50.315880132]]]]},"id":"127"},{"type":"Feature","properties":{"id":"128","кадастр":"1822587000:04:000:0022","№":127,"район":"Коростишівський","н.п.":"Стрижівка","Фактична площа, га":2.9931,"Площа по обміну, га":2.9388,"примітка":"без примітки"},"geometry":{"type":"MultiPolygon","coordinates":[[[[28.981092862,50.316671725],[28.98482087,50.316212832],[28.984793921,50.315309373],[28.980172089,50.315880132],[28.981092862,50.316671725]]]]},"id":"128"},{"type":"Feature","properties":{"id":"129","кадастр":"1822587000:04:000:0023","№":128,"район":"Коростишівський","н.п.":"Стрижівка","Фактична площа, га":2.9928,"Площа по обміну, га":2.849,"примітка":"без примітки"},"geometry":{"type":"MultiPolygon","coordinates":[[[[28.981092862,50.316671725],[28.981546511,50.317064649],[28.981551003,50.317113406],[28.981501595,50.317113406],[28.981645326,50.317727163],[28.984852311,50.317331377],[28.98482087,50.316212832],[28.981092862,50.316671725]]]]},"id":"129"},{"type":"Feature","properties":{"id":"130","кадастр":"1822587000:04:000:0027","№":129,"район":"Коростишівський","н.п.":"Стрижівка","Фактична площа, га":2.8967,"Площа по обміну, га":2.2407,"примітка":"без примітки"},"geometry":{"type":"MultiPolygon","coordinates":[[[[28.964271908,50.323672166],[28.964456063,50.323901577],[28.964788439,50.32432025],[28.973165229,50.323614813],[28.972954125,50.323348121],[28.969086878,50.323543122],[28.966454814,50.323692239],[28.965870909,50.323700842],[28.964271908,50.323672166]]]]},"id":"130"},{"type":"Feature","properties":{"id":"131","кадастр":"1822587000:04:000:0029","№":130,"район":"Коростишівський","н.п.":"Стрижівка","Фактична площа, га":4.3303,"Площа по обміну, га":4.2228,"примітка":"без примітки"},"geometry":{"type":"MultiPolygon","coordinates":[[[[28.958343027,50.324426351],[28.959030238,50.325286623],[28.96142874,50.325048616],[28.965116324,50.324733183],[28.964788439,50.32432025],[28.964456063,50.323901577],[28.958343027,50.324426351]]]]},"id":"131"},{"type":"Feature","properties":{"id":"132","кадастр":"1822587000:04:000:0071","№":131,"район":"Коростишівський","н.п.":"Стрижівка","Фактична площа, га":2.6839,"Площа по обміну, га":2.6729,"примітка":"без примітки"},"geometry":{"type":"MultiPolygon","coordinates":[[[[28.965116324,50.324733183],[28.965345395,50.32471311],[28.968812892,50.324374734],[28.973461673,50.323981871],[28.973165229,50.323614813],[28.964788439,50.32432025],[28.965116324,50.324733183]]]]},"id":"132"},{"type":"Feature","properties":{"id":"133","кадастр":"1822587000:04:000:0085","№":132,"район":"Коростишівський","н.п.":"Стрижівка","Фактична площа, га":2.9272,"Площа по обміну, га":2.664,"примітка":"без примітки"},"geometry":{"type":"MultiPolygon","coordinates":[[[[28.978128421,50.314113339],[28.98473553,50.313298757],[28.984717564,50.312762387],[28.977580449,50.313642948],[28.978128421,50.314113339]]]]},"id":"133"},{"type":"Feature","properties":{"id":"134","кадастр":"1822587000:04:000:0103","№":133,"район":"Коростишівський","н.п.":"Стрижівка","Фактична площа, га":2.9926,"Площа по обміну, га":2.9313,"примітка":"без примітки"},"geometry":{"type":"MultiPolygon","coordinates":[[[[28.96798195,50.319892458],[28.966418882,50.323302238],[28.967532793,50.323290767],[28.96909137,50.319901061],[28.967995425,50.319892458],[28.96798195,50.319892458]]]]},"id":"134"},{"type":"Feature","properties":{"id":"135","кадастр":"1822587000:04:000:0106","№":134,"район":"Коростишівський","н.п.":"Стрижівка","Фактична площа, га":2.9929,"Площа по обміну, га":2.8843,"примітка":"без примітки"},"geometry":{"type":"MultiPolygon","coordinates":[[[[28.963095115,50.323319444],[28.96316698,50.323333782],[28.96419106,50.323322312],[28.965767603,50.319898193],[28.96476149,50.319883854],[28.96467615,50.31987525],[28.963095115,50.323319444]]]]},"id":"135"},{"type":"Feature","properties":{"id":"136","кадастр":"1822587000:04:000:0117","№":138,"район":"Коростишівський","н.п.":"Стрижівка","Фактична площа, га":2.6776,"Площа по обміну, га":2.1362,"примітка":"без примітки"},"geometry":{"type":"MultiPolygon","coordinates":[[[[28.953779586,50.317752975],[28.956541905,50.321828233],[28.957238099,50.322874953],[28.957107844,50.3225423],[28.957000046,50.322066257],[28.956941655,50.321584473],[28.957018012,50.321355051],[28.954520696,50.317666935],[28.953779586,50.317752975]]]]},"id":"136"},{"type":"Feature","properties":{"id":"137","кадастр":"1822587000:04:000:0129","№":173,"район":"Коростишівський","н.п.":"Стрижівка","Фактична площа, га":2.12,"Площа по обміну, га":4.24,"примітка":"без примітки"},"geometry":{"type":"MultiPolygon","coordinates":[[[[28.999184932,50.318650652],[28.991845696,50.31894605],[28.99188612,50.319367634],[28.999306204,50.31894605],[28.999184932,50.318650652]]]]},"id":"137"},{"type":"Feature","properties":{"id":"138","кадастр":"1822587000:04:000:0130","№":139,"район":"Коростишівський","н.п.":"Стрижівка","Фактична площа, га":2.9928,"Площа по обміну, га":2.933,"примітка":"без примітки"},"geometry":{"type":"MultiPolygon","coordinates":[[[[28.966872531,50.319901061],[28.965304971,50.323310841],[28.966418882,50.323302238],[28.96798195,50.319892458],[28.966872531,50.319901061]]]]},"id":"138"},{"type":"Feature","properties":{"id":"139","кадастр":"1822588700:06:000:0030","№":155,"район":"Коростишівський","н.п.":"Щигліївка","Фактична площа, га":4.4585,"Площа по обміну, га":4.4585,"примітка":"без примітки"},"geometry":{"type":"MultiPolygon","coordinates":[[[[29.269667664,50.169070378],[29.268266292,50.172942615],[29.269757495,50.172804532],[29.271176833,50.168880498],[29.271073527,50.168894883],[29.269667664,50.169070378]]]]},"id":"139"},{"type":"Feature","properties":{"id":"140","кадастр":"1822588700:06:000:0044","№":156,"район":"Коростишівський","н.п.":"Щигліївка","Фактична площа, га":7.3051,"Площа по обміну, га":6.271404,"примітка":"без примітки"},"geometry":{"type":"MultiPolygon","coordinates":[[[[29.287288118,50.167090986],[29.286484126,50.171193531],[29.28658294,50.171213669],[29.288154992,50.171492721],[29.288545759,50.171193531],[29.289107206,50.170902969],[29.288954493,50.170140597],[29.288680507,50.170068675],[29.288967967,50.168618693],[29.289583313,50.168057676],[29.288905085,50.166987411],[29.287418374,50.167082355],[29.287288118,50.167090986]]]]},"id":"140"},{"type":"Feature","properties":{"id":"141","кадастр":"1822588700:06:000:0398","№":160,"район":"Коростишівський","н.п.":"Щигліївка","Фактична площа, га":4.9537,"Площа по обміну, га":4.9537,"примітка":"без примітки"},"geometry":{"type":"MultiPolygon","coordinates":[[[[29.273710082,50.176538394],[29.26845943,50.177064793],[29.2682618,50.177622827],[29.276508334,50.176946857],[29.276634099,50.176515381],[29.277191054,50.176273753],[29.27689461,50.176230605],[29.275892989,50.176089655],[29.274909333,50.175951581],[29.273970594,50.17581926],[29.273710082,50.176538394]]]]},"id":"141"},{"type":"Feature","properties":{"id":"142","кадастр":"1822588700:06:000:0402","№":162,"район":"Коростишівський","н.п.":"Щигліївка","Фактична площа, га":5.1828,"Площа по обміну, га":5.1828,"примітка":"без примітки"},"geometry":{"type":"MultiPolygon","coordinates":[[[[29.274909333,50.175951581],[29.275892989,50.176089655],[29.278129794,50.169904691],[29.277581821,50.169913321],[29.27732131,50.169703306],[29.277815383,50.168051922],[29.277765976,50.168057676],[29.274909333,50.175951581]]]]},"id":"142"},{"type":"Feature","properties":{"id":"143","кадастр":"1822588700:06:000:0409","№":163,"район":"Коростишівський","н.п.":"Щигліївка","Фактична площа, га":4.767,"Площа по обміну, га":3.584162,"примітка":"без примітки"},"geometry":{"type":"MultiPolygon","coordinates":[[[[29.266676274,50.173077821],[29.267615013,50.173377],[29.267763235,50.172988643],[29.268266292,50.172942615],[29.269667664,50.169070378],[29.268095612,50.169268889],[29.267143398,50.17189835],[29.266676274,50.173077821]]]]},"id":"143"},{"type":"Feature","properties":{"id":"144","кадастр":"1822588700:06:000:0022","№":148,"район":"Коростишівський","н.п.":"Щигліївка","Фактична площа, га":5.6245,"Площа по обміну, га":5.6245,"примітка":"без примітки"},"geometry":{"type":"MultiPolygon","coordinates":[[[[29.279980323,50.170773511],[29.278138777,50.175856655],[29.278727173,50.175600641],[29.279149381,50.175911309],[29.279414384,50.175724333],[29.280932537,50.172465075],[29.281502967,50.17102092],[29.279980323,50.170773511]]]]},"id":"144"},{"type":"Feature","properties":{"id":"145","кадастр":"1822588700:06:000:0023","№":149,"район":"Коростишівський","н.п.":"Щигліївка","Фактична площа, га":5.2233,"Площа по обміну, га":5.2233,"примітка":"без примітки"},"geometry":{"type":"MultiPolygon","coordinates":[[[[29.278129794,50.169904691],[29.275892989,50.176089655],[29.27689461,50.176230605],[29.279158365,50.16997086],[29.278560985,50.169884552],[29.278129794,50.169904691]]]]},"id":"145"},{"type":"Feature","properties":{"id":"146","кадастр":"1822588700:06:000:0025","№":150,"район":"Коростишівський","н.п.":"Щигліївка","Фактична площа, га":5.2606,"Площа по обміну, га":5.031225,"примітка":"без примітки"},"geometry":{"type":"MultiPolygon","coordinates":[[[[29.275160862,50.172298223],[29.27484196,50.173423027],[29.273970594,50.17581926],[29.274909333,50.175951581],[29.277765976,50.168057676],[29.277011391,50.168152618],[29.275520188,50.172272332],[29.275160862,50.172298223]]]]},"id":"146"},{"type":"Feature","properties":{"id":"147","кадастр":"1822588700:06:000:0026","№":151,"район":"Коростишівський","н.п.":"Щигліївка","Фактична площа, га":4.6228,"Площа по обміну, га":4.6228,"примітка":"без примітки"},"geometry":{"type":"MultiPolygon","coordinates":[[[[29.275520188,50.168339624],[29.274051442,50.172401787],[29.275160862,50.172298223],[29.275520188,50.172272332],[29.277011391,50.168152618],[29.276854186,50.168172757],[29.275520188,50.168339624]]]]},"id":"147"},{"type":"Feature","properties":{"id":"148","кадастр":"1822588700:06:000:0027","№":152,"район":"Коростишівський","н.п.":"Щигліївка","Фактична площа, га":4.4401,"Площа по обміну, га":4.4401,"примітка":"без примітки"},"geometry":{"type":"MultiPolygon","coordinates":[[[[29.2740739,50.168517998],[29.272618629,50.172536994],[29.274051442,50.172401787],[29.275520188,50.168339624],[29.2740739,50.168517998]]]]},"id":"148"},{"type":"Feature","properties":{"id":"149","кадастр":"1822588700:06:000:0028","№":153,"район":"Коростишівський","н.п.":"Щигліївка","Фактична площа, га":4.3584,"Площа по обміну, га":4.3584,"примітка":"без примітки"},"geometry":{"type":"MultiPolygon","coordinates":[[[[29.272636596,50.168699249],[29.271199291,50.172669325],[29.272618629,50.172536994],[29.2740739,50.168517998],[29.272636596,50.168699249]]]]},"id":"149"},{"type":"Feature","properties":{"id":"150","кадастр":"1822588700:06:000:0029","№":154,"район":"Коростишівський","н.п.":"Щигліївка","Фактична площа, га":4.3641,"Площа по обміну, га":4.3641,"примітка":"без примітки"},"geometry":{"type":"MultiPolygon","coordinates":[[[[29.271176833,50.168880498],[29.269757495,50.172804532],[29.271199291,50.172669325],[29.272636596,50.168699249],[29.271176833,50.168880498]]]]},"id":"150"},{"type":"Feature","properties":{"id":"151","кадастр":"1822588700:06:000:0397","№":159,"район":"Коростишівський","н.п.":"Щигліївка","Фактична площа, га":4.87,"Площа по обміну, га":4.87,"примітка":"без примітки"},"geometry":{"type":"MultiPolygon","coordinates":[[[[29.2682618,50.177622827],[29.267983322,50.17838508],[29.276288247,50.177706244],[29.276508334,50.176946857],[29.2682618,50.177622827]]]]},"id":"151"},{"type":"Feature","properties":{"id":"152","кадастр":"1822588700:06:000:0150","№":157,"район":"Коростишівський","н.п.":"Щигліївка","Фактична площа, га":4.6467,"Площа по обміну, га":4.347006,"примітка":"без примітки"},"geometry":{"type":"MultiPolygon","coordinates":[[[[29.286484126,50.171193531],[29.287288118,50.167090986],[29.287000657,50.167111126],[29.286484126,50.167070847],[29.286470651,50.166998919],[29.285837339,50.167076601],[29.285064788,50.170943245],[29.286484126,50.171193531]]]]},"id":"152"},{"type":"Feature","properties":{"id":"153","кадастр":"1822583600:14:000:0016","№":106,"район":"Коростишівський","н.п.":"Щигліївка","Фактична площа, га":1.0335,"Площа по обміну, га":1.0095,"примітка":"без примітки"},"geometry":{"type":"MultiPolygon","coordinates":[[[[29.252640097,50.2470156],[29.252640097,50.2470156],[29.247398428,50.246897837],[29.247398428,50.246897837],[29.247398428,50.246897837],[29.247169357,50.247133363],[29.252662555,50.24725687],[29.252640097,50.2470156]]]]},"id":"153"},{"type":"Feature","properties":{"id":"154","кадастр":"1822581500:05:000:0196","№":83,"район":"Коростишівський","н.п.":"Вільня","Фактична площа, га":3.4924,"Площа по обміну, га":3.4924,"примітка":"без примітки"},"geometry":{"type":"MultiPolygon","coordinates":[[[[29.308928533,50.257900257],[29.312876629,50.260254921],[29.313824351,50.259706467],[29.309871764,50.257348904],[29.309557354,50.257532689],[29.308928533,50.257900257]]]]},"id":"154"},{"type":"Feature","properties":{"id":"155","кадастр":"1822580900:07:000:0203","№":53,"район":"Коростишівський","н.п.":"Вільнянка","Фактична площа, га":2.101363,"Площа по обміну, га":2.01,"примітка":"без примітки"},"geometry":{"type":"MultiPolygon","coordinates":[[[[29.21848615,50.293483473],[29.223197814,50.292063065],[29.222892387,50.291615413],[29.218180723,50.293038703],[29.21848615,50.293483473]]]]},"id":"155"},{"type":"Feature","properties":{"id":"156","кадастр":"1820983900:02:000:0057","№":180,"район":"Коростишівський","н.п.":"Щигліївка","Фактична площа, га":2.31,"Площа по обміну, га":2.31,"примітка":"без примітки"},"geometry":{"type":"MultiPolygon","coordinates":[[[[29.371330004,50.230502938],[29.37027481068014,50.228984129324594],[29.369515407,50.22789107],[29.368603617,50.228184158],[29.368603617,50.228184158],[29.370418214,50.230793137],[29.371330004,50.230502938]]]]},"id":"156"},{"type":"Feature","properties":{"id":"157","кадастр":"1822583600:15:000:0060","№":115,"район":"Коростишівський","н.п.":"кропивня","Фактична площа, га":5.0,"Площа по обміну, га":4.037,"примітка":"без примітки"},"geometry":{"type":"MultiPolygon","coordinates":[[[[29.2284305,50.242798923],[29.228214905,50.243563008],[29.236452456,50.244516661],[29.236721951,50.243758336],[29.236721951,50.243758336],[29.2284305,50.242798923],[29.2284305,50.242798923],[29.2284305,50.242798923]]]]},"id":"157"},{"type":"Feature","properties":{"id":"158","кадастр":"1822588700:07:000:0134","№":165,"район":"Коростишівський","н.п.":"Щигліївка","Фактична площа, га":14.857605,"Площа по обміну, га":14.272211,"примітка":"без примітки"},"geometry":{"type":"MultiPolygon","coordinates":[[[[29.259420700386947,50.20818125314565],[29.26680014026814,50.20923758723243],[29.267529673,50.207775752],[29.267571993302855,50.207803283516675],[29.26757429719765,50.20779655988519],[29.265768709707288,50.20660315629233],[29.265373717,50.206393033],[29.265405873622267,50.206363339673196],[29.26530131666664,50.206294232722044],[29.264324147466404,50.206029111254715],[29.264069233761983,50.20655935271666],[29.262879636474736,50.20633502050941],[29.263070821753036,50.20579118047881],[29.260723491391577,50.20533570968488],[29.260722261624732,50.20533839572968],[29.260769851,50.205346625],[29.26015968505617,50.206567170007496],[29.259420700386947,50.20818125314565]]]]},"id":"158"},{"type":"Feature","properties":{"id":"159","кадастр":"1822581500:03:000:0190","№":73,"район":"Коростишівський","н.п.":"Щигліївка","Фактична площа, га":13.998412,"Площа по обміну, га":13.998412,"примітка":"без примітки"},"geometry":{"type":"MultiPolygon","coordinates":[[[[29.290765071456548,50.28881265133061],[29.289690185336262,50.289504839389856],[29.288738507506455,50.290134586053355],[29.28778682967666,50.29046031381597],[29.289928104793724,50.29339176334374],[29.294443199,50.292430367],[29.291631472,50.288903582],[29.290765071456548,50.28881265133061]]]]},"id":"159"},{"type":"Feature","properties":{"id":"160","кадастр":"1822581600:03:000:0342","№":103,"район":"Коростишівський","н.п.":"Віленька","Фактична площа, га":4.906755,"Площа по обміну, га":4.906755,"примітка":"без примітки"},"geometry":{"type":"MultiPolygon","coordinates":[[[[29.314380665617747,50.21833642596145],[29.31312096557951,50.21553802868994],[29.31043519002629,50.21597909133039],[29.310933897471493,50.21670069195737],[29.311934762745018,50.21791860663682],[29.314380665617747,50.21833642596145]]]]},"id":"160"},{"type":"Feature","properties":{"id":"161","кадастр":"1822581500:04:000:0107","№":74,"район":"Коростишівський","н.п.":"Вільня","Фактична площа, га":5.453,"Площа по обміну, га":5.453,"примітка":"без примітки"},"geometry":{"type":"MultiPolygon","coordinates":[[[[29.301715061,50.279093787],[29.296576698,50.281062797],[29.297506454,50.2820444],[29.302649309,50.280072562],[29.302087862,50.279484151],[29.301715061,50.279093787]]]]},"id":"161"},{"type":"Feature","properties":{"id":"162","кадастр":"1822581500:04:000:0118","№":77,"район":"Коростишівський","н.п.":"Вільня","Фактична площа, га":5.8745,"Площа по обміну, га":5.8699,"примітка":"без примітки"},"geometry":{"type":"MultiPolygon","coordinates":[[[[29.305061286,50.277001267],[29.301153614,50.278499624],[29.301715061,50.279093787],[29.302087862,50.279484151],[29.307926912,50.277245256],[29.307073512,50.276229107],[29.305770955,50.276728572],[29.306512065,50.27702136],[29.306175197,50.277411741],[29.305061286,50.277001267]]]]},"id":"162"}]}