{"type":"FeatureCollection","name":"отримано_невитр_закінч_лютий_2027_полісся_17_9_10","crs":{"type":"name","properties":{"name":"urn:ogc:def:crs:OGC:1.3:CRS84"}},"features":[{"type":"Feature","properties":{"id":"1","№":166,"район":"Коростишівський","н.п.":"Щигліївка","кадастр":"1822588700:07:000:0217","площа факт":3.4597,"площа обміну":3.132087,"статус":"ОТРИМАНО АСТ від АПФ","примітка":"невитребовка закінчення лютий 2027 полісся"},"geometry":{"type":"MultiPolygon","coordinates":[[[[29.265980079,50.213053287],[29.26834714,50.208307556],[29.267529673,50.207775752],[29.265575837,50.211690842],[29.266204658,50.211785697],[29.265849824,50.213010172],[29.265980079,50.213053287]]]]},"id":"1"},{"type":"Feature","properties":{"id":"2","№":43,"район":"Коростишівський","н.п.":"Вільнянка","кадастр":"1822580900:07:000:0109","площа факт":3.347314,"площа обміну":0.86,"статус":"ОТРИМАНО АСТ від АПФ","примітка":"невитребовка закінчення лютий 2027 полісся"},"geometry":{"type":"MultiPolygon","coordinates":[[[[29.224684526,50.278123604],[29.226512597,50.280792995],[29.227904986,50.280520323],[29.226067931,50.277836564],[29.224684526,50.278123604]]]]},"id":"2"},{"type":"Feature","properties":{"id":"3","№":46,"район":"Коростишівський","н.п.":"Вільнянка","кадастр":"1822580900:07:000:0125","площа факт":3.347078,"площа обміну":2.7336,"статус":"ОТРИМАНО АСТ від АПФ","примітка":"невитребовка закінчення лютий 2027 полісся"},"geometry":{"type":"MultiPolygon","coordinates":[[[[29.226934806,50.281519159],[29.22264535,50.282308454],[29.223655955,50.282540935],[29.224091638,50.282922661],[29.228893133,50.28203866],[29.228574231,50.281579433],[29.226934806,50.281519159]]]]},"id":"3"},{"type":"Feature","properties":{"id":"4","№":145,"район":"Коростишівський","н.п.":"Щигліївка","кадастр":"1822588700:06:000:0013","площа факт":3.3623,"площа обміну":0.6,"статус":"ОТРИМАНО АСТ від АПФ","примітка":"невитребовка закінчення лютий 2027 полісся"},"geometry":{"type":"MultiPolygon","coordinates":[[[[29.265948638,50.183044626],[29.266236099,50.183139538],[29.265521939,50.185207421],[29.265854315,50.185247685],[29.26803273,50.179230735],[29.267439842,50.17918759],[29.267448825,50.179132939],[29.267718319,50.179115681],[29.267983322,50.17838508],[29.2682618,50.177622827],[29.26845943,50.177064793],[29.268100103,50.177102187],[29.265948638,50.183044626]]]]},"id":"4"},{"type":"Feature","properties":{"id":"5","№":161,"район":"Коростишівський","н.п.":"Щигліївка","кадастр":"1822588700:06:000:0400","площа факт":5.3675,"площа обміну":5.3675,"статус":"ОТРИМАНО АСТ від АПФ","примітка":"невитребовка закінчення лютий 2027 полісся"},"geometry":{"type":"MultiPolygon","coordinates":[[[[29.27689461,50.176230605],[29.277191054,50.176273753],[29.278138777,50.175856655],[29.279980323,50.170773511],[29.280218377,50.170120459],[29.279158365,50.16997086],[29.27689461,50.176230605]]]]},"id":"5"},{"type":"Feature","properties":{"id":"6","№":147,"район":"Коростишівський","н.п.":"Щигліївка","кадастр":"1822588700:06:000:0019","площа факт":5.2077,"площа обміну":5.2077,"статус":"ОТРИМАНО АСТ від АПФ","примітка":"невитребовка закінчення лютий 2027 полісся"},"geometry":{"type":"MultiPolygon","coordinates":[[[[29.267718319,50.179115681],[29.269523933,50.178989121],[29.272924057,50.178712989],[29.275246202,50.178943099],[29.275484255,50.178488631],[29.276113076,50.178307417],[29.276288247,50.177706244],[29.267983322,50.17838508],[29.267718319,50.179115681]]]]},"id":"6"}]}