{"type":"FeatureCollection","name":"отримано_понятійний_Петраков_30_065_9","crs":{"type":"name","properties":{"name":"urn:ogc:def:crs:OGC:1.3:CRS84"}},"features":[{"type":"Feature","properties":{"id":"1","№":179,"район":"Коростишівський","н.п.":"Щигліївка","кадастр":"1820983900:02:000:0058","площа факт":2.316,"площа обміну":2.316,"статус":"ОТРИМАНО АСТ від АПФ","примітка":"понятійний Петраков"},"geometry":{"type":"MultiPolygon","coordinates":[[[[29.369515407,50.22789107],[29.371330004,50.230502938],[29.372241794,50.230209864],[29.371990266,50.229842083],[29.370737116,50.228040487],[29.370427197,50.227600853],[29.369515407,50.22789107]]]]},"id":"1"},{"type":"Feature","properties":{"id":"2","№":178,"район":"Коростишівський","н.п.":"Щигліївка","кадастр":"1820983900:02:000:0060","площа факт":0.5869,"площа обміну":0.5869,"статус":"ОТРИМАНО АСТ від АПФ","примітка":"понятійний Петраков"},"geometry":{"type":"MultiPolygon","coordinates":[[[[29.370427197,50.227600853],[29.370737116,50.228040487],[29.372093572,50.227618094],[29.371788145,50.227164088],[29.370427197,50.227600853]]]]},"id":"2"},{"type":"Feature","properties":{"id":"3","№":44,"район":"Коростишівський","н.п.":"Вільнянка","кадастр":"1822580900:07:000:0112","площа факт":4.327945,"площа обміну":4.16,"статус":"ОТРИМАНО АСТ від АПФ","примітка":"понятійний Петраков"},"geometry":{"type":"MultiPolygon","coordinates":[[[[29.229153644,50.277213681],[29.230999682,50.279908956],[29.232782838,50.279558779],[29.2309368,50.276860614],[29.229153644,50.277213681]]]]},"id":"3"},{"type":"Feature","properties":{"id":"4","№":92,"район":"Коростишівський","н.п.":"Вільня","кадастр":"1822581500:06:000:0140","площа факт":6.7705,"площа обміну":6.7501,"статус":"ОТРИМАНО АСТ від АПФ","примітка":"понятійний Петраков"},"geometry":{"type":"MultiPolygon","coordinates":[[[[29.305636208,50.270487744],[29.304401024,50.271638943],[29.306642321,50.272307831],[29.309741508,50.269425517],[29.307500212,50.268756588],[29.305636208,50.270487744]]]]},"id":"4"},{"type":"Feature","properties":{"id":"5","№":135,"район":"Коростишівський","н.п.":"Стрижівка","кадастр":"1822587000:04:000:0111","площа факт":8.0334,"площа обміну":7.6911,"статус":"ОТРИМАНО АСТ від АПФ","примітка":"понятійний Петраков"},"geometry":{"type":"MultiPolygon","coordinates":[[[[28.95920541,50.318220457],[28.957220133,50.322533697],[28.957579459,50.322714362],[28.957898361,50.322708627],[28.958652946,50.322702891],[28.959039222,50.322697156],[28.959425497,50.322694288],[28.96142874,50.318340912],[28.961064922,50.318289289],[28.960705596,50.318237665],[28.960350762,50.31818891],[28.959973469,50.318197514],[28.95920541,50.318220457]]]]},"id":"5"},{"type":"Feature","properties":{"id":"6","№":136,"район":"Коростишівський","н.п.":"Стрижівка","кадастр":"1822587000:04:000:0114","площа факт":1.9597,"площа обміну":0.9422,"статус":"ОТРИМАНО АСТ від АПФ","примітка":"понятійний Петраков"},"geometry":{"type":"MultiPolygon","coordinates":[[[[28.958545148,50.318237665],[28.957449203,50.320626628],[28.95721115,50.321128495],[28.957049453,50.32160168],[28.957112335,50.322054786],[28.957220133,50.322530829],[28.957220133,50.322533697],[28.95920541,50.318220457],[28.958545148,50.318237665]]]]},"id":"6"},{"type":"Feature","properties":{"id":"7","№":137,"район":"Коростишівський","н.п.":"Стрижівка","кадастр":"1822587000:04:000:0115","площа факт":5.3555,"площа обміну":5.3096,"статус":"ОТРИМАНО АСТ від АПФ","примітка":"понятійний Петраков"},"geometry":{"type":"MultiPolygon","coordinates":[[[[28.954520696,50.317666935],[28.957018012,50.321355051],[28.957103352,50.321114156],[28.957341406,50.320606553],[28.958010651,50.319143936],[28.957094369,50.317787391],[28.957013521,50.317775919],[28.956937164,50.317230996],[28.956838349,50.317400209],[28.954520696,50.317666935]]]]},"id":"7"},{"type":"Feature","properties":{"id":"8","№":180,"район":"Коростишівський","н.п.":"Щигліївка","кадастр":"1820983900:02:000:0057","площа факт":2.31,"площа обміну":2.31,"статус":"ОТРИМАНО АСТ від АПФ","примітка":"понятійний Петраков"},"geometry":{"type":"MultiPolygon","coordinates":[[[[29.371330004,50.230502938],[29.37027481068014,50.228984129324594],[29.369515407,50.22789107],[29.368603617,50.228184158],[29.368603617,50.228184158],[29.370418214,50.230793137],[29.371330004,50.230502938]]]]},"id":"8"}]}