{"type":"FeatureCollection","name":"ПЕРЕДАНО_АСТ_до_АПФ_Вільня_423_91_8","crs":{"type":"name","properties":{"name":"urn:ogc:def:crs:OGC:1.3:CRS84"}},"features":[{"type":"Feature","properties":{"id":"1","№":91,"район":"Коростишівський","н.п.":"Вільня","кадастр":"1822581500:08:000:0031","площа факт":6.1686,"площа обміну":6.17,"статус":"ПЕРЕДАНО АСТ до АПФ","примітка":null},"geometry":{"type":"MultiPolygon","coordinates":[[[[29.260464424,50.257885899],[29.260828241,50.261733706],[29.262826993,50.261478152],[29.262458683,50.257630324],[29.260464424,50.257885899]]]]},"id":"1"},{"type":"Feature","properties":{"id":"2","№":92,"район":"Коростишівський","н.п.":"Вільня","кадастр":"1822581500:08:000:0036","площа факт":6.2894,"площа обміну":6.29,"статус":"ПЕРЕДАНО АСТ до АПФ","примітка":null},"geometry":{"type":"MultiPolygon","coordinates":[[[[29.258227618,50.25530712],[29.258497113,50.2581386],[29.260419508,50.257891642],[29.260033232,50.25381952],[29.258119821,50.254066499],[29.258227618,50.25530712]]]]},"id":"2"},{"type":"Feature","properties":{"id":"3","№":93,"район":"Коростишівський","н.п.":"Вільня","кадастр":"1822581500:08:000:0037","площа факт":6.6425,"площа обміну":6.64,"статус":"ПЕРЕДАНО АСТ до АПФ","примітка":null},"geometry":{"type":"MultiPolygon","coordinates":[[[[29.260033232,50.25381952],[29.260419508,50.257891642],[29.260464424,50.257885899],[29.262458683,50.257630324],[29.262692245,50.257598736],[29.26230597,50.253526589],[29.260037724,50.253816648],[29.260644087,50.25377357],[29.262058933,50.25372762],[29.26219368,50.254566197],[29.261344772,50.25464948],[29.260644087,50.25377357],[29.260033232,50.25381952]]]]},"id":"3"},{"type":"Feature","properties":{"id":"4","№":94,"район":"Коростишівський","н.п.":"Вільня","кадастр":"1822581500:08:000:0038","площа факт":7.1327,"площа обміну":6.62,"статус":"ПЕРЕДАНО АСТ до АПФ","примітка":null},"geometry":{"type":"MultiPolygon","coordinates":[[[[29.26230597,50.253526589],[29.262692245,50.257598736],[29.264493368,50.257366134],[29.265000916,50.257300086],[29.26461464,50.253227913],[29.264560741,50.253233657],[29.264533792,50.254172757],[29.263806156,50.254175629],[29.263797173,50.253724748],[29.264506842,50.253242273],[29.26230597,50.253526589]]]]},"id":"4"},{"type":"Feature","properties":{"id":"5","№":95,"район":"Коростишівський","н.п.":"Вільня","кадастр":"1822581500:08:000:0039","площа факт":6.4599,"площа обміну":6.46,"статус":"ПЕРЕДАНО АСТ до АПФ","примітка":null},"geometry":{"type":"MultiPolygon","coordinates":[[[[29.26461464,50.253227913],[29.265000916,50.257300086],[29.265477023,50.257239781],[29.266442712,50.2571163],[29.266977209,50.25704738],[29.266590934,50.252972314],[29.26461464,50.253227913]]]]},"id":"5"},{"type":"Feature","properties":{"id":"6","№":96,"район":"Коростишівський","н.п.":"Вільня","кадастр":"1822581500:08:000:0041","площа факт":4.4734,"площа обміну":4.47,"статус":"ПЕРЕДАНО АСТ до АПФ","примітка":null},"geometry":{"type":"MultiPolygon","coordinates":[[[[29.268535786,50.255341581],[29.268675025,50.256829133],[29.270449198,50.256599398],[29.270525555,50.257067482],[29.272200913,50.256837748],[29.271608025,50.254945275],[29.268535786,50.255341581]]]]},"id":"6"},{"type":"Feature","properties":{"id":"7","№":97,"район":"Коростишівський","н.п.":"Вільня","кадастр":"1822581500:08:000:0042","площа факт":4.5612,"площа обміну":4.57,"статус":"ПЕРЕДАНО АСТ до АПФ","примітка":null},"geometry":{"type":"MultiPolygon","coordinates":[[[[29.268414514,50.254092346],[29.268535786,50.255341581],[29.271608025,50.254945275],[29.273274399,50.25472989],[29.272784818,50.253529461],[29.268414514,50.254092346]]]]},"id":"7"},{"type":"Feature","properties":{"id":"8","№":98,"район":"Коростишівський","н.п.":"Вільня","кадастр":"1822581500:08:000:0043","площа факт":4.4811,"площа обміну":4.48,"статус":"ПЕРЕДАНО АСТ до АПФ","примітка":null},"geometry":{"type":"MultiPolygon","coordinates":[[[[29.26828875,50.252754048],[29.268414514,50.254092346],[29.272784818,50.253529461],[29.272254812,50.252242843],[29.269788936,50.252561629],[29.26828875,50.252754048]]]]},"id":"8"},{"type":"Feature","properties":{"id":"9","№":99,"район":"Коростишівський","н.п.":"Вільня","кадастр":"1822581500:08:000:0048","площа факт":7.6733,"площа обміну":7.67,"статус":"ПЕРЕДАНО АСТ до АПФ","примітка":null},"geometry":{"type":"MultiPolygon","coordinates":[[[[29.2612235,50.253618489],[29.264147516,50.253242273],[29.263855564,50.249927992],[29.262943774,50.250074469],[29.260936039,50.250393269],[29.2612235,50.253618489]]]]},"id":"9"},{"type":"Feature","properties":{"id":"10","№":100,"район":"Коростишівський","н.п.":"Вільня","кадастр":"1822581500:08:000:0049","площа факт":7.866,"площа обміну":5.94,"статус":"ПЕРЕДАНО АСТ до АПФ","примітка":null},"geometry":{"type":"MultiPolygon","coordinates":[[[[29.25783236,50.250832693],[29.257953632,50.252214124],[29.257985073,50.252564501],[29.258115329,50.25402055],[29.2612235,50.253618489],[29.261205534,50.253431817],[29.261178584,50.253081446],[29.260936039,50.250393269],[29.260760868,50.25042199],[29.259952384,50.250551232],[29.259965859,50.250602929],[29.258649827,50.250881518],[29.258627369,50.250726427],[29.25783236,50.250832693]]]]},"id":"10"},{"type":"Feature","properties":{"id":"11","№":101,"район":"Коростишівський","н.п.":"Вільня","кадастр":"1822581500:08:000:0050","площа факт":7.4096,"площа обміну":0.57,"статус":"ПЕРЕДАНО АСТ до АПФ","примітка":null},"geometry":{"type":"MultiPolygon","coordinates":[[[[29.25783236,50.250832693],[29.258627369,50.250726427],[29.258443214,50.249523025],[29.259588566,50.249474199],[29.259952384,50.250551232],[29.260760868,50.25042199],[29.260423999,50.246668054],[29.257522441,50.247325804],[29.25783236,50.250832693]]]]},"id":"11"},{"type":"Feature","properties":{"id":"12","№":102,"район":"Коростишівський","н.п.":"Вільня","кадастр":"1822581500:08:000:0051","площа факт":6.7319,"площа обміну":5.06,"статус":"ПЕРЕДАНО АСТ до АПФ","примітка":null},"geometry":{"type":"MultiPolygon","coordinates":[[[[29.260423999,50.246668054],[29.260760868,50.25042199],[29.260936039,50.250393269],[29.262943774,50.250074469],[29.262597922,50.246174018],[29.262579956,50.246179763],[29.260423999,50.246668054]]]]},"id":"12"},{"type":"Feature","properties":{"id":"13","№":103,"район":"Коростишівський","н.п.":"Вільня","кадастр":"1822581500:08:000:0054","площа факт":5.6574,"площа обміну":4.88,"статус":"ПЕРЕДАНО АСТ до АПФ","примітка":null},"geometry":{"type":"MultiPolygon","coordinates":[[[[29.266519069,50.24950292],[29.267790185,50.249301872],[29.267471283,50.24893711],[29.268194427,50.248497668],[29.267875525,50.244898691],[29.266150759,50.245315187],[29.266519069,50.24950292]]]]},"id":"13"},{"type":"Feature","properties":{"id":"14","№":104,"район":"Коростишівський","н.п.":"Вільня","кадастр":"1822581500:08:000:0055","площа факт":3.2476,"площа обміну":2.88,"статус":"ПЕРЕДАНО АСТ до АПФ","примітка":null},"geometry":{"type":"MultiPolygon","coordinates":[[[[29.267875525,50.244898691],[29.268194427,50.248497668],[29.269025368,50.247992162],[29.269461051,50.247549839],[29.268630109,50.246130933],[29.269690121,50.245763275],[29.269056809,50.24461145],[29.267875525,50.244898691]]]]},"id":"14"},{"type":"Feature","properties":{"id":"15","№":105,"район":"Коростишівський","н.п.":"Вільня","кадастр":"1822581500:08:000:1064","площа факт":0.7784,"площа обміну":0.78,"статус":"ПЕРЕДАНО АСТ до АПФ","примітка":null},"geometry":{"type":"MultiPolygon","coordinates":[[[[29.269555374,50.249316232],[29.269618256,50.250040004],[29.271271156,50.249827469],[29.271064544,50.249327721],[29.269555374,50.249316232]]]]},"id":"15"},{"type":"Feature","properties":{"id":"16","№":60,"район":"Коростишівський","н.п.":"Вільня","кадастр":"1822581500:06:000:0231","площа факт":6.7153,"площа обміну":6.05,"статус":"ПЕРЕДАНО АСТ до АПФ","примітка":null},"geometry":{"type":"MultiPolygon","coordinates":[[[[29.304140513,50.248942854],[29.308735395,50.251728761],[29.310338888,50.250809717],[29.305658665,50.248072584],[29.304140513,50.248942854]]]]},"id":"16"},{"type":"Feature","properties":{"id":"17","№":61,"район":"Коростишівський","н.п.":"Вільня","кадастр":"1822581500:06:000:0232","площа факт":5.666,"площа обміну":5.666,"статус":"ПЕРЕДАНО АСТ до АПФ","примітка":null},"geometry":{"type":"MultiPolygon","coordinates":[[[[29.299806141,50.246199869],[29.304185428,50.248853817],[29.305609258,50.248040989],[29.302240576,50.246067742],[29.301162597,50.245421464],[29.299828599,50.246185507],[29.299806141,50.246199869]]]]},"id":"17"},{"type":"Feature","properties":{"id":"18","№":62,"район":"Коростишівський","н.п.":"Вільня","кадастр":"1822581500:06:000:0234","площа факт":5.6315,"площа обміну":5.6315,"статус":"ПЕРЕДАНО АСТ до АПФ","примітка":null},"geometry":{"type":"MultiPolygon","coordinates":[[[[29.297057297,50.247773873],[29.301441075,50.250430606],[29.302811006,50.249643654],[29.298431719,50.246986878],[29.298418244,50.246998367],[29.297057297,50.247773873]]]]},"id":"18"},{"type":"Feature","properties":{"id":"19","№":63,"район":"Коростишівський","н.п.":"Вільня","кадастр":"1822581500:06:000:0235","площа факт":5.6143,"площа обміну":5.6143,"статус":"ПЕРЕДАНО АСТ до АПФ","примітка":null},"geometry":{"type":"MultiPolygon","coordinates":[[[[29.295687366,50.248560856],[29.300071144,50.251214673],[29.301441075,50.250430606],[29.297057297,50.247773873],[29.29695399,50.247837062],[29.295687366,50.248560856]]]]},"id":"19"},{"type":"Feature","properties":{"id":"20","№":65,"район":"Коростишівський","н.п.":"Вільня","кадастр":"1822581500:06:000:0240","площа факт":6.0937,"площа обміну":5.79,"статус":"ПЕРЕДАНО АСТ до АПФ","примітка":null},"geometry":{"type":"MultiPolygon","coordinates":[[[[29.290589277094462,50.25137756429513],[29.29077443117266,50.25137632675574],[29.291447318,50.250990655],[29.292880131,50.250169247],[29.294317435,50.249344954],[29.29547177,50.248684359],[29.293854803,50.247702068],[29.290544511,50.2495977],[29.290706208,50.249922248],[29.290589277094462,50.25137756429513]]]]},"id":"20"},{"type":"Feature","properties":{"id":"21","№":66,"район":"Коростишівський","н.п.":"Вільня","кадастр":"1822581500:06:000:0241","площа факт":6.8301,"площа обміну":6.57,"статус":"ПЕРЕДАНО АСТ до АПФ","примітка":null},"geometry":{"type":"MultiPolygon","coordinates":[[[[29.290544511,50.2495977],[29.293854803,50.247702068],[29.290948753,50.24594136],[29.28923297,50.246920815],[29.290544511,50.2495977]]]]},"id":"21"},{"type":"Feature","properties":{"id":"22","№":67,"район":"Коростишівський","н.п.":"Вільня","кадастр":"1822581500:06:000:0243","площа факт":6.1975,"площа обміну":6.1975,"статус":"ПЕРЕДАНО АСТ до АПФ","примітка":null},"geometry":{"type":"MultiPolygon","coordinates":[[[[29.292426481,50.245091141],[29.29695399,50.247837062],[29.297057297,50.247773873],[29.298418244,50.246998367],[29.293890735,50.244252397],[29.292426481,50.245091141]]]]},"id":"22"},{"type":"Feature","properties":{"id":"23","№":68,"район":"Коростишівський","н.п.":"Вільня","кадастр":"1822581500:06:000:0244","площа факт":5.9868,"площа обміну":5.9868,"статус":"ПЕРЕДАНО АСТ до АПФ","примітка":null},"geometry":{"type":"MultiPolygon","coordinates":[[[[29.293890735,50.244252397],[29.298418244,50.246998367],[29.298431719,50.246986878],[29.299806141,50.246199869],[29.299828599,50.246185507],[29.295305582,50.243442364],[29.293890735,50.244252397]]]]},"id":"23"},{"type":"Feature","properties":{"id":"24","№":69,"район":"Коростишівський","н.п.":"Вільня","кадастр":"1822581500:06:000:0246","площа факт":6.6424,"площа обміну":6.6424,"статус":"ПЕРЕДАНО АСТ до АПФ","примітка":null},"geometry":{"type":"MultiPolygon","coordinates":[[[[29.290481629,50.24080535],[29.295009138,50.243551518],[29.296576698,50.242655296],[29.292044697,50.239909077],[29.290481629,50.24080535]]]]},"id":"24"},{"type":"Feature","properties":{"id":"25","№":70,"район":"Коростишівський","н.п.":"Вільня","кадастр":"1822581500:06:000:0247","площа факт":6.2781,"площа обміну":6.2781,"статус":"ПЕРЕДАНО АСТ до АПФ","примітка":null},"geometry":{"type":"MultiPolygon","coordinates":[[[[29.288999409,50.241655645],[29.291631472,50.243249907],[29.293526918,50.244401764],[29.295009138,50.243551518],[29.290481629,50.24080535],[29.288999409,50.241655645]]]]},"id":"25"},{"type":"Feature","properties":{"id":"26","№":71,"район":"Коростишівський","н.п.":"Вільня","кадастр":"1822581500:06:000:0248","площа факт":6.7396,"площа обміну":6.6,"статус":"ПЕРЕДАНО АСТ до АПФ","примітка":null},"geometry":{"type":"MultiPolygon","coordinates":[[[[29.291631472,50.243249907],[29.288357113,50.245128482],[29.289210513,50.246874859],[29.293526918,50.244401764],[29.291631472,50.243249907]]]]},"id":"26"},{"type":"Feature","properties":{"id":"27","№":72,"район":"Коростишівський","н.п.":"Вільня","кадастр":"1822581500:06:000:0249","площа факт":6.2952,"площа обміну":6.02,"статус":"ПЕРЕДАНО АСТ до АПФ","примітка":null},"geometry":{"type":"MultiPolygon","coordinates":[[[[29.287166845,50.242704129],[29.288357113,50.245128482],[29.291631472,50.243249907],[29.288999409,50.241655645],[29.288047194,50.242198562],[29.287166845,50.242704129]]]]},"id":"27"},{"type":"Feature","properties":{"id":"28","№":75,"район":"Коростишівський","н.п.":"Вільня","кадастр":"1822581500:07:000:0242","площа факт":6.2659,"площа обміну":6.27,"статус":"ПЕРЕДАНО АСТ до АПФ","примітка":null},"geometry":{"type":"MultiPolygon","coordinates":[[[[29.290948753,50.24594136],[29.293854803,50.247702068],[29.29547177,50.248684359],[29.295687366,50.248560856],[29.29695399,50.247837062],[29.292426481,50.245091141],[29.290948753,50.24594136]]]]},"id":"28"},{"type":"Feature","properties":{"id":"29","№":76,"район":"Коростишівський","н.п.":"Вільня","кадастр":"1822581500:07:000:0250","площа факт":5.5795,"площа обміну":5.51,"статус":"ПЕРЕДАНО АСТ до АПФ","примітка":null},"geometry":{"type":"MultiPolygon","coordinates":[[[[29.28718032,50.240429032],[29.288047194,50.242198562],[29.288999409,50.241655645],[29.290481629,50.24080535],[29.292044697,50.239909077],[29.290607393,50.239035769],[29.28718032,50.240429032]]]]},"id":"29"},{"type":"Feature","properties":{"id":"30","№":77,"район":"Коростишівський","н.п.":"Вільня","кадастр":"1822581500:07:000:0251","площа факт":2.9344,"площа обміну":2.93,"статус":"ПЕРЕДАНО АСТ до АПФ","примітка":null},"geometry":{"type":"MultiPolygon","coordinates":[[[[29.286937775,50.244217928],[29.28903085,50.248445969],[29.289843825,50.248333954],[29.287728292,50.244057071],[29.286937775,50.244217928]]]]},"id":"30"},{"type":"Feature","properties":{"id":"31","№":78,"район":"Коростишівський","н.п.":"Вільня","кадастр":"1822581500:07:000:0252","площа факт":3.0687,"площа обміну":3.07,"статус":"ПЕРЕДАНО АСТ до АПФ","примітка":null},"geometry":{"type":"MultiPolygon","coordinates":[[[[29.28529835,50.244554002],[29.287342017,50.248681487],[29.288213383,50.248560856],[29.286142766,50.244381657],[29.28529835,50.244554002]]]]},"id":"31"},{"type":"Feature","properties":{"id":"32","№":79,"район":"Коростишівський","н.п.":"Вільня","кадастр":"1822581500:07:000:0255","площа факт":6.2176,"площа обміну":4.93,"статус":"ПЕРЕДАНО АСТ до АПФ","примітка":null},"geometry":{"type":"MultiPolygon","coordinates":[[[[29.283200783,50.243336082],[29.281979075,50.245229015],[29.282374333,50.245148589],[29.284422492,50.244732092],[29.286142766,50.244381657],[29.287728292,50.244057071],[29.286991674,50.242566248],[29.283200783,50.243336082]]]]},"id":"32"},{"type":"Feature","properties":{"id":"33","№":80,"район":"Коростишівський","н.п.":"Вільня","кадастр":"1822581500:07:000:0256","площа факт":3.9775,"площа обміну":3.33,"статус":"ПЕРЕДАНО АСТ до АПФ","примітка":null},"geometry":{"type":"MultiPolygon","coordinates":[[[[29.283200783,50.243336082],[29.286991674,50.242566248],[29.286111325,50.24079386],[29.284552748,50.241250608],[29.283200783,50.243336082]]]]},"id":"33"},{"type":"Feature","properties":{"id":"34","№":81,"район":"Коростишівський","н.п.":"Вільня","кадастр":"1822581500:07:000:1251","площа факт":3.1455,"площа обміну":3.15,"статус":"ПЕРЕДАНО АСТ до АПФ","примітка":null},"geometry":{"type":"MultiPolygon","coordinates":[[[[29.284422492,50.244732092],[29.28643921,50.24880499],[29.287342017,50.248681487],[29.28529835,50.244554002],[29.284422492,50.244732092]]]]},"id":"34"},{"type":"Feature","properties":{"id":"35","№":82,"район":"Коростишівський","н.п.":"Вільня","кадастр":"1822581500:07:000:1252","площа факт":2.9133,"площа обміну":2.91,"статус":"ПЕРЕДАНО АСТ до АПФ","примітка":null},"geometry":{"type":"MultiPolygon","coordinates":[[[[29.286142766,50.244381657],[29.288213383,50.248560856],[29.28903085,50.248445969],[29.286937775,50.244217928],[29.286142766,50.244381657]]]]},"id":"35"},{"type":"Feature","properties":{"id":"36","№":83,"район":"Коростишівський","н.п.":"Вільня","кадастр":"1822581500:07:000:1256","площа факт":1.643,"площа обміну":1.64,"статус":"ПЕРЕДАНО АСТ до АПФ","примітка":null},"geometry":{"type":"MultiPolygon","coordinates":[[[[29.287166845,50.242704129],[29.288047194,50.242198562],[29.28718032,50.240429032],[29.286237089,50.240811095],[29.287166845,50.242704129]]]]},"id":"36"},{"type":"Feature","properties":{"id":"37","№":25,"район":"Коростишівський","н.п.":"Вільня","кадастр":"1822581500:04:000:1149","площа факт":4.3045,"площа обміну":4.3045,"статус":"ПЕРЕДАНО АСТ до АПФ","примітка":null},"geometry":{"type":"MultiPolygon","coordinates":[[[[29.324509812,50.270998754],[29.321590287,50.272689639],[29.324312182,50.273484822],[29.326018981,50.271897313],[29.324509812,50.270998754]]]]},"id":"37"},{"type":"Feature","properties":{"id":"38","№":26,"район":"Коростишівський","н.п.":"Вільня","кадастр":"1822581500:05:000:0150","площа факт":6.7704,"площа обміну":6.7704,"статус":"ПЕРЕДАНО АСТ до АПФ","примітка":null},"geometry":{"type":"MultiPolygon","coordinates":[[[[29.321801391,50.269985342],[29.318625847,50.271825544],[29.321590287,50.272689639],[29.324509812,50.270998754],[29.322317922,50.269686769],[29.321801391,50.269985342]]]]},"id":"38"},{"type":"Feature","properties":{"id":"39","№":27,"район":"Коростишівський","н.п.":"Вільня","кадастр":"1822581500:05:000:0152","площа факт":2.9459,"площа обміну":2.9459,"статус":"ПЕРЕДАНО АСТ до АПФ","примітка":null},"geometry":{"type":"MultiPolygon","coordinates":[[[[29.325214989,50.268007262],[29.328251295,50.269821702],[29.329086728,50.269046554],[29.326297459,50.267381379],[29.325214989,50.268007262]]]]},"id":"39"},{"type":"Feature","properties":{"id":"40","№":30,"район":"Коростишівський","н.п.":"Вільня","кадастр":"1822581500:05:000:0155","площа факт":5.1669,"площа обміну":5.1669,"статус":"ПЕРЕДАНО АСТ до АПФ","примітка":null},"geometry":{"type":"MultiPolygon","coordinates":[[[[29.326890347,50.262175896],[29.331022598,50.264645198],[29.332356596,50.263872837],[29.329446054,50.262118469],[29.32823782,50.261397753],[29.326890347,50.262175896]]]]},"id":"40"},{"type":"Feature","properties":{"id":"41","№":31,"район":"Коростишівський","н.п.":"Вільня","кадастр":"1822581500:05:000:0156","площа факт":6.260073,"площа обміну":6.26,"статус":"ПЕРЕДАНО АСТ до АПФ","примітка":null},"geometry":{"type":"MultiPolygon","coordinates":[[[[29.325268888,50.263117692],[29.329401138,50.265584073],[29.331022598,50.264645198],[29.326890347,50.262175896],[29.325268888,50.263117692]]]]},"id":"41"},{"type":"Feature","properties":{"id":"42","№":32,"район":"Коростишівський","н.п.":"Вільня","кадастр":"1822581500:05:000:0157","площа факт":6.0282,"площа обміну":6.0282,"статус":"ПЕРЕДАНО АСТ до АПФ","примітка":null},"geometry":{"type":"MultiPolygon","coordinates":[[[[29.32370582,50.264022142],[29.32783807,50.266491348],[29.328776809,50.265945837],[29.329401138,50.265584073],[29.325268888,50.263117692],[29.324788289,50.263396207],[29.324244809,50.263709175],[29.32370582,50.264022142]]]]},"id":"42"},{"type":"Feature","properties":{"id":"43","№":33,"район":"Коростишівський","н.п.":"Вільня","кадастр":"1822581500:05:000:0158","площа факт":5.6145,"площа обміну":5.6145,"статус":"ПЕРЕДАНО АСТ до АПФ","примітка":null},"geometry":{"type":"MultiPolygon","coordinates":[[[[29.322250549,50.26486628],[29.326378307,50.267332571],[29.32783807,50.266491348],[29.32370582,50.264022142],[29.322250549,50.26486628]]]]},"id":"43"},{"type":"Feature","properties":{"id":"44","№":34,"район":"Коростишівський","н.п.":"Вільня","кадастр":"1822581500:05:000:0159","площа факт":5.6188,"площа обміну":5.6188,"статус":"ПЕРЕДАНО АСТ до АПФ","примітка":null},"geometry":{"type":"MultiPolygon","coordinates":[[[[29.320790786,50.265710404],[29.324923037,50.268176651],[29.326297459,50.267381379],[29.326378307,50.267332571],[29.322250549,50.26486628],[29.320790786,50.265710404]]]]},"id":"44"},{"type":"Feature","properties":{"id":"45","№":35,"район":"Коростишівський","н.п.":"Вільня","кадастр":"1822581500:05:000:0160","площа факт":5.7318,"площа обміну":5.7318,"статус":"ПЕРЕДАНО АСТ до АПФ","примітка":null},"geometry":{"type":"MultiPolygon","coordinates":[[[[29.319304075,50.266571738],[29.323436325,50.269037941],[29.324199893,50.268595814],[29.324923037,50.268176651],[29.320790786,50.265710404],[29.319304075,50.266571738]]]]},"id":"45"},{"type":"Feature","properties":{"id":"46","№":36,"район":"Коростишівський","н.п.":"Вільня","кадастр":"1822581500:05:000:0161","площа факт":6.2946,"площа обміну":6.2946,"статус":"ПЕРЕДАНО АСТ до АПФ","примітка":null},"geometry":{"type":"MultiPolygon","coordinates":[[[[29.317673632,50.267516318],[29.319753232,50.268759459],[29.321801391,50.269985342],[29.322317922,50.269686769],[29.323436325,50.269037941],[29.319304075,50.266571738],[29.317673632,50.267516318]]]]},"id":"46"},{"type":"Feature","properties":{"id":"47","№":38,"район":"Коростишівський","н.п.":"Вільня","кадастр":"1822581500:05:000:0163","площа факт":7.2615,"площа обміну":7.2615,"статус":"ПЕРЕДАНО АСТ до АПФ","примітка":null},"geometry":{"type":"MultiPolygon","coordinates":[[[[29.315805137,50.269715478],[29.315854544,50.271013108],[29.319753232,50.268759459],[29.317673632,50.267516318],[29.315989291,50.268489588],[29.316142005,50.268670459],[29.315683864,50.268667588],[29.313087733,50.270171949],[29.314520546,50.270625545],[29.315845561,50.271013108],[29.315796153,50.269712608],[29.31538742,50.269557579],[29.31538742,50.26909536],[29.31664057,50.268704911],[29.317112185,50.26925039],[29.316492348,50.269706866],[29.315805137,50.269715478]]]]},"id":"47"},{"type":"Feature","properties":{"id":"48","№":39,"район":"Коростишівський","н.п.":"Вільня","кадастр":"1822581500:05:000:0164","площа факт":7.4664,"площа обміну":7.4664,"статус":"ПЕРЕДАНО АСТ до АПФ","примітка":null},"geometry":{"type":"MultiPolygon","coordinates":[[[[29.313217989,50.266778456],[29.309301334,50.269043683],[29.311794159,50.269772896],[29.313033834,50.270154724],[29.315598524,50.268667588],[29.314457664,50.268661846],[29.313204514,50.268572846],[29.313640197,50.267763226],[29.315010128,50.267852227],[29.313217989,50.266778456]]]]},"id":"48"},{"type":"Feature","properties":{"id":"49","№":40,"район":"Коростишівський","н.п.":"Вільня","кадастр":"1822581500:05:000:0165","площа факт":6.77,"площа обміну":6.77,"статус":"ПЕРЕДАНО АСТ до АПФ","примітка":null},"geometry":{"type":"MultiPolygon","coordinates":[[[[29.309741508,50.266766972],[29.306979189,50.268366136],[29.309301334,50.269043683],[29.313217989,50.266778456],[29.311502206,50.265747728],[29.309741508,50.266766972]]]]},"id":"49"},{"type":"Feature","properties":{"id":"50","№":41,"район":"Коростишівський","н.п.":"Вільня","кадастр":"1822581500:05:000:0166","площа факт":7.0163,"площа обміну":7.0163,"статус":"ПЕРЕДАНО АСТ до АПФ","примітка":null},"geometry":{"type":"MultiPolygon","coordinates":[[[[29.311502206,50.265747728],[29.313217989,50.266778456],[29.315010128,50.267852227],[29.315293097,50.267869453],[29.315629965,50.268070424],[29.315962342,50.268458007],[29.317682616,50.267461768],[29.313191039,50.264771531],[29.311578563,50.265704661],[29.311502206,50.265747728]]]]},"id":"50"},{"type":"Feature","properties":{"id":"51","№":42,"район":"Коростишівський","н.п.":"Вільня","кадастр":"1822581500:05:000:0168","площа факт":6.22,"площа обміну":6.22,"статус":"ПЕРЕДАНО АСТ до АПФ","примітка":null},"geometry":{"type":"MultiPolygon","coordinates":[[[[29.314763091,50.263858481],[29.319254667,50.26654877],[29.320736887,50.265690306],[29.316245311,50.262999968],[29.314947245,50.263752244],[29.314763091,50.263858481]]]]},"id":"51"},{"type":"Feature","properties":{"id":"52","№":43,"район":"Коростишівський","н.п.":"Вільня","кадастр":"1822581500:05:000:0170","площа факт":6.0843,"площа обміну":6.0843,"статус":"ПЕРЕДАНО АСТ до АПФ","примітка":null},"geometry":{"type":"MultiPolygon","coordinates":[[[[29.317772447,50.262115598],[29.322268515,50.264805985],[29.323714803,50.263967588],[29.319223226,50.261277154],[29.318827968,50.261506866],[29.317772447,50.262115598]]]]},"id":"52"},{"type":"Feature","properties":{"id":"53","№":51,"район":"Коростишівський","н.п.":"Вільня","кадастр":"1822581500:05:000:0183","площа факт":6.1267,"площа обміну":6.13,"статус":"ПЕРЕДАНО АСТ до АПФ","примітка":null},"geometry":{"type":"MultiPolygon","coordinates":[[[[29.309341758,50.262356791],[29.313280871,50.264716978],[29.314763091,50.263858481],[29.314947245,50.263752244],[29.311008133,50.261394881],[29.309341758,50.262356791]]]]},"id":"53"},{"type":"Feature","properties":{"id":"54","№":52,"район":"Коростишівський","н.п.":"Вільня","кадастр":"1822581500:05:000:0184","площа факт":6.2698,"площа обміну":6.1267,"статус":"ПЕРЕДАНО АСТ до АПФ","примітка":null},"geometry":{"type":"MultiPolygon","coordinates":[[[[29.307639451,50.263344524],[29.311578563,50.265704661],[29.313191039,50.264771531],[29.313280871,50.264716978],[29.309341758,50.262356791],[29.307639451,50.263344524]]]]},"id":"54"},{"type":"Feature","properties":{"id":"55","№":53,"район":"Коростишівський","н.п.":"Вільня","кадастр":"1822581500:05:000:0185","площа факт":6.7646,"площа обміну":6.76,"статус":"ПЕРЕДАНО АСТ до АПФ","примітка":null},"geometry":{"type":"MultiPolygon","coordinates":[[[[29.305802396,50.264406887],[29.307473262,50.265408933],[29.309741508,50.266766972],[29.311502206,50.265747728],[29.311578563,50.265704661],[29.307639451,50.263344524],[29.305802396,50.264406887]]]]},"id":"55"},{"type":"Feature","properties":{"id":"56","№":54,"район":"Коростишівський","н.п.":"Вільня","кадастр":"1822581500:05:000:0187","площа факт":6.0088,"площа обміну":6.7646,"статус":"ПЕРЕДАНО АСТ до АПФ","примітка":null},"geometry":{"type":"MultiPolygon","coordinates":[[[[29.305802396,50.264406887],[29.30168362,50.266789941],[29.303439827,50.267332571],[29.303911442,50.267473252],[29.307473262,50.265408933],[29.305802396,50.264406887]]]]},"id":"56"},{"type":"Feature","properties":{"id":"57","№":29,"район":"Коростишівський","н.п.":"Вільня","кадастр":"1822581500:05:000:0154","площа факт":6.0289,"площа обміну":6.03,"статус":"ПЕРЕДАНО АСТ до АПФ","примітка":null},"geometry":{"type":"MultiPolygon","coordinates":[[[[29.331022598,50.264645198],[29.329401138,50.265584073],[29.328776809,50.265945837],[29.330995648,50.267272279],[29.333744493,50.264708364],[29.332356596,50.263872837],[29.331022598,50.264645198]]]]},"id":"57"},{"type":"Feature","properties":{"id":"58","№":37,"район":"Коростишівський","н.п.":"Вільня","кадастр":"1822581500:05:000:0162","площа факт":6.7704,"площа обміну":6.77,"статус":"ПЕРЕДАНО АСТ до АПФ","примітка":null},"geometry":{"type":"MultiPolygon","coordinates":[[[[29.319753232,50.268759459],[29.315854544,50.271013108],[29.318625847,50.271825544],[29.321801391,50.269985342],[29.319753232,50.268759459]]]]},"id":"58"},{"type":"Feature","properties":{"id":"59","№":84,"район":"Коростишівський","н.п.":"Вільня","кадастр":"1822581500:08:000:0018","площа факт":5.9744,"площа обміну":5.97,"статус":"ПЕРЕДАНО АСТ до АПФ","примітка":null},"geometry":{"type":"MultiPolygon","coordinates":[[[[29.259206782,50.265655852],[29.259323563,50.266939237],[29.259489751,50.269043683],[29.260046707,50.269276229],[29.26031171,50.26931068],[29.261533419,50.26912694],[29.261236975,50.265391706],[29.261160618,50.26540319],[29.259206782,50.265655852]]]]},"id":"59"},{"type":"Feature","properties":{"id":"60","№":85,"район":"Коростишівський","н.п.":"Вільня","кадастр":"1822581500:08:000:0019","площа факт":5.953,"площа обміну":5.95,"статус":"ПЕРЕДАНО АСТ до АПФ","примітка":null},"geometry":{"type":"MultiPolygon","coordinates":[[[[29.261236975,50.265391706],[29.261533419,50.26912694],[29.263478271,50.268831233],[29.26353217,50.268825491],[29.263240218,50.265136172],[29.263091996,50.265153399],[29.261236975,50.265391706]]]]},"id":"60"},{"type":"Feature","properties":{"id":"61","№":86,"район":"Коростишівський","н.п.":"Вільня","кадастр":"1822581500:08:000:0020","площа факт":6.2521,"площа обміну":6.25,"статус":"ПЕРЕДАНО АСТ до АПФ","примітка":null},"geometry":{"type":"MultiPolygon","coordinates":[[[[29.263240218,50.265136172],[29.26353217,50.268825491],[29.265647703,50.268552749],[29.26535575,50.264863409],[29.265216511,50.264880636],[29.263240218,50.265136172]]]]},"id":"61"},{"type":"Feature","properties":{"id":"62","№":87,"район":"Коростишівський","н.п.":"Вільня","кадастр":"1822581500:08:000:0023","площа факт":5.8404,"площа обміну":4.84,"статус":"ПЕРЕДАНО АСТ до АПФ","примітка":null},"geometry":{"type":"MultiPolygon","coordinates":[[[[29.269519442,50.264326493],[29.269811394,50.268015875],[29.272528798,50.267665611],[29.271796671,50.267289506],[29.271967351,50.265535264],[29.271172342,50.265380221],[29.271095985,50.264122635],[29.269519442,50.264326493]]]]},"id":"62"},{"type":"Feature","properties":{"id":"63","№":88,"район":"Коростишівський","н.п.":"Вільня","кадастр":"1822581500:08:000:0027","площа факт":6.1835,"площа обміну":6.18,"статус":"ПЕРЕДАНО АСТ до АПФ","примітка":null},"geometry":{"type":"MultiPolygon","coordinates":[[[[29.262746144,50.261532709],[29.263091996,50.265153399],[29.263240218,50.265136172],[29.265216511,50.264880636],[29.264875152,50.261259925],[29.262746144,50.261532709]]]]},"id":"63"},{"type":"Feature","properties":{"id":"64","№":89,"район":"Коростишівський","н.п.":"Вільня","кадастр":"1822581500:08:000:0028","площа факт":5.6146,"площа обміну":5.61,"статус":"ПЕРЕДАНО АСТ до АПФ","примітка":null},"geometry":{"type":"MultiPolygon","coordinates":[[[[29.260814766,50.261782519],[29.261160618,50.26540319],[29.261236975,50.265391706],[29.263091996,50.265153399],[29.262746144,50.261532709],[29.260814766,50.261782519]]]]},"id":"64"},{"type":"Feature","properties":{"id":"65","№":90,"район":"Коростишівський","н.п.":"Вільня","кадастр":"1822581500:08:000:0029","площа факт":5.672,"площа обміну":5.67,"статус":"ПЕРЕДАНО АСТ до АПФ","примітка":null},"geometry":{"type":"MultiPolygon","coordinates":[[[[29.258865422,50.262032328],[29.259022627,50.263680463],[29.259206782,50.265655852],[29.261160618,50.26540319],[29.260814766,50.261782519],[29.258865422,50.262032328]]]]},"id":"65"},{"type":"Feature","properties":{"id":"66","№":74,"район":"Коростишівський","н.п.":"Вільня","кадастр":"1822581500:07:000:0226","площа факт":5.6894,"площа обміну":5.69,"статус":"ПЕРЕДАНО АСТ до АПФ","примітка":null},"geometry":{"type":"MultiPolygon","coordinates":[[[[29.297367215,50.252825846],[29.301962098,50.255611526],[29.303287113,50.254853378],[29.298687739,50.252067654],[29.297367215,50.252825846]]]]},"id":"66"},{"type":"Feature","properties":{"id":"67","№":44,"район":"Коростишівський","н.п.":"Вільня","кадастр":"1822581500:05:000:0171","площа факт":6.1458,"площа обміну":6.1458,"статус":"ПЕРЕДАНО АСТ до АПФ","примітка":null},"geometry":{"type":"MultiPolygon","coordinates":[[[[29.319223226,50.261277154],[29.323714803,50.263967588],[29.325179057,50.263117692],[29.32068748,50.26043008],[29.319793656,50.260944069],[29.319223226,50.261277154]]]]},"id":"67"},{"type":"Feature","properties":{"id":"68","№":45,"район":"Коростишівський","н.п.":"Вільня","кадастр":"1822581500:05:000:0175","площа факт":3.8663,"площа обміну":3.8663,"статус":"ПЕРЕДАНО АСТ до АПФ","примітка":null},"geometry":{"type":"MultiPolygon","coordinates":[[[[29.318711187,50.256932513],[29.322650299,50.259290097],[29.322771572,50.25922118],[29.323701328,50.258681329],[29.319762215,50.256323715],[29.318711187,50.256932513]]]]},"id":"68"},{"type":"Feature","properties":{"id":"69","№":46,"район":"Коростишівський","н.п.":"Вільня","кадастр":"1822581500:05:000:0177","площа факт":3.4863,"площа обміну":3.4863,"статус":"ПЕРЕДАНО АСТ до АПФ","примітка":null},"geometry":{"type":"MultiPolygon","coordinates":[[[[29.317763464,50.257480999],[29.321707068,50.259838556],[29.321832832,50.259763897],[29.322650299,50.259290097],[29.318711187,50.256932513],[29.317763464,50.257480999]]]]},"id":"69"},{"type":"Feature","properties":{"id":"70","№":47,"район":"Коростишівський","н.п.":"Вільня","кадастр":"1822581500:05:000:0178","площа факт":3.5154,"площа обміну":3.4863,"статус":"ПЕРЕДАНО АСТ до АПФ","примітка":null},"geometry":{"type":"MultiPolygon","coordinates":[[[[29.315854544,50.258586567],[29.319793656,50.260944069],[29.32068748,50.26043008],[29.320750362,50.260392751],[29.31681125,50.258032351],[29.315854544,50.258586567]]]]},"id":"70"},{"type":"Feature","properties":{"id":"71","№":48,"район":"Коростишівський","н.п.":"Вільня","кадастр":"1822581500:05:000:0179","площа факт":3.5711,"площа обміну":3.5154,"статус":"ПЕРЕДАНО АСТ до АПФ","примітка":null},"geometry":{"type":"MultiPolygon","coordinates":[[[[29.314884363,50.25914652],[29.318827968,50.261506866],[29.319223226,50.261277154],[29.319793656,50.260944069],[29.315854544,50.258586567],[29.314884363,50.25914652]]]]},"id":"71"},{"type":"Feature","properties":{"id":"72","№":49,"район":"Коростишівський","н.п.":"Вільня","кадастр":"1822581500:05:000:0180","площа факт":3.9949,"площа обміну":3.5711,"статус":"ПЕРЕДАНО АСТ до АПФ","примітка":null},"geometry":{"type":"MultiPolygon","coordinates":[[[[29.313801894,50.259775383],[29.317741006,50.262135697],[29.317772447,50.262115598],[29.318827968,50.261506866],[29.314884363,50.25914652],[29.313801894,50.259775383]]]]},"id":"72"},{"type":"Feature","properties":{"id":"73","№":50,"район":"Коростишівський","н.п.":"Вільня","кадастр":"1822581500:05:000:0181","площа факт":4.5527,"площа обміну":3.9949,"статус":"ПЕРЕДАНО АСТ до АПФ","примітка":null},"geometry":{"type":"MultiPolygon","coordinates":[[[[29.312562218,50.260493253],[29.316505823,50.26285066],[29.317741006,50.262135697],[29.313801894,50.259775383],[29.312562218,50.260493253]]]]},"id":"73"},{"type":"Feature","properties":{"id":"74","№":56,"район":"Коростишівський","н.п.":"Вільня","кадастр":"1822581500:06:000:0222","площа факт":6.1814,"площа обміну":3.56,"статус":"ПЕРЕДАНО АСТ до АПФ","примітка":null},"geometry":{"type":"MultiPolygon","coordinates":[[[[29.290095353,50.255697679],[29.293845819,50.257972047],[29.295777197,50.256852106],[29.293032844,50.255186505],[29.29059841,50.255370298],[29.290095353,50.255697679]]]]},"id":"74"},{"type":"Feature","properties":{"id":"75","№":57,"район":"Коростишівський","н.п.":"Вільня","кадастр":"1822581500:06:000:0223","площа факт":5.9535,"площа обміну":5.61,"статус":"ПЕРЕДАНО АСТ до АПФ","примітка":null},"geometry":{"type":"MultiPolygon","coordinates":[[[[29.293032844,50.255186505],[29.295777197,50.256852106],[29.297731033,50.258035222],[29.299172829,50.257208193],[29.294577946,50.254422606],[29.29433091,50.254563325],[29.294461165,50.255080249],[29.293032844,50.255186505]]]]},"id":"75"},{"type":"Feature","properties":{"id":"76","№":58,"район":"Коростишівський","н.п.":"Вільня","кадастр":"1822581500:06:000:0228","площа факт":5.7063,"площа обміну":5.7063,"статус":"ПЕРЕДАНО АСТ до АПФ","примітка":null},"geometry":{"type":"MultiPolygon","coordinates":[[[[29.300012754,50.251309449],[29.304607637,50.254092346],[29.305937143,50.253334173],[29.301337769,50.25054836],[29.300012754,50.251309449]]]]},"id":"76"},{"type":"Feature","properties":{"id":"77","№":73,"район":"Коростишівський","н.п.":"Вільня","кадастр":"1822581500:07:000:0177","площа факт":3.5153,"площа обміну":3.5153,"статус":"ПЕРЕДАНО АСТ до АПФ","примітка":null},"geometry":{"type":"MultiPolygon","coordinates":[[[[29.31681125,50.258032351],[29.320750362,50.260392751],[29.321707068,50.259838556],[29.317763464,50.257480999],[29.31681125,50.258032351]]]]},"id":"77"},{"type":"Feature","properties":{"id":"78","№":64,"район":"Коростишівський","н.п.":"Вільня","кадастр":"1822581500:06:000:0239","площа факт":5.7821,"площа обміну":5.09,"статус":"ПЕРЕДАНО АСТ до АПФ","примітка":null},"geometry":{"type":"MultiPolygon","coordinates":[[[[29.291487742,50.252435264],[29.29424557,50.254500146],[29.294259045,50.254546095],[29.295826605,50.253647208],[29.291447318,50.250990655],[29.29077443117266,50.25137632675574],[29.290580443,50.251487513],[29.290490612,50.252653531],[29.290710699,50.25284595],[29.291487742,50.252435264]]]]},"id":"78"},{"type":"Feature","properties":{"id":"79","№":28,"район":"Коростишівський","н.п.":"Вільня","кадастр":"1822581500:05:000:0153","площа факт":2.9749,"площа обміну":2.9749,"статус":"ПЕРЕДАНО АСТ до АПФ","примітка":null},"geometry":{"type":"MultiPolygon","coordinates":[[[[29.327433828,50.266723906],[29.329958094,50.268234071],[29.330142249,50.268064682],[29.330995648,50.267272279],[29.328776809,50.265945837],[29.32783807,50.266491348],[29.327433828,50.266723906]]]]},"id":"79"},{"type":"Feature","properties":{"id":"80","№":55,"район":"Коростишівський","н.п.":"Вільня","кадастр":"1822581500:05:000:1153","площа факт":2.8076,"площа обміну":2.8076,"статус":"ПЕРЕДАНО АСТ до АПФ","примітка":null},"geometry":{"type":"MultiPolygon","coordinates":[[[[29.326297459,50.267381379],[29.329086728,50.269046554],[29.329958094,50.268234071],[29.327433828,50.266723906],[29.327429336,50.266723906],[29.326378307,50.267332571],[29.326297459,50.267381379]]]]},"id":"80"},{"type":"Feature","properties":{"id":"81","№":59,"район":"Коростишівський","н.п.":"Вільня","кадастр":"1822581500:06:000:0229","площа факт":6.0197,"площа обміну":6.0197,"статус":"ПЕРЕДАНО АСТ до АПФ","примітка":null},"geometry":{"type":"MultiPolygon","coordinates":[[[[29.301337769,50.25054836],[29.305937143,50.253334173],[29.307334023,50.252530038],[29.302739141,50.249744178],[29.301337769,50.25054836]]]]},"id":"81"},{"type":"Feature","properties":{"id":"82","№":65,"район":"Коростишівський","н.п.":"Вільня","кадастр":"1822581500:06:000:0240","площа факт":6.0937,"площа обміну":5.79,"статус":"ПЕРЕДАНО АСТ до АПФ","примітка":null},"geometry":{"type":"MultiPolygon","coordinates":[[[[29.29077443117266,50.25137632675574],[29.290589277094462,50.25137756429513],[29.290580443,50.251487513],[29.29077443117266,50.25137632675574]]]]},"id":"82"}]}