{"type":"FeatureCollection","name":"передано_Кропивня_5","crs":{"type":"name","properties":{"name":"urn:ogc:def:crs:OGC:1.3:CRS84"}},"features":[{"type":"Feature","properties":{"id":"1","кадастр":"1822583600:05:000:0006","№":152,"район":"Коростишівський","н.п.":"Кропивня","Фактична площа, га":3.6456,"Площа по обміну, га":3.46},"geometry":{"type":"MultiPolygon","coordinates":[[[[29.136919122,50.241331041],[29.143553181,50.242454219],[29.143647504,50.242304846],[29.143952931,50.24181651],[29.137574893,50.240736407],[29.136919122,50.241331041]]]]},"id":"1"},{"type":"Feature","properties":{"id":"2","кадастр":"1822583600:07:000:0012","№":154,"район":"Коростишівський","н.п.":"Кропивня","Фактична площа, га":3.5991,"Площа по обміну, га":3.5991},"geometry":{"type":"MultiPolygon","coordinates":[[[[29.201085783,50.236950107],[29.200874679,50.237613737],[29.200825272,50.237765997],[29.206215164,50.238472707],[29.206381352,50.237645338],[29.201085783,50.236950107]]]]},"id":"2"},{"type":"Feature","properties":{"id":"3","кадастр":"1822583600:07:000:0037","№":155,"район":"Коростишівський","н.п.":"Кропивня","Фактична площа, га":4.5118,"Площа по обміну, га":4.5118},"geometry":{"type":"MultiPolygon","coordinates":[[[[29.220264815,50.244726347],[29.227244724,50.245774764],[29.227464812,50.244990608],[29.220516343,50.243947918],[29.220264815,50.244726347]]]]},"id":"3"},{"type":"Feature","properties":{"id":"4","кадастр":"1822583600:08:000:0008","№":156,"район":"Коростишівський","н.п.":"Кропивня","Фактична площа, га":3.9986,"Площа по обміну, га":3.96},"geometry":{"type":"MultiPolygon","coordinates":[[[[29.17304038,50.228054854],[29.178609935,50.229324885],[29.179018668,50.228508851],[29.173489538,50.227247419],[29.17304038,50.228054854]]]]},"id":"4"},{"type":"Feature","properties":{"id":"5","кадастр":"1822583600:08:000:0036","№":158,"район":"Коростишівський","н.п.":"Кропивня","Фактична площа, га":3.6484,"Площа по обміну, га":3.18},"geometry":{"type":"MultiPolygon","coordinates":[[[[29.171153918,50.222606555],[29.175443373,50.223583616],[29.17569041,50.223138194],[29.174455227,50.222379529],[29.174010561,50.22274162],[29.17389378,50.222724378],[29.17429353,50.222241588],[29.174158783,50.222161123],[29.172806818,50.221356462],[29.172487916,50.221594988],[29.172007317,50.221488657],[29.171153918,50.222606555]]]]},"id":"5"},{"type":"Feature","properties":{"id":"6","кадастр":"1822583600:13:000:0028","№":161,"район":"Коростишівський","н.п.":"Кропивня","Фактична площа, га":3.278,"Площа по обміну, га":3.278},"geometry":{"type":"MultiPolygon","coordinates":[[[[29.242340913,50.251323809],[29.242718205,50.255169274],[29.242740663,50.255206608],[29.24290236,50.255284145],[29.243764742,50.255261171],[29.243369484,50.251246265],[29.242340913,50.251323809]]]]},"id":"6"},{"type":"Feature","properties":{"id":"7","кадастр":"1822583600:13:000:0035","№":165,"район":"Коростишівський","н.п.":"Кропивня","Фактична площа, га":3.4534,"Площа по обміну, га":1.162},"geometry":{"type":"MultiPolygon","coordinates":[[[[29.23706331,50.24805535],[29.237615774,50.251002143],[29.238985705,50.251539209],[29.239044096,50.251533465],[29.238666803,50.249520153],[29.238370359,50.247951951],[29.23706331,50.24805535]]]]},"id":"7"},{"type":"Feature","properties":{"id":"8","кадастр":"1822583600:13:000:0091","№":162,"район":"Коростишівський","н.п.":"Кропивня","Фактична площа, га":3.2774,"Площа по обміну, га":3.2774},"geometry":{"type":"MultiPolygon","coordinates":[[[[29.243369484,50.251246265],[29.243764742,50.255261171],[29.24478433,50.255232453],[29.24438458,50.251165848],[29.243369484,50.251246265]]]]},"id":"8"},{"type":"Feature","properties":{"id":"9","кадастр":"1822583600:14:000:0017","№":166,"район":"Коростишівський","н.п.":"Кропивня","Фактична площа, га":3.278,"Площа по обміну, га":3.278},"geometry":{"type":"MultiPolygon","coordinates":[[[[29.241694126,50.24610221],[29.242367862,50.246969644],[29.2467202,50.247297082],[29.247447835,50.246533057],[29.241694126,50.24610221]]]]},"id":"9"},{"type":"Feature","properties":{"id":"10","кадастр":"1822583600:14:000:0045","№":167,"район":"Коростишівський","н.п.":"Кропивня","Фактична площа, га":4.1135,"Площа по обміну, га":2.1939},"geometry":{"type":"MultiPolygon","coordinates":[[[[29.22979594,50.237961348],[29.229580344,50.238656564],[29.236133554,50.238685292],[29.236070672,50.238104989],[29.229903738,50.237616609],[29.22979594,50.237961348]]]]},"id":"10"},{"type":"Feature","properties":{"id":"11","кадастр":"1822583600:14:000:0099","№":164,"район":"Коростишівський","н.п.":"Кропивня","Фактична площа, га":5.2048,"Площа по обміну, га":4.88},"geometry":{"type":"MultiPolygon","coordinates":[[[[29.217017405,50.245286463],[29.216437991,50.24805535],[29.218611914,50.248606811],[29.21922726,50.245639764],[29.217017405,50.245286463]]]]},"id":"11"},{"type":"Feature","properties":{"id":"12","кадастр":"1822583600:14:000:0102","№":168,"район":"Коростишівський","н.п.":"Кропивня","Фактична площа, га":5.5957,"Площа по обміну, га":5.5957},"geometry":{"type":"MultiPolygon","coordinates":[[[[29.235823635,50.235140161],[29.235931433,50.236128457],[29.243117955,50.236668564],[29.243082023,50.236332435],[29.243010158,50.235680279],[29.235823635,50.235140161]]]]},"id":"12"},{"type":"Feature","properties":{"id":"13","кадастр":"1822583600:05:000:0144","№":153,"район":"Коростишівський","н.п.":"Кропивня","Фактична площа, га":2.8787,"Площа по обміну, га":2.34},"geometry":{"type":"MultiPolygon","coordinates":[[[[29.157668,50.241213],[29.165375,50.242471],[29.165573,50.242031],[29.157847,50.240773],[29.157816,50.240851],[29.157668,50.241213]]]]},"id":"13"},{"type":"Feature","properties":{"id":"14","кадастр":"1822583600:09:000:0040","№":159,"район":"Коростишівський","н.п.":"Кропивня","Фактична площа, га":1.130656,"Площа по обміну, га":0.87},"geometry":{"type":"MultiPolygon","coordinates":[[[[29.153571,50.228629],[29.152857,50.230571],[29.152992,50.23056],[29.152821,50.231117],[29.15323,50.231206],[29.154146,50.228709],[29.153571,50.228629]]]]},"id":"14"},{"type":"Feature","properties":{"id":"15","кадастр":"1822583600:09:000:0041","№":160,"район":"Коростишівський","н.п.":"Кропивня","Фактична площа, га":3.8348,"Площа по обміну, га":3.72},"geometry":{"type":"MultiPolygon","coordinates":[[[[29.1864,50.233646],[29.184644,50.238277],[29.18548,50.238736],[29.187353,50.233792],[29.1864,50.233646]]]]},"id":"15"},{"type":"Feature","properties":{"id":"16","кадастр":"1822583600:15:000:0061","№":163,"район":"Коростишівський","н.п.":"Кропивня","Фактична площа, га":5.269133,"Площа по обміну, га":4.99},"geometry":{"type":"MultiPolygon","coordinates":[[[[29.231873,50.247684],[29.229924,50.247368],[29.22952,50.249298],[29.230229,50.249416],[29.229996,50.250191],[29.230606,50.252205],[29.230584,50.25275],[29.230804,50.252817],[29.231873,50.247684]]]]},"id":"16"},{"type":"Feature","properties":{"id":"17","кадастр":"1822583600:08:000:0012","№":157,"район":"Коростишівський","н.п.":"Кропивня","Фактична площа, га":1.71,"Площа по обміну, га":1.71},"geometry":{"type":"MultiPolygon","coordinates":[[[[29.186954865105616,50.22695808317181],[29.19439158156698,50.22808259939494],[29.194338583071556,50.227779763204204],[29.187126194018823,50.22668920148466],[29.186954865105616,50.22695808317181]]]]},"id":"17"}]}