{"type":"FeatureCollection","name":"ПЕРЕДАНО_АСТ_до_АПФ_Озера_22_66_4","crs":{"type":"name","properties":{"name":"urn:ogc:def:crs:OGC:1.3:CRS84"}},"features":[{"type":"Feature","properties":{"id":"1","№":13,"район":"Брусилівський","н.п.":"Озера","кадастр":"1820983500:05:000:0221","площа факт":3.071986,"площа обміну":0.2,"статус":"ПЕРЕДАНО АСТ до АПФ","примітка":null},"geometry":{"type":"MultiPolygon","coordinates":[[[[29.347767194,50.193820242],[29.347771686,50.193969767],[29.347830076,50.193969767],[29.347928891,50.194582237],[29.347794144,50.195959547],[29.35020612,50.192767807],[29.35006239,50.192408364],[29.348517288,50.192618279],[29.348481355,50.192529137],[29.347767194,50.193820242]]]]},"id":"1"},{"type":"Feature","properties":{"id":"2","№":14,"район":"Брусилівський","н.п.":"Озера","кадастр":"1820983500:05:000:0240","площа факт":2.69091,"площа обміну":0.34,"статус":"ПЕРЕДАНО АСТ до АПФ","примітка":null},"geometry":{"type":"MultiPolygon","coordinates":[[[[29.350277986,50.186162241],[29.347331511,50.187663456],[29.34775372,50.188025811],[29.348957462,50.187643325],[29.348984412,50.187672083],[29.349051785,50.187787117],[29.348360082,50.188054569],[29.348481355,50.188350778],[29.351207742,50.186961745],[29.350277986,50.186162241]]]]},"id":"2"},{"type":"Feature","properties":{"id":"3","№":15,"район":"Брусилівський","н.п.":"Озера","кадастр":"1820983500:05:000:0241","площа факт":2.79,"площа обміну":0.16,"статус":"ПЕРЕДАНО АСТ до АПФ","примітка":null},"geometry":{"type":"MultiPolygon","coordinates":[[[[29.349411111,50.185414492],[29.346464637,50.186912854],[29.347331511,50.187663456],[29.350277986,50.186162241],[29.349411111,50.185414492]]]]},"id":"3"},{"type":"Feature","properties":{"id":"4","№":18,"район":"Брусилівський","н.п.":"Озера","кадастр":"1820983500:05:000:0341","площа факт":5.720901,"площа обміну":5.72,"статус":"ПЕРЕДАНО АСТ до АПФ","примітка":null},"geometry":{"type":"MultiPolygon","coordinates":[[[[29.326665768,50.17113024],[29.32384519168234,50.17242445861427],[29.32170072107284,50.17340844680251],[29.325479992,50.171668206],[29.323836075,50.172416171],[29.324671508,50.17317563],[29.326144746,50.174516161],[29.326831957,50.174237127],[29.326975687,50.174142197],[29.326948738,50.17399261],[29.326018981,50.17318426],[29.325857285,50.172936862],[29.32592915,50.172804532],[29.326122288,50.172755627],[29.326279493,50.172790148],[29.326504072,50.172931108],[29.326724159,50.173135356],[29.327016111,50.173322342],[29.327272131,50.173440287],[29.327447303,50.173457547],[29.327541626,50.173466177],[29.32775273,50.17342015],[29.327909935,50.17318426],[29.328170446,50.172516857],[29.328224345,50.172470829],[29.326665768,50.17113024]]]]},"id":"4"},{"type":"Feature","properties":{"id":"5","№":19,"район":"Брусилівський","н.п.":"Озера","кадастр":"1820983500:05:000:0343","площа факт":0.745598,"площа обміну":0.75,"статус":"ПЕРЕДАНО АСТ до АПФ","примітка":null},"geometry":{"type":"MultiPolygon","coordinates":[[[[29.332724905,50.171104349],[29.333753476,50.172157261],[29.334112802,50.171999038],[29.333960088,50.171492721],[29.333178554,50.170678574],[29.332733888,50.170943245],[29.332724905,50.171104349]]]]},"id":"5"},{"type":"Feature","properties":{"id":"6","№":24,"район":"Брусилівський","н.п.":"Озера","кадастр":"1820983500:05:000:3105","площа факт":2.92,"площа обміну":1.3,"статус":"ПЕРЕДАНО АСТ до АПФ","примітка":null},"geometry":{"type":"MultiPolygon","coordinates":[[[[29.352330636,50.187674959],[29.351149351,50.185216049],[29.352204872,50.184896813],[29.351809613,50.184557443],[29.351468253,50.184261211],[29.349195516,50.184962961],[29.352330636,50.187674959]]]]},"id":"6"},{"type":"Feature","properties":{"id":"7","№":20,"район":"Брусилівський","н.п.":"Озера","кадастр":"1820983500:05:000:0344","площа факт":1.36153,"площа обміну":1.36,"статус":"ПЕРЕДАНО АСТ до АПФ","примітка":null},"geometry":{"type":"MultiPolygon","coordinates":[[[[29.327595525,50.170701589],[29.332248798,50.168587046],[29.326706193,50.171104349],[29.328260278,50.172439185],[29.328430958,50.17229247],[29.329055287,50.172024929],[29.327595525,50.170701589]]]]},"id":"7"},{"type":"Feature","properties":{"id":"8","№":21,"район":"Брусилівський","н.п.":"Озера","кадастр":"1820983500:05:000:0345","площа факт":3.6236,"площа обміну":3.62,"статус":"ПЕРЕДАНО АСТ до АПФ","примітка":null},"geometry":{"type":"MultiPolygon","coordinates":[[[[29.330016484,50.169602614],[29.327595525,50.170701589],[29.329055287,50.172024929],[29.329333765,50.171906981],[29.329809872,50.171625054],[29.330703696,50.171107226],[29.331278617,50.170701589],[29.330016484,50.169602614]]]]},"id":"8"},{"type":"Feature","properties":{"id":"9","№":22,"район":"Брусилівський","н.п.":"Озера","кадастр":"1820983500:05:000:0346","площа факт":2.880312,"площа обміну":2.83,"статус":"ПЕРЕДАНО АСТ до АПФ","примітка":null},"geometry":{"type":"MultiPolygon","coordinates":[[[[29.332248798,50.168587046],[29.330016484,50.169602614],[29.331278617,50.170701589],[29.331651418,50.170439794],[29.332235323,50.170160735],[29.333192029,50.169847152],[29.333560338,50.16974646],[29.332248798,50.168587046]]]]},"id":"9"},{"type":"Feature","properties":{"id":"10","№":16,"район":"Брусилівський","н.п.":"Озера","кадастр":"1820983500:05:000:0339","площа факт":3.914039,"площа обміну":3.92,"статус":"ПЕРЕДАНО АСТ до АПФ","примітка":null},"geometry":{"type":"MultiPolygon","coordinates":[[[[29.322555976,50.174136444],[29.324855663,50.176224852],[29.325488975,50.175934322],[29.324640067,50.175160523],[29.326144746,50.174516161],[29.324671508,50.17317563],[29.322555976,50.174136444]]]]},"id":"10"},{"type":"Feature","properties":{"id":"11","№":17,"район":"Брусилівський","н.п.":"Озера","кадастр":"1820983500:05:000:0340","площа факт":1.915176,"площа обміну":1.92,"статус":"ПЕРЕДАНО АСТ до АПФ","примітка":null},"geometry":{"type":"MultiPolygon","coordinates":[[[[29.322555976,50.174136444],[29.324671508,50.17317563],[29.32384519168234,50.17242445861427],[29.323836075,50.172416171],[29.321720543,50.173377],[29.322555976,50.174136444]]]]},"id":"11"},{"type":"Feature","properties":{"id":"12","№":23,"район":"Брусилівський","н.п.":"Озера","кадастр":"1820983500:05:000:0558","площа факт":0.5351,"площа обміну":0.5351,"статус":"ПЕРЕДАНО АСТ до АПФ","примітка":null},"geometry":{"type":"MultiPolygon","coordinates":[[[[29.321675654437097,50.17333593143322],[29.321720543,50.173377],[29.323836075,50.172416171],[29.32384519168234,50.17242445861427],[29.326665768,50.17113024],[29.328224345,50.172470829],[29.328260278,50.172439185],[29.326706193,50.171104349],[29.332248798,50.168587046],[29.332179777022716,50.16855387600383],[29.321675654437097,50.17333593143322]]]]},"id":"12"}]}