{"type":"FeatureCollection","name":"передано_Болячів_50_46_2","crs":{"type":"name","properties":{"name":"urn:ogc:def:crs:OGC:1.3:CRS84"}},"features":[{"type":"Feature","properties":{"id":"1","кадастр":"1820980300:04:000:0262","№":1,"район":"Брусилівський","н.п.":"Болячів","Фактична площа, га":3.0554,"Площа по обміну, га":3.0554},"geometry":{"type":"MultiPolygon","coordinates":[[[[29.347461767,50.22489687],[29.348952971,50.224629625],[29.349909676,50.224460081],[29.349262889,50.222968645],[29.34684193,50.223471543],[29.347461767,50.22489687]]]]},"id":"1"},{"type":"Feature","properties":{"id":"2","кадастр":"1820980300:04:000:2123","№":9,"район":"Брусилівський","н.п.":"Болячів","Фактична площа, га":3.4527,"Площа по обміну, га":3.45},"geometry":{"type":"MultiPolygon","coordinates":[[[[29.34883619,50.216988062],[29.349478485,50.216921959],[29.350583413,50.216709276],[29.35231267,50.216329894],[29.352645046,50.215849914],[29.352020717,50.215283704],[29.348378049,50.215936138],[29.34883619,50.216988062]]]]},"id":"2"},{"type":"Feature","properties":{"id":"3","кадастр":"1820980300:04:000:2125","№":10,"район":"Брусилівський","н.п.":"Болячів","Фактична площа, га":8.3609,"Площа по обміну, га":8.3609},"geometry":{"type":"MultiPolygon","coordinates":[[[[29.345579797,50.227497409],[29.345966072,50.228511725],[29.346091836,50.228784695],[29.347686346,50.230649474],[29.350417224,50.228003133],[29.349878235,50.226756055],[29.345579797,50.227497409]]]]},"id":"3"},{"type":"Feature","properties":{"id":"4","кадастр":"1820980300:04:000:2126","№":11,"район":"Брусилівський","н.п.":"Болячів","Фактична площа, га":1.2691,"Площа по обміну, га":1.2691},"geometry":{"type":"MultiPolygon","coordinates":[[[[29.348670001,50.221617978],[29.34880924,50.221638095],[29.348935004,50.221701318],[29.351279607,50.221281742],[29.350996638,50.220663867],[29.348485847,50.221181158],[29.348670001,50.221617978]]]]},"id":"4"},{"type":"Feature","properties":{"id":"5","кадастр":"1820980300:04:000:4100","№":12,"район":"Брусилівський","н.п.":"Болячів","Фактична площа, га":5.0663,"Площа по обміну, га":3.43},"geometry":{"type":"MultiPolygon","coordinates":[[[[29.356543735,50.21490431],[29.357379168,50.214714612],[29.35647187,50.212630761],[29.355937372,50.212725614],[29.355636436,50.212777352],[29.35593288,50.213090653],[29.355914914,50.213125145],[29.351261641,50.214159886],[29.351558085,50.214484675],[29.352595639,50.214303598],[29.353570311,50.215484896],[29.354014977,50.215375677],[29.354091334,50.215493518],[29.354482101,50.215482022],[29.354607865,50.213875334],[29.355919406,50.213970185],[29.356543735,50.21490431]]]]},"id":"5"},{"type":"Feature","properties":{"id":"6","кадастр":"1820980300:04:000:0275","№":2,"район":"Брусилівський","н.п.":"Болячів","Фактична площа, га":4.5475,"Площа по обміну, га":4.55},"geometry":{"type":"MultiPolygon","coordinates":[[[[29.349752471,50.193673593],[29.351962327,50.193158879],[29.35339514,50.192828193],[29.354239556,50.192632657],[29.3533098,50.19220995],[29.351445795,50.191358773],[29.350776551,50.191755607],[29.349289839,50.192635532],[29.349752471,50.193673593]]]]},"id":"6"},{"type":"Feature","properties":{"id":"7","кадастр":"1820980300:04:000:2109","№":3,"район":"Брусилівський","н.п.":"Болячів","Фактична площа, га":5.2455,"Площа по обміну, га":4.44},"geometry":{"type":"MultiPolygon","coordinates":[[[[29.383138359,50.198570289],[29.384032182,50.199018816],[29.386655263,50.196876773],[29.385388638,50.195119939],[29.383524634,50.196646749],[29.382963187,50.197109671],[29.384445407,50.197492081],[29.383138359,50.198570289]]]]},"id":"7"},{"type":"Feature","properties":{"id":"8","кадастр":"1820980300:04:000:2110","№":4,"район":"Брусилівський","н.п.":"Болячів","Фактична площа, га":5.7369,"Площа по обміну, га":2.5},"geometry":{"type":"MultiPolygon","coordinates":[[[[29.382963187,50.197109671],[29.383524634,50.196646749],[29.381454018,50.19377711],[29.380946469,50.194470095],[29.38131927,50.195341344],[29.380200868,50.195608753],[29.379271111,50.195332717],[29.378341355,50.195148693],[29.377752959,50.195723768],[29.378803987,50.19615507],[29.381463001,50.196704255],[29.382963187,50.197109671]]]]},"id":"8"},{"type":"Feature","properties":{"id":"9","кадастр":"1820980300:04:000:2113","№":5,"район":"Брусилівський","н.п.":"Болячів","Фактична площа, га":4.9118,"Площа по обміну, га":4.4},"geometry":{"type":"MultiPolygon","coordinates":[[[[29.375210726,50.185989685],[29.377380158,50.185362725],[29.375058013,50.182903696],[29.373265874,50.183208565],[29.375210726,50.185989685]]]]},"id":"9"},{"type":"Feature","properties":{"id":"10","кадастр":"1820980300:04:000:2114","№":6,"район":"Брусилівський","н.п.":"Болячів","Фактична площа, га":5.4882,"Площа по обміну, га":5.19},"geometry":{"type":"MultiPolygon","coordinates":[[[[29.371249156,50.183628475],[29.373229941,50.183153919],[29.375017589,50.182834669],[29.373553335,50.181307416],[29.372237303,50.181905668],[29.371514159,50.181071565],[29.369802868,50.181566276],[29.370301433,50.182273819],[29.370413723,50.18243776],[29.370799998,50.182233553],[29.371505176,50.182567187],[29.371298563,50.182895067],[29.370683217,50.182823164],[29.371249156,50.183628475]]]]},"id":"10"},{"type":"Feature","properties":{"id":"11","кадастр":"1820980300:04:000:2115","№":7,"район":"Брусилівський","н.п.":"Болячів","Фактична площа, га":4.6097,"Площа по обміну, га":4.61},"geometry":{"type":"MultiPolygon","coordinates":[[[[29.3645073,50.183941968],[29.368365564,50.182828916],[29.366766563,50.18054521],[29.365535871,50.180913372],[29.365643669,50.181123338],[29.365958079,50.181108956],[29.366744105,50.182285324],[29.365854773,50.182702366],[29.365490955,50.182518293],[29.363891954,50.183047502],[29.36405365,50.183294848],[29.3645073,50.183941968]]]]},"id":"11"},{"type":"Feature","properties":{"id":"12","кадастр":"1820980300:04:000:2116","№":8,"район":"Брусилівський","н.п.":"Болячів","Фактична площа, га":5.1955,"Площа по обміну, га":5.2},"geometry":{"type":"MultiPolygon","coordinates":[[[[29.360640052,50.184278467],[29.36405365,50.183294848],[29.363891954,50.183047502],[29.362957706,50.183257459],[29.362328885,50.182466522],[29.365172053,50.181226882],[29.365032814,50.181031298],[29.359467751,50.182670729],[29.360640052,50.184278467]]]]},"id":"12"}]}