{"type":"FeatureCollection","name":"ПЕРЕДАНО_АСТ_до_АПФ_Кропивня_38_90_7","crs":{"type":"name","properties":{"name":"urn:ogc:def:crs:OGC:1.3:CRS84"}},"features":[{"type":"Feature","properties":{"id":"1","№":152,"район":"Коростишівський","н.п.":"Кропивня","кадастр":"1822583600:05:000:0006","площа факт":3.6456,"площа обміну":3.46,"статус":"ПЕРЕДАНО АСТ до АПФ","примітка":null},"geometry":{"type":"MultiPolygon","coordinates":[[[[29.136919122,50.241331041],[29.143553181,50.242454219],[29.143647504,50.242304846],[29.143952931,50.24181651],[29.137574893,50.240736407],[29.136919122,50.241331041]]]]},"id":"1"},{"type":"Feature","properties":{"id":"2","№":154,"район":"Коростишівський","н.п.":"Кропивня","кадастр":"1822583600:07:000:0012","площа факт":3.5991,"площа обміну":3.5991,"статус":"ПЕРЕДАНО АСТ до АПФ","примітка":null},"geometry":{"type":"MultiPolygon","coordinates":[[[[29.201085783,50.236950107],[29.200874679,50.237613737],[29.200825272,50.237765997],[29.206215164,50.238472707],[29.206381352,50.237645338],[29.201085783,50.236950107]]]]},"id":"2"},{"type":"Feature","properties":{"id":"3","№":155,"район":"Коростишівський","н.п.":"Кропивня","кадастр":"1822583600:07:000:0037","площа факт":4.5118,"площа обміну":4.5118,"статус":"ПЕРЕДАНО АСТ до АПФ","примітка":null},"geometry":{"type":"MultiPolygon","coordinates":[[[[29.220264815,50.244726347],[29.227244724,50.245774764],[29.227464812,50.244990608],[29.220516343,50.243947918],[29.220264815,50.244726347]]]]},"id":"3"},{"type":"Feature","properties":{"id":"4","№":156,"район":"Коростишівський","н.п.":"Кропивня","кадастр":"1822583600:08:000:0008","площа факт":3.9986,"площа обміну":3.96,"статус":"ПЕРЕДАНО АСТ до АПФ","примітка":null},"geometry":{"type":"MultiPolygon","coordinates":[[[[29.17304038,50.228054854],[29.178609935,50.229324885],[29.179018668,50.228508851],[29.173489538,50.227247419],[29.17304038,50.228054854]]]]},"id":"4"},{"type":"Feature","properties":{"id":"5","№":158,"район":"Коростишівський","н.п.":"Кропивня","кадастр":"1822583600:08:000:0036","площа факт":3.6484,"площа обміну":3.18,"статус":"ПЕРЕДАНО АСТ до АПФ","примітка":null},"geometry":{"type":"MultiPolygon","coordinates":[[[[29.171153918,50.222606555],[29.175443373,50.223583616],[29.17569041,50.223138194],[29.174455227,50.222379529],[29.174010561,50.22274162],[29.17389378,50.222724378],[29.17429353,50.222241588],[29.174158783,50.222161123],[29.172806818,50.221356462],[29.172487916,50.221594988],[29.172007317,50.221488657],[29.171153918,50.222606555]]]]},"id":"5"},{"type":"Feature","properties":{"id":"6","№":161,"район":"Коростишівський","н.п.":"Кропивня","кадастр":"1822583600:13:000:0028","площа факт":3.278,"площа обміну":3.278,"статус":"ПЕРЕДАНО АСТ до АПФ","примітка":null},"geometry":{"type":"MultiPolygon","coordinates":[[[[29.242340913,50.251323809],[29.242718205,50.255169274],[29.242740663,50.255206608],[29.24290236,50.255284145],[29.243764742,50.255261171],[29.243369484,50.251246265],[29.242340913,50.251323809]]]]},"id":"6"},{"type":"Feature","properties":{"id":"7","№":162,"район":"Коростишівський","н.п.":"Кропивня","кадастр":"1822583600:13:000:0091","площа факт":3.2774,"площа обміну":3.2774,"статус":"ПЕРЕДАНО АСТ до АПФ","примітка":null},"geometry":{"type":"MultiPolygon","coordinates":[[[[29.243369484,50.251246265],[29.243764742,50.255261171],[29.24478433,50.255232453],[29.24438458,50.251165848],[29.243369484,50.251246265]]]]},"id":"7"},{"type":"Feature","properties":{"id":"8","№":153,"район":"Коростишівський","н.п.":"Кропивня","кадастр":"1822583600:05:000:0144","площа факт":2.8787,"площа обміну":2.34,"статус":"ПЕРЕДАНО АСТ до АПФ","примітка":null},"geometry":{"type":"MultiPolygon","coordinates":[[[[29.157668,50.241213],[29.165375,50.242471],[29.165573,50.242031],[29.157847,50.240773],[29.157816,50.240851],[29.157668,50.241213]]]]},"id":"8"},{"type":"Feature","properties":{"id":"9","№":159,"район":"Коростишівський","н.п.":"Кропивня","кадастр":"1822583600:09:000:0040","площа факт":1.130656,"площа обміну":0.87,"статус":"ПЕРЕДАНО АСТ до АПФ","примітка":null},"geometry":{"type":"MultiPolygon","coordinates":[[[[29.153571,50.228629],[29.152857,50.230571],[29.152992,50.23056],[29.152821,50.231117],[29.15323,50.231206],[29.154146,50.228709],[29.153571,50.228629]]]]},"id":"9"},{"type":"Feature","properties":{"id":"10","№":160,"район":"Коростишівський","н.п.":"Кропивня","кадастр":"1822583600:09:000:0041","площа факт":3.8348,"площа обміну":3.72,"статус":"ПЕРЕДАНО АСТ до АПФ","примітка":null},"geometry":{"type":"MultiPolygon","coordinates":[[[[29.1864,50.233646],[29.184644,50.238277],[29.18548,50.238736],[29.187353,50.233792],[29.1864,50.233646]]]]},"id":"10"},{"type":"Feature","properties":{"id":"11","№":163,"район":"Коростишівський","н.п.":"Кропивня","кадастр":"1822583600:15:000:0061","площа факт":5.269133,"площа обміну":4.99,"статус":"ПЕРЕДАНО АСТ до АПФ","примітка":null},"geometry":{"type":"MultiPolygon","coordinates":[[[[29.231873,50.247684],[29.229924,50.247368],[29.22952,50.249298],[29.230229,50.249416],[29.229996,50.250191],[29.230606,50.252205],[29.230584,50.25275],[29.230804,50.252817],[29.231873,50.247684]]]]},"id":"11"},{"type":"Feature","properties":{"id":"12","№":157,"район":"Коростишівський","н.п.":"Кропивня","кадастр":"1822583600:08:000:0012","площа факт":1.71,"площа обміну":1.71,"статус":"ПЕРЕДАНО АСТ до АПФ","примітка":null},"geometry":{"type":"MultiPolygon","coordinates":[[[[29.186954865105616,50.22695808317181],[29.19439158156698,50.22808259939494],[29.194338583071556,50.227779763204204],[29.187126194018823,50.22668920148466],[29.186954865105616,50.22695808317181]]]]},"id":"12"}]}