{"type":"FeatureCollection","name":"передано_кропивня-голубіївка_17_22_7","crs":{"type":"name","properties":{"name":"urn:ogc:def:crs:OGC:1.3:CRS84"}},"features":[{"type":"Feature","properties":{"id":"1","кадастр":"1822583600:13:000:0035","№":165,"район":"Коростишівський","н.п.":"Кропивня","Фактична площа, га":3.4534,"Площа по обміну, га":1.162,"площа факт":3.4534,"площа обміну":1.162,"статус":"ПЕРЕДАНО АСТ до АПФ","примітка":null},"geometry":{"type":"MultiPolygon","coordinates":[[[[29.23706331,50.24805535],[29.237615774,50.251002143],[29.238985705,50.251539209],[29.239044096,50.251533465],[29.238666803,50.249520153],[29.238370359,50.247951951],[29.23706331,50.24805535]]]]},"id":"1"},{"type":"Feature","properties":{"id":"2","кадастр":"1822583600:13:000:0083","№":169,"район":"Коростишівський","н.п.":"Голубівка","Фактична площа, га":4.6745,"Площа по обміну, га":0.11,"площа факт":4.6745,"площа обміну":0.11,"статус":"ПЕРЕДАНО АСТ до АПФ","примітка":null},"geometry":{"type":"MultiPolygon","coordinates":[[[[29.251719324,50.254548966],[29.251669917,50.255490912],[29.257980582,50.255511015],[29.257899733,50.254566197],[29.251719324,50.254548966]]]]},"id":"2"},{"type":"Feature","properties":{"id":"3","кадастр":"1822583600:14:000:0017","№":166,"район":"Коростишівський","н.п.":"Кропивня","Фактична площа, га":3.278,"Площа по обміну, га":3.278,"площа факт":3.278,"площа обміну":3.278,"статус":"ПЕРЕДАНО АСТ до АПФ","примітка":null},"geometry":{"type":"MultiPolygon","coordinates":[[[[29.241694126,50.24610221],[29.242367862,50.246969644],[29.2467202,50.247297082],[29.247447835,50.246533057],[29.241694126,50.24610221]]]]},"id":"3"},{"type":"Feature","properties":{"id":"4","кадастр":"1822583600:14:000:0045","№":167,"район":"Коростишівський","н.п.":"Кропивня","Фактична площа, га":4.1135,"Площа по обміну, га":2.1939,"площа факт":4.1135,"площа обміну":2.1939,"статус":"ПЕРЕДАНО АСТ до АПФ","примітка":null},"geometry":{"type":"MultiPolygon","coordinates":[[[[29.22979594,50.237961348],[29.229580344,50.238656564],[29.236133554,50.238685292],[29.236070672,50.238104989],[29.229903738,50.237616609],[29.22979594,50.237961348]]]]},"id":"4"},{"type":"Feature","properties":{"id":"5","кадастр":"1822583600:14:000:0099","№":164,"район":"Коростишівський","н.п.":"Кропивня","Фактична площа, га":5.2048,"Площа по обміну, га":4.88,"площа факт":5.2048,"площа обміну":4.88,"статус":"ПЕРЕДАНО АСТ до АПФ","примітка":null},"geometry":{"type":"MultiPolygon","coordinates":[[[[29.217017405,50.245286463],[29.216437991,50.24805535],[29.218611914,50.248606811],[29.21922726,50.245639764],[29.217017405,50.245286463]]]]},"id":"5"},{"type":"Feature","properties":{"id":"6","кадастр":"1822583600:14:000:0102","№":168,"район":"Коростишівський","н.п.":"Кропивня","Фактична площа, га":5.5957,"Площа по обміну, га":5.5957,"площа факт":5.5957,"площа обміну":5.5957,"статус":"ПЕРЕДАНО АСТ до АПФ","примітка":null},"geometry":{"type":"MultiPolygon","coordinates":[[[[29.235823635,50.235140161],[29.235931433,50.236128457],[29.243117955,50.236668564],[29.243082023,50.236332435],[29.243010158,50.235680279],[29.235823635,50.235140161]]]]},"id":"6"}]}