{"type":"FeatureCollection","name":"передано_Квітневе_35_44_5","crs":{"type":"name","properties":{"name":"urn:ogc:def:crs:OGC:1.3:CRS84"}},"features":[{"type":"Feature","properties":{"id":"1","кадастр":"1822583000:05:000:0049","№":106,"район":"Коростишівський","н.п.":"Квітневе","Фактична площа, га":0.14,"Площа по обміну, га":0.14},"geometry":{"type":"MultiPolygon","coordinates":[[[[29.25917085,50.312320666],[29.2595706,50.31279107],[29.259880519,50.312727967],[29.259453819,50.312226011],[29.25917085,50.312320666]]]]},"id":"1"},{"type":"Feature","properties":{"id":"2","кадастр":"1822583000:05:000:0057","№":107,"район":"Коростишівський","н.п.":"Квітневе","Фактична площа, га":0.035,"Площа по обміну, га":0.035},"geometry":{"type":"MultiPolygon","coordinates":[[[[29.258303975,50.312527185],[29.258380332,50.312590288],[29.258798049,50.312449741],[29.258703726,50.312357954],[29.258303975,50.312527185]]]]},"id":"2"},{"type":"Feature","properties":{"id":"3","кадастр":"1822583000:05:000:0058","№":108,"район":"Коростишівський","н.п.":"Квітневе","Фактична площа, га":0.0351,"Площа по обміну, га":0.0351},"geometry":{"type":"MultiPolygon","coordinates":[[[[29.258609402,50.312266168],[29.258236602,50.312466951],[29.258303975,50.312527185],[29.258703726,50.312357954],[29.258609402,50.312266168]]]]},"id":"3"},{"type":"Feature","properties":{"id":"4","кадастр":"1822583000:05:000:0059","№":109,"район":"Коростишівський","н.п.":"Квітневе","Фактична площа, га":0.035,"Площа по обміну, га":0.035},"geometry":{"type":"MultiPolygon","coordinates":[[[[29.258757624,50.312185854],[29.258609402,50.312266168],[29.258703726,50.312357954],[29.258798049,50.312449741],[29.258860931,50.312426794],[29.258968729,50.312389506],[29.258757624,50.312185854]]]]},"id":"4"},{"type":"Feature","properties":{"id":"5","кадастр":"1822583000:05:000:0060","№":110,"район":"Коростишівський","н.п.":"Квітневе","Фактична площа, га":0.035,"Площа по обміну, га":0.035},"geometry":{"type":"MultiPolygon","coordinates":[[[[29.258892372,50.312114146],[29.258757624,50.312185854],[29.258968729,50.312389506],[29.259121442,50.312337876],[29.258892372,50.312114146]]]]},"id":"5"},{"type":"Feature","properties":{"id":"6","кадастр":"1822583000:05:000:0061","№":111,"район":"Коростишівський","н.п.":"Квітневе","Фактична площа, га":0.1399,"Площа по обміну, га":0.1399},"geometry":{"type":"MultiPolygon","coordinates":[[[[29.259220257,50.31182731],[29.258946271,50.312085462],[29.258892372,50.312114146],[29.259121442,50.312337876],[29.25917085,50.312320666],[29.259453819,50.312226011],[29.259579583,50.312182986],[29.259220257,50.31182731]]]]},"id":"6"},{"type":"Feature","properties":{"id":"7","кадастр":"1822583000:05:000:0062","№":112,"район":"Коростишівський","н.п.":"Квітневе","Фактична площа, га":0.1399,"Площа по обміну, га":0.1399},"geometry":{"type":"MultiPolygon","coordinates":[[[[29.259444836,50.31161792],[29.259220257,50.31182731],[29.259579583,50.312182986],[29.259718822,50.312137092],[29.259907468,50.312071121],[29.259444836,50.31161792]]]]},"id":"7"},{"type":"Feature","properties":{"id":"8","кадастр":"1822583000:05:000:0063","№":113,"район":"Коростишівський","н.п.":"Квітневе","Фактична площа, га":0.1398,"Площа по обміну, га":0.1398},"geometry":{"type":"MultiPolygon","coordinates":[[[[29.25962899,50.311448685],[29.259444836,50.31161792],[29.259907468,50.312071121],[29.259965859,50.312051042],[29.260172471,50.311982202],[29.25962899,50.311448685]]]]},"id":"8"},{"type":"Feature","properties":{"id":"9","кадастр":"1822583000:05:000:0069","№":114,"район":"Коростишівський","н.п.":"Квітневе","Фактична площа, га":0.14,"Площа по обміну, га":0.02},"geometry":{"type":"MultiPolygon","coordinates":[[[[29.260406033,50.31072011],[29.260266794,50.310852058],[29.260891123,50.311465896],[29.261093244,50.311394186],[29.260635103,50.310943847],[29.260406033,50.31072011]]]]},"id":"9"},{"type":"Feature","properties":{"id":"10","кадастр":"1822583000:13:000:0050","№":116,"район":"Коростишівський","н.п.":"Квітневе","Фактична площа, га":2.4923,"Площа по обміну, га":2.4923},"geometry":{"type":"MultiPolygon","coordinates":[[[[29.2819656,50.322206776],[29.282818999,50.32275451],[29.286228106,50.321251811],[29.285365723,50.320706927],[29.2819656,50.322206776]]]]},"id":"10"},{"type":"Feature","properties":{"id":"11","кадастр":"1822583000:14:000:0043","№":117,"район":"Коростишівський","н.п.":"Квітневе","Фактична площа, га":2.026,"Площа по обміну, га":2.03},"geometry":{"type":"MultiPolygon","coordinates":[[[[29.301477008,50.313456512],[29.30068649,50.312934485],[29.298512567,50.314715662],[29.299262661,50.315240538],[29.299285119,50.315254878],[29.301477008,50.313456512]]]]},"id":"11"},{"type":"Feature","properties":{"id":"12","кадастр":"1822583000:14:000:0044","№":118,"район":"Коростишівський","н.п.":"Квітневе","Фактична площа, га":2.3949,"Площа по обміну, га":2.3949},"geometry":{"type":"MultiPolygon","coordinates":[[[[29.302406764,50.314067448],[29.301477008,50.313456512],[29.299285119,50.315254878],[29.300183434,50.315885868],[29.302406764,50.314067448]]]]},"id":"12"},{"type":"Feature","properties":{"id":"13","кадастр":"1822583000:14:000:0132","№":121,"район":"Коростишівський","н.п.":"Квітневе","Фактична площа, га":2.4655,"Площа по обміну, га":2.47},"geometry":{"type":"MultiPolygon","coordinates":[[[[29.291456301,50.316637309],[29.292305209,50.31722526],[29.294735152,50.315234801],[29.293881752,50.314649694],[29.291456301,50.316637309]]]]},"id":"13"},{"type":"Feature","properties":{"id":"14","кадастр":"1822583000:17:000:0042","№":124,"район":"Коростишівський","н.п.":"Квітневе","Фактична площа, га":2.5787,"Площа по обміну, га":2.52},"geometry":{"type":"MultiPolygon","coordinates":[[[[29.323076999,50.306503334],[29.32134325,50.307315164],[29.322771572,50.308522844],[29.3242493,50.307831516],[29.32450532,50.307711034],[29.323076999,50.306503334]]]]},"id":"14"},{"type":"Feature","properties":{"id":"15","кадастр":"1822583000:17:000:0050","№":125,"район":"Коростишівський","н.п.":"Квітневе","Фактична площа, га":2.552556,"Площа по обміну, га":2.552556},"geometry":{"type":"MultiPolygon","coordinates":[[[[29.317646683,50.314156363],[29.317669141,50.313812175],[29.317754481,50.313734732],[29.31589946,50.312168644],[29.314722667,50.312722231],[29.316056665,50.313846594],[29.316860657,50.31452923],[29.317646683,50.314156363]]]]},"id":"15"},{"type":"Feature","properties":{"id":"16","кадастр":"1822583000:17:000:0051","№":126,"район":"Коростишівський","н.п.":"Квітневе","Фактична площа, га":2.655947,"Площа по обміну, га":2.655947},"geometry":{"type":"MultiPolygon","coordinates":[[[[29.317754481,50.313734732],[29.31889085,50.312673469],[29.317435579,50.311442949],[29.31589946,50.312168644],[29.317754481,50.313734732]]]]},"id":"16"},{"type":"Feature","properties":{"id":"17","кадастр":"1822583000:17:000:0069","№":127,"район":"Коростишівський","н.п.":"Квітневе","Фактична площа, га":2.528518,"Площа по обміну, га":2.53},"geometry":{"type":"MultiPolygon","coordinates":[[[[29.318284487,50.317388737],[29.318621355,50.317337113],[29.320161966,50.316577079],[29.318482116,50.315171702],[29.317835329,50.315449912],[29.317794905,50.316686066],[29.317615242,50.316829469],[29.318284487,50.317388737]]]]},"id":"17"},{"type":"Feature","properties":{"id":"18","кадастр":"1822583000:17:000:0252","№":128,"район":"Коростишівський","н.п.":"Квітневе","Фактична площа, га":0.146262,"Площа по обміну, га":0.146262},"geometry":{"type":"MultiPolygon","coordinates":[[[[29.310814995,50.318882955],[29.311048557,50.318685067],[29.310536517,50.31832944],[29.310491602,50.318366724],[29.310302955,50.31852733],[29.310814995,50.318882955]]]]},"id":"18"},{"type":"Feature","properties":{"id":"19","кадастр":"1822583000:17:000:0255","№":129,"район":"Коростишівський","н.п.":"Квітневе","Фактична площа, га":0.146458,"Площа по обміну, га":0.146458},"geometry":{"type":"MultiPolygon","coordinates":[[[[29.31148424,50.317907847],[29.311264153,50.317709955],[29.310770079,50.31813155],[29.311017116,50.318303629],[29.31148424,50.317907847]]]]},"id":"19"},{"type":"Feature","properties":{"id":"20","кадастр":"1822583000:17:000:0281","№":130,"район":"Коростишівський","н.п.":"Квітневе","Фактична площа, га":0.130726,"Площа по обміну, га":0.130726},"geometry":{"type":"MultiPolygon","coordinates":[[[[29.309921171,50.317976679],[29.309732525,50.318137286],[29.310302955,50.31852733],[29.310491602,50.318366724],[29.309921171,50.317976679]]]]},"id":"20"},{"type":"Feature","properties":{"id":"21","кадастр":"1822583000:17:000:0282","№":131,"район":"Коростишівський","н.п.":"Квітневе","Фактична площа, га":0.134084,"Площа по обміну, га":0.134084},"geometry":{"type":"MultiPolygon","coordinates":[[[[29.310118801,50.317813203],[29.309921171,50.317976679],[29.310491602,50.318366724],[29.310536517,50.31832944],[29.310684739,50.31820325],[29.310482619,50.318062718],[29.310284989,50.317927923],[29.310118801,50.317813203]]]]},"id":"21"},{"type":"Feature","properties":{"id":"22","кадастр":"1822583000:17:000:0284","№":132,"район":"Коростишівський","н.п.":"Квітневе","Фактична площа, га":0.146477,"Площа по обміну, га":0.146477},"geometry":{"type":"MultiPolygon","coordinates":[[[[29.311088981,50.317549346],[29.31091381,50.317394473],[29.310284989,50.317927923],[29.310482619,50.318062718],[29.311088981,50.317549346]]]]},"id":"22"},{"type":"Feature","properties":{"id":"23","кадастр":"1822583000:17:000:0300","№":133,"район":"Коростишівський","н.п.":"Квітневе","Фактична площа, га":0.217836,"Площа по обміну, га":0.217836},"geometry":{"type":"MultiPolygon","coordinates":[[[[29.30718131,50.320256676],[29.307504703,50.319981362],[29.306956731,50.319602801],[29.306880374,50.319665895],[29.306651304,50.319860911],[29.306628846,50.319880986],[29.30718131,50.320256676]]]]},"id":"23"},{"type":"Feature","properties":{"id":"24","кадастр":"1822583000:17:000:0302","№":134,"район":"Коростишівський","н.п.":"Квітневе","Фактична площа, га":0.217711,"Площа по обміну, га":0.217711},"geometry":{"type":"MultiPolygon","coordinates":[[[[29.308160474,50.31942786],[29.30760801,50.319049295],[29.307567585,50.319086578],[29.307338515,50.319278729],[29.307284616,50.319327483],[29.307832588,50.319703178],[29.308160474,50.31942786]]]]},"id":"24"},{"type":"Feature","properties":{"id":"25","кадастр":"1822583000:17:000:0305","№":135,"район":"Коростишівський","н.п.":"Квітневе","Фактична площа, га":0.217759,"Площа по обміну, га":0.217759},"geometry":{"type":"MultiPolygon","coordinates":[[[[29.308811752,50.318874351],[29.309139637,50.318596161],[29.308591665,50.318220457],[29.308479375,50.318312233],[29.30826378,50.31849865],[29.308811752,50.318874351]]]]},"id":"25"},{"type":"Feature","properties":{"id":"26","кадастр":"1822583000:17:000:0306","№":136,"район":"Коростишівський","н.п.":"Квітневе","Фактична площа, га":0.217848,"Площа по обміну, га":0.217848},"geometry":{"type":"MultiPolygon","coordinates":[[[[29.309139637,50.318596161],[29.309463031,50.318320836],[29.308915058,50.317945131],[29.308708446,50.318120078],[29.308591665,50.318220457],[29.309139637,50.318596161]]]]},"id":"26"},{"type":"Feature","properties":{"id":"27","кадастр":"1822583000:17:000:0308","№":137,"район":"Коростишівський","н.п.":"Квітневе","Фактична площа, га":0.161627,"Площа по обміну, га":0.161627},"geometry":{"type":"MultiPolygon","coordinates":[[[[29.309763966,50.318068454],[29.310006511,50.317861959],[29.309458539,50.31748625],[29.309395657,50.317540742],[29.309215994,50.317692747],[29.309763966,50.318068454]]]]},"id":"27"},{"type":"Feature","properties":{"id":"28","кадастр":"1822583000:17:000:0309","№":138,"район":"Коростишівський","н.п.":"Квітневе","Фактична площа, га":0.141439,"Площа по обміну, га":0.141439},"geometry":{"type":"MultiPolygon","coordinates":[[[[29.310006511,50.317861959],[29.310217616,50.317681275],[29.310033461,50.31755795],[29.309858289,50.317434626],[29.309669643,50.317305564],[29.309624727,50.317345717],[29.309458539,50.31748625],[29.310006511,50.317861959]]]]},"id":"28"},{"type":"Feature","properties":{"id":"29","кадастр":"1822583000:17:000:0321","№":139,"район":"Коростишівський","н.п.":"Квітневе","Фактична площа, га":0.209867,"Площа по обміну, га":0.09},"geometry":{"type":"MultiPolygon","coordinates":[[[[29.304495347,50.320480368],[29.30427526,50.320666777],[29.305061286,50.321205926],[29.305146626,50.321134231],[29.305281373,50.321019519],[29.304495347,50.320480368]]]]},"id":"29"},{"type":"Feature","properties":{"id":"30","кадастр":"1822583000:17:000:0328","№":140,"район":"Коростишівський","н.п.":"Квітневе","Фактична площа, га":0.217942,"Площа по обміну, га":0.217942},"geometry":{"type":"MultiPolygon","coordinates":[[[[29.306094348,50.319126729],[29.30586977,50.319321747],[29.306651304,50.319860911],[29.306880374,50.319665895],[29.306094348,50.319126729]]]]},"id":"30"},{"type":"Feature","properties":{"id":"31","кадастр":"1822583000:17:000:0329","№":141,"район":"Коростишівський","н.п.":"Квітневе","Фактична площа, га":0.21794,"Площа по обміну, га":0.21794},"geometry":{"type":"MultiPolygon","coordinates":[[[[29.306323419,50.318934578],[29.306094348,50.319126729],[29.306880374,50.319665895],[29.306956731,50.319602801],[29.307109445,50.319473746],[29.306323419,50.318934578]]]]},"id":"31"},{"type":"Feature","properties":{"id":"32","кадастр":"1822583000:17:000:0330","№":142,"район":"Коростишівський","н.п.":"Квітневе","Фактична площа, га":0.217905,"Площа по обміну, га":0.217905},"geometry":{"type":"MultiPolygon","coordinates":[[[[29.306552489,50.318739558],[29.306323419,50.318934578],[29.307109445,50.319473746],[29.307284616,50.319327483],[29.307338515,50.319278729],[29.306552489,50.318739558]]]]},"id":"32"},{"type":"Feature","properties":{"id":"33","кадастр":"1822583000:17:000:0331","№":143,"район":"Коростишівський","н.п.":"Квітневе","Фактична площа, га":0.21799,"Площа по обміну, га":0.21799},"geometry":{"type":"MultiPolygon","coordinates":[[[[29.30678156,50.318547405],[29.306552489,50.318739558],[29.307338515,50.319278729],[29.307567585,50.319086578],[29.30678156,50.318547405]]]]},"id":"33"},{"type":"Feature","properties":{"id":"34","кадастр":"1822583000:17:000:0333","№":144,"район":"Коростишівський","н.п.":"Квітневе","Фактична площа, га":0.217937,"Площа по обміну, га":0.217937},"geometry":{"type":"MultiPolygon","coordinates":[[[[29.3072397,50.31816023],[29.30701063,50.318355252],[29.307796656,50.318894427],[29.307935895,50.318773973],[29.308025726,50.318699407],[29.3072397,50.31816023]]]]},"id":"34"},{"type":"Feature","properties":{"id":"35","кадастр":"1822583000:17:000:0336","№":145,"район":"Коростишівський","н.п.":"Квітневе","Фактична площа, га":0.217928,"Площа по обміну, га":0.217928},"geometry":{"type":"MultiPolygon","coordinates":[[[[29.30792242,50.317580895],[29.30769335,50.317773051],[29.308479375,50.318312233],[29.308591665,50.318220457],[29.308708446,50.318120078],[29.30792242,50.317580895]]]]},"id":"35"},{"type":"Feature","properties":{"id":"36","кадастр":"1822583000:17:000:0337","№":146,"район":"Коростишівський","н.п.":"Квітневе","Фактична площа, га":0.217922,"Площа по обміну, га":0.217922},"geometry":{"type":"MultiPolygon","coordinates":[[[[29.30815149,50.317385869],[29.30792242,50.317580895],[29.308708446,50.318120078],[29.308915058,50.317945131],[29.308937516,50.317925055],[29.30815149,50.317385869]]]]},"id":"36"},{"type":"Feature","properties":{"id":"37","кадастр":"1822583000:17:000:0342","№":147,"район":"Коростишівський","н.п.":"Квітневе","Фактична площа, га":0.218124,"Площа по обміну, га":0.218124},"geometry":{"type":"MultiPolygon","coordinates":[[[[29.310019986,50.316622968],[29.309772949,50.316413599],[29.309099213,50.316987212],[29.309368708,50.317170767],[29.310019986,50.316622968]]]]},"id":"37"},{"type":"Feature","properties":{"id":"38","кадастр":"1822583000:17:000:0384","№":148,"район":"Коростишівський","н.п.":"Квітневе","Фактична площа, га":0.118715,"Площа по обміну, га":0.09},"geometry":{"type":"MultiPolygon","coordinates":[[[[29.314493596,50.319806421],[29.314260034,50.319992833],[29.314659785,50.320316901],[29.314803515,50.320205055],[29.314893347,50.320133358],[29.314493596,50.319806421]]]]},"id":"38"},{"type":"Feature","properties":{"id":"39","кадастр":"1822583000:17:000:0385","№":149,"район":"Коростишівський","н.п.":"Квітневе","Фактична площа, га":0.11871,"Площа по обміну, га":0.08},"geometry":{"type":"MultiPolygon","coordinates":[[[[29.314727158,50.319622877],[29.314493596,50.319806421],[29.314893347,50.320133358],[29.31507301,50.319989965],[29.315126909,50.319946947],[29.314727158,50.319622877]]]]},"id":"39"},{"type":"Feature","properties":{"id":"40","кадастр":"1822583000:17:000:0386","№":150,"район":"Коростишівський","н.п.":"Квітневе","Фактична площа, га":0.11871,"Площа по обміну, га":0.07},"geometry":{"type":"MultiPolygon","coordinates":[[[[29.31496072,50.319436463],[29.314727158,50.319622877],[29.315126909,50.319946947],[29.315306572,50.319806421],[29.315360471,50.319763403],[29.31496072,50.319436463]]]]},"id":"40"},{"type":"Feature","properties":{"id":"41","кадастр":"1822583000:17:000:0519","№":151,"район":"Коростишівський","н.п.":"Квітневе","Фактична площа, га":2.374854,"Площа по обміну, га":1.9},"geometry":{"type":"MultiPolygon","coordinates":[[[[29.317646683,50.314156363],[29.316860657,50.31452923],[29.313406635,50.316158338],[29.313986048,50.316648781],[29.317597276,50.314945117],[29.317646683,50.314156363]]]]},"id":"41"},{"type":"Feature","properties":{"id":"42","кадастр":"1822583000:06:000:0039","№":115,"район":"Коростишівський","н.п.":"Квітневе","Фактична площа, га":2.5663,"Площа по обміну, га":2.25},"geometry":{"type":"MultiPolygon","coordinates":[[[[29.259112459,50.302501354],[29.255397925,50.301939042],[29.254504102,50.302266102],[29.254054944,50.302558733],[29.258083888,50.30316694],[29.259112459,50.302501354]]]]},"id":"42"},{"type":"Feature","properties":{"id":"43","кадастр":"1822583000:14:000:0087","№":119,"район":"Коростишівський","н.п.":"Квітневе","Фактична площа, га":1.708,"Площа по обміну, га":1.71},"geometry":{"type":"MultiPolygon","coordinates":[[[[29.286672772,50.30180707],[29.287539646,50.301568945],[29.285545386,50.299620868],[29.285540895,50.299623737],[29.284683004,50.299856133],[29.286672772,50.30180707]]]]},"id":"43"},{"type":"Feature","properties":{"id":"44","кадастр":"1822583000:14:000:0088","№":120,"район":"Коростишівський","н.п.":"Квітневе","Фактична площа, га":1.7106,"Площа по обміну, га":1.71},"geometry":{"type":"MultiPolygon","coordinates":[[[[29.287539646,50.301568945],[29.288397537,50.301325081],[29.28769236,50.300633648],[29.28703659,50.29999098],[29.286416752,50.299385601],[29.285545386,50.299620868],[29.287539646,50.301568945]]]]},"id":"44"},{"type":"Feature","properties":{"id":"45","кадастр":"1822583000:16:000:0056","№":122,"район":"Коростишівський","н.п.":"Квітневе","Фактична площа, га":2.2207,"Площа по обміну, га":2.2207},"geometry":{"type":"MultiPolygon","coordinates":[[[[29.325210498,50.299299528],[29.328457907,50.298550682],[29.32764044,50.297887901],[29.324312182,50.298653972],[29.325210498,50.299299528]]]]},"id":"45"},{"type":"Feature","properties":{"id":"46","кадастр":"1822583000:16:000:0075","№":123,"район":"Коростишівський","н.п.":"Квітневе","Фактична площа, га":1.3361,"Площа по обміну, га":1.3361},"geometry":{"type":"MultiPolygon","coordinates":[[[[29.322942252,50.294126229],[29.320139508,50.294771846],[29.32079977,50.295228077],[29.32353514,50.294596813],[29.322942252,50.294126229]]]]},"id":"46"}]}