{"type":"FeatureCollection","name":"К_В_К_10","crs":{"type":"name","properties":{"name":"urn:ogc:def:crs:OGC:1.3:CRS84"}},"features":[{"type":"Feature","properties":{"id":"1"},"geometry":{"type":"MultiPolygon","coordinates":[[[[31.393947601318306,49.64566618101454],[31.395921707153267,49.64544387465332],[31.39583587646479,49.645138201749134],[31.395750045776314,49.64486031562536],[31.39338970184321,49.645124307480614],[31.39379739761347,49.6454994513388],[31.393947601318306,49.64566618101454]]]]},"id":"1"},{"type":"Feature","properties":{"id":"2"},"geometry":{"type":"MultiPolygon","coordinates":[[[[31.408410072326607,49.650473307746786],[31.411199569702095,49.64990370191511],[31.410984992980904,49.64948691293728],[31.408195495605415,49.65004263078135],[31.408410072326607,49.650473307746786]]]]},"id":"2"},{"type":"Feature","properties":{"id":"3"},"geometry":{"type":"MultiPolygon","coordinates":[[[[31.412122249603218,49.64190073000894],[31.412465572357124,49.64187293962008],[31.413130760192818,49.641080906869774],[31.414031982421818,49.641595034859094],[31.413989067077583,49.63995536448294],[31.412079334258976,49.639969260226586],[31.412122249603218,49.64190073000894]]]]},"id":"3"},{"type":"Feature","properties":{"id":"4"},"geometry":{"type":"MultiPolygon","coordinates":[[[[31.394634246826115,49.646333094007524],[31.396114826202336,49.64616636661578],[31.395986080169628,49.64568007512842],[31.395921707153267,49.64544387465332],[31.393947601318306,49.64566618101454],[31.394634246826115,49.646333094007524]]]]},"id":"4"},{"type":"Feature","properties":{"id":"5"},"geometry":{"type":"MultiPolygon","coordinates":[[[[31.434760093688908,49.61985797045587],[31.43533945083613,49.618648526689206],[31.43503904342646,49.61859291935744],[31.434459686279247,49.619802364504245],[31.434760093688908,49.61985797045587]]]]},"id":"5"},{"type":"Feature","properties":{"id":"6"},"geometry":{"type":"MultiPolygon","coordinates":[[[[31.434180736541695,49.61976065999889],[31.434760093688908,49.61855121381698],[31.434352397918648,49.61873193756786],[31.434309482574413,49.61877364295365],[31.433858871459908,49.619705053936215],[31.434180736541695,49.61976065999889]]]]},"id":"6"},{"type":"Feature","properties":{"id":"7"},"geometry":{"type":"MultiPolygon","coordinates":[[[[31.447312831878605,49.620205506215875],[31.448428630828808,49.619385317844475],[31.44832134246821,49.619315809720824],[31.448149681091255,49.619176793176095],[31.44699096679682,49.62002478793001],[31.447312831878605,49.620205506215875]]]]},"id":"7"},{"type":"Feature","properties":{"id":"8"},"geometry":{"type":"MultiPolygon","coordinates":[[[[31.43503904342646,49.61989967487794],[31.43561840057368,49.6187041339575],[31.43533945083613,49.618648526689206],[31.434760093688908,49.61985797045587],[31.43503904342646,49.61989967487794]]]]},"id":"8"},{"type":"Feature","properties":{"id":"9"},"geometry":{"type":"MultiPolygon","coordinates":[[[[31.38263642787635,49.62083260891563],[31.38263910815663,49.620818717721285],[31.382639840934154,49.620818791071095],[31.382821798324535,49.62004216471739],[31.38129293918604,49.619885773407894],[31.38130903244013,49.62016032670724],[31.381164193153328,49.62040707582095],[31.380933523178047,49.62060169395878],[31.380670666694588,49.62073375582392],[31.38164162635199,49.62083106423986],[31.38261271591054,49.62092785094118],[31.38263642787635,49.62083260891563]]]]},"id":"9"},{"type":"Feature","properties":{"id":"10"},"geometry":{"type":"MultiPolygon","coordinates":[[[[31.444947123527456,49.620368847166816],[31.446068286895677,49.619548661544776],[31.445816159248277,49.61940269485989],[31.444700360298082,49.62022288293881],[31.444904208183218,49.62034104449043],[31.444947123527456,49.620368847166816]]]]},"id":"10"},{"type":"Feature","properties":{"id":"11"},"geometry":{"type":"MultiPolygon","coordinates":[[[[31.44536018371575,49.63203414528305],[31.44692659378045,49.631460849162785],[31.44678175449364,49.63130101995067],[31.445193886756822,49.6318187257141],[31.445204615592882,49.63182914926356],[31.44536018371575,49.63203414528305]]]]},"id":"11"}]}