{"type":"FeatureCollection","name":"птахофабрика_9","crs":{"type":"name","properties":{"name":"urn:ogc:def:crs:OGC:1.3:CRS84"}},"features":[{"type":"Feature","properties":{"id":"1"},"geometry":{"type":"MultiPolygon","coordinates":[[[[31.644687495,49.439276208],[31.644218357,49.439493699],[31.64554783,49.44071312],[31.645593559,49.440691924],[31.646016974,49.440495623],[31.644687495,49.439276208]]]]},"id":"1"},{"type":"Feature","properties":{"id":"2"},"geometry":{"type":"MultiPolygon","coordinates":[[[[31.546054946,49.449390988],[31.545543693,49.449455909],[31.545617749,49.449633377],[31.546547221,49.449515807],[31.547489397,49.449347523],[31.54930741,49.449025921],[31.54901285,49.448635895],[31.546054946,49.449390988]]]]},"id":"2"},{"type":"Feature","properties":{"id":"3"},"geometry":{"type":"MultiPolygon","coordinates":[[[[31.554317027,49.447783537],[31.555921085,49.447360005],[31.55541243,49.446686612],[31.553686926,49.447288643],[31.554111098,49.447850232],[31.554317027,49.447783537]]]]},"id":"3"},{"type":"Feature","properties":{"id":"4"},"geometry":{"type":"MultiPolygon","coordinates":[[[[31.615400219,49.442899023],[31.616025066,49.442597163],[31.615544135,49.441569038],[31.615047625,49.441667789],[31.614843288,49.441708425],[31.615400219,49.442899023]]]]},"id":"4"},{"type":"Feature","properties":{"id":"5"},"geometry":{"type":"MultiPolygon","coordinates":[[[[31.620192697,49.429231132],[31.620658325,49.429232167],[31.620867783,49.427653782],[31.620200663,49.42760728],[31.619989911,49.429195233],[31.620192697,49.429231132]]]]},"id":"5"},{"type":"Feature","properties":{"id":"6"},"geometry":{"type":"MultiPolygon","coordinates":[[[[31.605183,49.437631],[31.605043,49.437332],[31.601973,49.437942],[31.602138,49.438236],[31.605183,49.437631]]]]},"id":"6"},{"type":"Feature","properties":{"id":"7"},"geometry":{"type":"MultiPolygon","coordinates":[[[[31.589832237,49.523412355],[31.590817476,49.523474913],[31.591060083187603,49.52130000526008],[31.591060113,49.521299738],[31.590132185,49.521240814],[31.590074917,49.521237181],[31.589832237,49.523412355]]]]},"id":"7"},{"type":"Feature","properties":{"id":"8"},"geometry":{"type":"MultiPolygon","coordinates":[[[[31.591906773,49.523544061],[31.592870288,49.523605225],[31.593112835,49.521430036],[31.5927579,49.52140751],[31.59214937339443,49.521368906361424],[31.592149376,49.521368883],[31.591906773,49.523544061]]]]},"id":"8"},{"type":"Feature","properties":{"id":"9"},"geometry":{"type":"MultiPolygon","coordinates":[[[[31.65179827,49.439736834],[31.65233224,49.439489232],[31.650940427,49.438212838],[31.6504842,49.438424386],[31.650406464,49.438460434],[31.65179827,49.439736834]]]]},"id":"9"},{"type":"Feature","properties":{"id":"10"},"geometry":{"type":"MultiPolygon","coordinates":[[[[31.615901027,49.458378795],[31.616810997,49.457977814],[31.616670071,49.45796651],[31.616470449,49.457632001],[31.616612405,49.457373926],[31.614669142,49.457760313],[31.614907699,49.458270144],[31.615901027,49.458378795]]]]},"id":"10"},{"type":"Feature","properties":{"id":"11"},"geometry":{"type":"MultiPolygon","coordinates":[[[[31.553674437,49.447293],[31.552032677,49.447864892],[31.55169865,49.447950171],[31.552066004,49.448436553],[31.552571821,49.448348741],[31.554111098,49.447850232],[31.553686926,49.447288643],[31.553674437,49.447293]]]]},"id":"11"},{"type":"Feature","properties":{"id":"12"},"geometry":{"type":"MultiPolygon","coordinates":[[[[31.550232452,49.515739828],[31.54958534,49.515744925],[31.549253675,49.518165315],[31.549899969,49.518166406],[31.550232452,49.515739828]]]]},"id":"12"},{"type":"Feature","properties":{"id":"13"},"geometry":{"type":"MultiPolygon","coordinates":[[[[31.584173789,49.523875012],[31.586058931,49.523859432],[31.586149536,49.522857091],[31.584219766,49.522873037],[31.584173789,49.523875012]]]]},"id":"13"},{"type":"Feature","properties":{"id":"14"},"geometry":{"type":"MultiPolygon","coordinates":[[[[31.621666438,49.49886525],[31.621603653,49.499233597],[31.625885032,49.499183577],[31.625947771,49.498815228],[31.621666438,49.49886525]]]]},"id":"14"},{"type":"Feature","properties":{"id":"15"},"geometry":{"type":"MultiPolygon","coordinates":[[[[31.583337968,49.514933644],[31.583292266,49.515353458],[31.587006806,49.515554959],[31.587050985,49.515135064],[31.583337968,49.514933644]]]]},"id":"15"},{"type":"Feature","properties":{"id":"16"},"geometry":{"type":"MultiPolygon","coordinates":[[[[31.631791076,49.528437757],[31.631220832,49.528444535],[31.630917727,49.530470473],[31.63148767,49.530465935],[31.631791076,49.528437757]]]]},"id":"16"},{"type":"Feature","properties":{"id":"17"},"geometry":{"type":"MultiPolygon","coordinates":[[[[31.585589181,49.504030774],[31.58624126,49.504066966],[31.586422319,49.502535277],[31.586414601,49.502534887],[31.585412069,49.502484326],[31.5852314,49.504012479],[31.585589181,49.504030774]]]]},"id":"17"},{"type":"Feature","properties":{"id":"18"},"geometry":{"type":"MultiPolygon","coordinates":[[[[31.643014016,49.43638692],[31.642455703,49.436645757],[31.643699618,49.43778682],[31.643993326,49.437650651],[31.644257924,49.437527977],[31.643014016,49.43638692]]]]},"id":"18"},{"type":"Feature","properties":{"id":"19"},"geometry":{"type":"MultiPolygon","coordinates":[[[[31.606174067,49.516493993],[31.606087233,49.517128626],[31.608484598,49.517194913],[31.60855198,49.516702231],[31.608571401,49.516560287],[31.606174067,49.516493993]]]]},"id":"19"},{"type":"Feature","properties":{"id":"20"},"geometry":{"type":"MultiPolygon","coordinates":[[[[31.56899735,49.501490626],[31.571067171,49.501590358],[31.571134572,49.501085307],[31.569064772,49.500985486],[31.569014728,49.501360297],[31.56899735,49.501490626]]]]},"id":"20"},{"type":"Feature","properties":{"id":"21"},"geometry":{"type":"MultiPolygon","coordinates":[[[[31.6182239,49.499779703],[31.618230094,49.499743417],[31.615213508,49.499574469],[31.615093732,49.500422964],[31.618085752,49.500590537],[31.61814056,49.500268892],[31.6182239,49.499779703]]]]},"id":"21"},{"type":"Feature","properties":{"id":"22"},"geometry":{"type":"MultiPolygon","coordinates":[[[[31.600918857,49.445459338],[31.598461661,49.445978459],[31.598502935,49.446061503],[31.59863699,49.446331281],[31.601094201,49.445812156],[31.600918857,49.445459338]]]]},"id":"22"},{"type":"Feature","properties":{"id":"23"},"geometry":{"type":"MultiPolygon","coordinates":[[[[31.648167554,49.441420257],[31.648504286,49.441264142],[31.647112521,49.439987703],[31.646966003,49.440055629],[31.646775997209172,49.44014400128889],[31.646775793,49.440143814],[31.647246827593303,49.440575819789345],[31.648167554,49.441420257]]]]},"id":"23"},{"type":"Feature","properties":{"id":"24"},"geometry":{"type":"MultiPolygon","coordinates":[[[[31.624054,49.465214],[31.624078,49.465079],[31.624089,49.464663],[31.62349,49.464781],[31.623814,49.465474],[31.624054,49.465214]]]]},"id":"24"},{"type":"Feature","properties":{"id":"25"},"geometry":{"type":"MultiPolygon","coordinates":[[[[31.561169151,49.505621465],[31.561163325,49.505666478],[31.561128425,49.505936386],[31.565506523,49.505880412],[31.565600065,49.505165352],[31.561220885,49.505221338],[31.561169151,49.505621465]]]]},"id":"25"},{"type":"Feature","properties":{"id":"26"},"geometry":{"type":"MultiPolygon","coordinates":[[[[31.628914382,49.518301713],[31.629018999,49.51756663],[31.626903782,49.51759101],[31.626874741,49.517832177],[31.626815291,49.518325912],[31.628914382,49.518301713]]]]},"id":"26"},{"type":"Feature","properties":{"id":"27"},"geometry":{"type":"MultiPolygon","coordinates":[[[[31.617987,49.438153],[31.616588,49.437308],[31.616316,49.437307],[31.616735,49.438402],[31.616889,49.438372],[31.617448,49.438261],[31.617987,49.438153]]]]},"id":"27"},{"type":"Feature","properties":{"id":"28"},"geometry":{"type":"MultiPolygon","coordinates":[[[[31.583610968,49.511789766],[31.583687881,49.511083128],[31.581490516,49.510975547],[31.581437429,49.511463168],[31.581413572,49.511682183],[31.583610968,49.511789766]]]]},"id":"28"},{"type":"Feature","properties":{"id":"29"},"geometry":{"type":"MultiPolygon","coordinates":[[[[31.640092699,49.514567253],[31.640134101,49.514277533],[31.637274891,49.51430987],[31.637225378,49.514658454],[31.64008396,49.51462612],[31.640092699,49.514567253]]]]},"id":"29"},{"type":"Feature","properties":{"id":"30"},"geometry":{"type":"MultiPolygon","coordinates":[[[[31.570619562,49.508511966],[31.570732443,49.507524744],[31.569754503,49.507476801],[31.569640361,49.508474884],[31.570619562,49.508511966]]]]},"id":"30"},{"type":"Feature","properties":{"id":"31"},"geometry":{"type":"MultiPolygon","coordinates":[[[[31.600308635,49.518283803],[31.601698323,49.51831007],[31.602935852,49.518336402],[31.603002978,49.517846035],[31.600366631,49.517793248],[31.600308635,49.518283803]]]]},"id":"31"},{"type":"Feature","properties":{"id":"32"},"geometry":{"type":"MultiPolygon","coordinates":[[[[31.581562036,49.500746305],[31.580559283,49.500695693],[31.58036963,49.502229888],[31.581370771,49.502280422],[31.581380491,49.50228091],[31.581562036,49.500746305]]]]},"id":"32"},{"type":"Feature","properties":{"id":"33"},"geometry":{"type":"MultiPolygon","coordinates":[[[[31.652379324,49.451590561],[31.652382716,49.451880121],[31.655519756,49.451869003],[31.655519175,49.451392393],[31.65245679,49.451403242],[31.652379324,49.451590561]]]]},"id":"33"},{"type":"Feature","properties":{"id":"34"},"geometry":{"type":"MultiPolygon","coordinates":[[[[31.602297,49.434017],[31.601111,49.433298],[31.600712,49.433589],[31.600413,49.433823],[31.601417,49.434432],[31.602297,49.434017]]]]},"id":"34"},{"type":"Feature","properties":{"id":"35"},"geometry":{"type":"MultiPolygon","coordinates":[[[[31.655460211,49.44830637],[31.655450432,49.448083147],[31.653008382,49.44809181],[31.652965701,49.448687055],[31.655470597,49.448678173],[31.655460211,49.44830637]]]]},"id":"35"},{"type":"Feature","properties":{"id":"36"},"geometry":{"type":"MultiPolygon","coordinates":[[[[31.560969619,49.51825603],[31.560237216,49.518265835],[31.561592251,49.519964306],[31.56195203,49.519959746],[31.562500337,49.519952798],[31.561688052,49.518934675],[31.561145076,49.518254095],[31.560969619,49.51825603]]]]},"id":"36"},{"type":"Feature","properties":{"id":"37"},"geometry":{"type":"MultiPolygon","coordinates":[[[[31.599489292,49.442582617],[31.597032239,49.443101708],[31.597265818,49.443571812],[31.599722892,49.443052716],[31.599489292,49.442582617]]]]},"id":"37"},{"type":"Feature","properties":{"id":"38"},"geometry":{"type":"MultiPolygon","coordinates":[[[[31.612687053,49.494701425],[31.613709226,49.494783865],[31.613902078,49.49325176],[31.612877551,49.493188249],[31.612687053,49.494701425]]]]},"id":"38"},{"type":"Feature","properties":{"id":"39"},"geometry":{"type":"MultiPolygon","coordinates":[[[[31.556220455,49.512992813],[31.555718787,49.512997918],[31.555363362,49.515654294],[31.555953467,49.515649606],[31.556309024,49.512992051],[31.556220455,49.512992813]]]]},"id":"39"},{"type":"Feature","properties":{"id":"40"},"geometry":{"type":"MultiPolygon","coordinates":[[[[31.630947604,49.504165829],[31.631206212,49.502360658],[31.625335634,49.502410815],[31.625028213,49.504216385],[31.630947604,49.504165829]]]]},"id":"40"},{"type":"Feature","properties":{"id":"41"},"geometry":{"type":"MultiPolygon","coordinates":[[[[31.638262806,49.457574868],[31.63883097,49.457543241],[31.638563741,49.455504103],[31.6381368,49.455527873],[31.637995599,49.455535728],[31.638262806,49.457574868]]]]},"id":"41"},{"type":"Feature","properties":{"id":"42"},"geometry":{"type":"MultiPolygon","coordinates":[[[[31.567498866,49.511779588],[31.566945966,49.511752592],[31.566670257,49.513979655],[31.567400779,49.514015306],[31.567646844062025,49.51202737420774],[31.567454338073674,49.5120023758206],[31.567493871401823,49.51182269564762],[31.567498866,49.511779588]]]]},"id":"42"},{"type":"Feature","properties":{"id":"43"},"geometry":{"type":"MultiPolygon","coordinates":[[[[31.605743,49.438831],[31.605603,49.43853],[31.602634,49.43912],[31.6028,49.439416],[31.605743,49.438831]]]]},"id":"43"},{"type":"Feature","properties":{"id":"44"},"geometry":{"type":"MultiPolygon","coordinates":[[[[31.575182,49.437332],[31.574576,49.437687],[31.575549,49.438735],[31.576137,49.43836],[31.575182,49.437332]]]]},"id":"44"},{"type":"Feature","properties":{"id":"45"},"geometry":{"type":"MultiPolygon","coordinates":[[[[31.550877934,49.515734728],[31.550232452,49.515739828],[31.549899969,49.518166406],[31.550544634,49.518167485],[31.550877934,49.515734728]]]]},"id":"45"},{"type":"Feature","properties":{"id":"46"},"geometry":{"type":"MultiPolygon","coordinates":[[[[31.552177135,49.522019371],[31.552957659,49.522009541],[31.553099196,49.520071607],[31.552568992,49.520078285],[31.552318702,49.520081437],[31.552177135,49.522019371]]]]},"id":"46"},{"type":"Feature","properties":{"id":"47"},"geometry":{"type":"MultiPolygon","coordinates":[[[[31.604627,49.436442],[31.604488,49.436145],[31.601376,49.436764],[31.601514,49.437061],[31.604627,49.436442]]]]},"id":"47"},{"type":"Feature","properties":{"id":"48"},"geometry":{"type":"MultiPolygon","coordinates":[[[[31.598205438,49.442333852],[31.599255448,49.442112015],[31.598845214,49.441286405],[31.59779522,49.441508239],[31.598205438,49.442333852]]]]},"id":"48"},{"type":"Feature","properties":{"id":"49"},"geometry":{"type":"MultiPolygon","coordinates":[[[[31.650109311,49.447933184],[31.652944251,49.448023696],[31.652971084,49.447649649],[31.652976379,49.447538546],[31.650518129859424,49.44746006086593],[31.65049552917474,49.447481536414784],[31.650288620530628,49.44768943084267],[31.650109311,49.447933184]]]]},"id":"49"},{"type":"Feature","properties":{"id":"50"},"geometry":{"type":"MultiPolygon","coordinates":[[[[31.564975488,49.440971279],[31.564493746,49.441121855],[31.565489834,49.442825393],[31.566101553,49.442511115],[31.565166243,49.44091155],[31.564975488,49.440971279]]]]},"id":"50"},{"type":"Feature","properties":{"id":"51"},"geometry":{"type":"MultiPolygon","coordinates":[[[[31.602216187,49.451270169],[31.604150854,49.451961811],[31.603625542,49.450905067],[31.602149009,49.451217017],[31.602216187,49.451270169]]]]},"id":"51"},{"type":"Feature","properties":{"id":"52"},"geometry":{"type":"MultiPolygon","coordinates":[[[[31.602918785,49.449337416],[31.604850039,49.448929361],[31.604683313,49.448593947],[31.604614119,49.448454743],[31.602682881,49.448862795],[31.602918785,49.449337416]]]]},"id":"52"},{"type":"Feature","properties":{"id":"53"},"geometry":{"type":"MultiPolygon","coordinates":[[[[31.607747163,49.511285983],[31.6078045528712,49.5101544947332],[31.607794761657654,49.510135422047355],[31.6078376770019,49.50971743755993],[31.60789205898671,49.50950556927595],[31.607923728,49.509359489],[31.605847943,49.509325536],[31.605594258,49.511205936],[31.607073809,49.511258401],[31.607747163,49.511285983]]]]},"id":"53"},{"type":"Feature","properties":{"id":"54"},"geometry":{"type":"MultiPolygon","coordinates":[[[[31.605569514,49.50932098],[31.605882403,49.506430597],[31.604146214,49.506376495],[31.604055968,49.507209998],[31.603978733,49.507923259],[31.603904408,49.508609642],[31.60383046,49.50929251],[31.603983801,49.509295016],[31.604830854,49.509308891],[31.605569514,49.50932098]]]]},"id":"54"},{"type":"Feature","properties":{"id":"55"},"geometry":{"type":"MultiPolygon","coordinates":[[[[31.584810677,49.521717114],[31.586291017,49.521704883],[31.586366176,49.520987717],[31.584848237,49.521000264],[31.58485688819697,49.52114302470033],[31.584877967834416,49.521252498412636],[31.584834892437375,49.521490183450155],[31.584810677,49.521717114]]]]},"id":"55"},{"type":"Feature","properties":{"id":"56"},"geometry":{"type":"MultiPolygon","coordinates":[[[[31.554083014,49.515709392],[31.553444258,49.515714453],[31.553108235,49.518168033],[31.553746571,49.518166266],[31.554083014,49.515709392]]]]},"id":"56"},{"type":"Feature","properties":{"id":"57"},"geometry":{"type":"MultiPolygon","coordinates":[[[[31.560759147,49.515611373],[31.561417166,49.515606117],[31.561773014,49.512944157],[31.561114922,49.512950233],[31.560759147,49.515611373]]]]},"id":"57"},{"type":"Feature","properties":{"id":"58"},"geometry":{"type":"MultiPolygon","coordinates":[[[[31.579444323,49.508517529],[31.579511182,49.50790369],[31.577966345,49.507834741],[31.577899466,49.50844858],[31.579444323,49.508517529]]]]},"id":"58"},{"type":"Feature","properties":{"id":"59"},"geometry":{"type":"MultiPolygon","coordinates":[[[[31.544269231,49.52173565],[31.544730315,49.521988764],[31.54575125,49.521364244],[31.545136362,49.520593149],[31.543749473,49.521441511],[31.544269231,49.52173565]]]]},"id":"59"},{"type":"Feature","properties":{"id":"60"},"geometry":{"type":"MultiPolygon","coordinates":[[[[31.575771224,49.507736734],[31.575480975,49.51039965],[31.576036651,49.510424463],[31.576103228,49.50981353],[31.576326869,49.507761545],[31.575771224,49.507736734]]]]},"id":"60"},{"type":"Feature","properties":{"id":"61"},"geometry":{"type":"MultiPolygon","coordinates":[[[[31.572840851,49.526654646],[31.574435562,49.526643916],[31.574581358,49.525315879],[31.574422339,49.525316943],[31.572986691,49.525326612],[31.572840851,49.526654646]]]]},"id":"61"},{"type":"Feature","properties":{"id":"62"},"geometry":{"type":"MultiPolygon","coordinates":[[[[31.58379589,49.510726647],[31.583750032,49.51114773],[31.587450887,49.511348462],[31.58749949,49.510927556],[31.58379589,49.510726647]]]]},"id":"62"},{"type":"Feature","properties":{"id":"63"},"geometry":{"type":"MultiPolygon","coordinates":[[[[31.613472526,49.502213724],[31.612265237,49.502116373],[31.611988568,49.503934871],[31.612022342,49.50393643],[31.611905182,49.504707171],[31.613081627,49.504782896],[31.613472526,49.502213724]]]]},"id":"63"},{"type":"Feature","properties":{"id":"64"},"geometry":{"type":"MultiPolygon","coordinates":[[[[31.619913549,49.529853154],[31.619870231,49.53020443],[31.622606042,49.530155292],[31.622614613,49.530085817],[31.622648997445328,49.529804021188724],[31.622649342,49.529804015],[31.619913549,49.529853154]]]]},"id":"64"},{"type":"Feature","properties":{"id":"65"},"geometry":{"type":"MultiPolygon","coordinates":[[[[31.557195028,49.509281858],[31.557120142,49.509860478],[31.560624875,49.509830003],[31.560662106,49.509542149],[31.560699706,49.50925138],[31.557195028,49.509281858]]]]},"id":"65"},{"type":"Feature","properties":{"id":"66"},"geometry":{"type":"MultiPolygon","coordinates":[[[[31.560798127,49.50849043],[31.565191587,49.50843429],[31.565235129,49.508054198],[31.560847282,49.508110274],[31.560798127,49.50849043]]]]},"id":"66"},{"type":"Feature","properties":{"id":"67"},"geometry":{"type":"MultiPolygon","coordinates":[[[[31.549287544,49.520119562],[31.549670334,49.520114751],[31.549959584,49.52011112],[31.548538257,49.518328904],[31.547863158,49.518333464],[31.549287544,49.520119562]]]]},"id":"67"},{"type":"Feature","properties":{"id":"68"},"geometry":{"type":"MultiPolygon","coordinates":[[[[31.575377976,49.505427148],[31.575315117,49.505934896],[31.577210955,49.506019283],[31.577224316,49.505911334],[31.577269526,49.505546],[31.577273794,49.505511534],[31.575377976,49.505427148]]]]},"id":"68"},{"type":"Feature","properties":{"id":"69"},"geometry":{"type":"MultiPolygon","coordinates":[[[[31.577360054,49.504814613],[31.579941575,49.504929462],[31.579981735,49.504562431],[31.577405453,49.504447813],[31.577381445,49.50464177],[31.577360054,49.504814613]]]]},"id":"69"},{"type":"Feature","properties":{"id":"70"},"geometry":{"type":"MultiPolygon","coordinates":[[[[31.525198085,49.450567069],[31.525762735,49.45044871],[31.525251292,49.448831863],[31.524377764,49.448986771],[31.524899511,49.450636303],[31.525198085,49.450567069]]]]},"id":"70"},{"type":"Feature","properties":{"id":"71"},"geometry":{"type":"MultiPolygon","coordinates":[[[[31.580627,49.435908],[31.580963,49.435931],[31.581466,49.435979],[31.581301,49.434942],[31.580276,49.435011],[31.580419,49.435908],[31.580627,49.435908]]]]},"id":"71"},{"type":"Feature","properties":{"id":"72"},"geometry":{"type":"MultiPolygon","coordinates":[[[[31.583743,49.434777],[31.583972,49.436216],[31.584675,49.436276],[31.584428,49.43473],[31.583743,49.434777]]]]},"id":"72"},{"type":"Feature","properties":{"id":"73"},"geometry":{"type":"MultiPolygon","coordinates":[[[[31.63883097,49.457543241],[31.639403727,49.457511345],[31.63913646,49.455472208],[31.638563741,49.455504103],[31.63883097,49.457543241]]]]},"id":"73"},{"type":"Feature","properties":{"id":"74"},"geometry":{"type":"MultiPolygon","coordinates":[[[[31.652418084,49.454894164],[31.652422413,49.45526343],[31.655515547,49.455252478],[31.655516684,49.454883195],[31.652418084,49.454894164]]]]},"id":"74"},{"type":"Feature","properties":{"id":"75"},"geometry":{"type":"MultiPolygon","coordinates":[[[[31.560915379,49.50758375],[31.560854148,49.508057322],[31.560847282,49.508110274],[31.565235129,49.508054198],[31.565295433,49.507527765],[31.560915379,49.50758375]]]]},"id":"75"},{"type":"Feature","properties":{"id":"76"},"geometry":{"type":"MultiPolygon","coordinates":[[[[31.618390616,49.498801333],[31.618405358,49.498714732],[31.615359813,49.498544164],[31.615286637,49.499058076],[31.618317924,49.499227852],[31.618390616,49.498801333]]]]},"id":"76"},{"type":"Feature","properties":{"id":"77"},"geometry":{"type":"MultiPolygon","coordinates":[[[[31.621854842,49.497760121],[31.621792101,49.498128503],[31.626073177,49.498078477],[31.626135871,49.497710092],[31.624174928,49.497733033],[31.623073815,49.497745895],[31.621854842,49.497760121]]]]},"id":"77"},{"type":"Feature","properties":{"id":"78"},"geometry":{"type":"MultiPolygon","coordinates":[[[[31.618557298,49.497822963],[31.618578996,49.497695652],[31.615505155,49.497523497],[31.615432648,49.498032653],[31.618492382,49.498204014],[31.618557298,49.497822963]]]]},"id":"78"},{"type":"Feature","properties":{"id":"79"},"geometry":{"type":"MultiPolygon","coordinates":[[[[31.548604855,49.520743343],[31.548655843,49.52071303],[31.549578539,49.521370382],[31.549670334,49.520114751],[31.549287544,49.520119562],[31.548690109,49.520127069],[31.54808483,49.520134667],[31.548208049,49.520289192],[31.548482049,49.520632758],[31.548581376,49.520757307],[31.548604855,49.520743343]]]]},"id":"79"},{"type":"Feature","properties":{"id":"80"},"geometry":{"type":"MultiPolygon","coordinates":[[[[31.607430426,49.496011616],[31.611389267,49.496228939],[31.611455902,49.495699885],[31.607497089,49.495482555],[31.607459653,49.49577966],[31.607430426,49.496011616]]]]},"id":"80"},{"type":"Feature","properties":{"id":"81"},"geometry":{"type":"MultiPolygon","coordinates":[[[[31.653969313,49.503806137],[31.654131063,49.502655793],[31.654190174,49.502090382],[31.654141912751104,49.50208254839415],[31.65405750274652,49.50213736594366],[31.654014587402283,49.50210949586654],[31.65402619727446,49.50210195617846],[31.654010201,49.502090154],[31.654049656,49.502067552],[31.652769466,49.501859751],[31.652654366,49.501841066],[31.652504324,49.503669655],[31.653970112,49.503893873],[31.6541046,49.503907325],[31.654113216,49.503819415],[31.653969313,49.503806137]]]]},"id":"81"},{"type":"Feature","properties":{"id":"82"},"geometry":{"type":"MultiPolygon","coordinates":[[[[31.610843879,49.456627526],[31.610852784,49.456649636],[31.613802947,49.456063135],[31.613611913,49.45565483],[31.610678399,49.456238028],[31.610843879,49.456627526]]]]},"id":"82"},{"type":"Feature","properties":{"id":"83"},"geometry":{"type":"MultiPolygon","coordinates":[[[[31.645436126,49.499220128],[31.648118095,49.499270455],[31.648147005,49.498918501],[31.645465055,49.498868176],[31.645459632,49.49893416],[31.645436126,49.499220128]]]]},"id":"83"},{"type":"Feature","properties":{"id":"84"},"geometry":{"type":"MultiPolygon","coordinates":[[[[31.6541046,49.503907325],[31.654100171,49.503952367],[31.654933532,49.504035729],[31.655145431,49.501769766],[31.654448738,49.501702553],[31.654325425,49.50154404],[31.654284743,49.501980267],[31.654294166,49.501987223],[31.654289680588334,49.50198979559601],[31.654314994811948,49.50199801539928],[31.654281018599445,49.502020080270654],[31.654113216,49.503819415],[31.6541046,49.503907325]]]]},"id":"84"},{"type":"Feature","properties":{"id":"85"},"geometry":{"type":"MultiPolygon","coordinates":[[[[31.636338129,49.520416967],[31.636394197,49.520022314],[31.632424269,49.520068276],[31.632384854,49.520345573],[31.632368169,49.520462927],[31.636338129,49.520416967]]]]},"id":"85"},{"type":"Feature","properties":{"id":"86"},"geometry":{"type":"MultiPolygon","coordinates":[[[[31.655348888,49.50407727],[31.655681515,49.504017931],[31.655885033,49.501841117],[31.655145431,49.501769766],[31.654933532,49.504035729],[31.655348888,49.50407727]]]]},"id":"86"},{"type":"Feature","properties":{"id":"87"},"geometry":{"type":"MultiPolygon","coordinates":[[[[31.626697901,49.523660539],[31.627522082,49.523650762],[31.627826943,49.521471044],[31.627002826,49.521480545],[31.626697901,49.523660539]]]]},"id":"87"},{"type":"Feature","properties":{"id":"88"},"geometry":{"type":"MultiPolygon","coordinates":[[[[31.555953481,49.515649615],[31.556543406,49.515644924],[31.556899,49.512986926],[31.556309024,49.512992051],[31.555953481,49.515649615]]]]},"id":"88"},{"type":"Feature","properties":{"id":"89"},"geometry":{"type":"MultiPolygon","coordinates":[[[[31.595168,49.435635],[31.594875,49.437456],[31.595792,49.437052],[31.596046,49.435474],[31.595168,49.435635]]]]},"id":"89"},{"type":"Feature","properties":{"id":"90"},"geometry":{"type":"MultiPolygon","coordinates":[[[[31.596408,49.435237],[31.596953,49.435151],[31.596753,49.433894],[31.596022,49.433944],[31.596234,49.435266],[31.596408,49.435237]]]]},"id":"90"},{"type":"Feature","properties":{"id":"91"},"geometry":{"type":"MultiPolygon","coordinates":[[[[31.599991,49.433826],[31.600625,49.433327],[31.600628,49.433324],[31.599143,49.432602],[31.598791,49.4329],[31.599983,49.433832],[31.599991,49.433826]]]]},"id":"91"},{"type":"Feature","properties":{"id":"92"},"geometry":{"type":"MultiPolygon","coordinates":[[[[31.591193478,49.503475074],[31.588602752,49.503303551],[31.588533437,49.503905646],[31.591124817,49.504077207],[31.591174961,49.503637425],[31.591193478,49.503475074]]]]},"id":"92"},{"type":"Feature","properties":{"id":"93"},"geometry":{"type":"MultiPolygon","coordinates":[[[[31.593832022,49.50289488],[31.593758546,49.50353952],[31.596173573,49.503680458],[31.596217605,49.503294006],[31.596247031,49.503035808],[31.593832022,49.50289488]]]]},"id":"93"},{"type":"Feature","properties":{"id":"94"},"geometry":{"type":"MultiPolygon","coordinates":[[[[31.611057373,49.49941429],[31.614946739,49.499727936],[31.614972238,49.49955117],[31.614849533,49.499442327],[31.614873295,49.499296133],[31.615010466,49.499245215],[31.615018765,49.499186916],[31.611125548,49.498872945],[31.611057373,49.49941429]]]]},"id":"94"},{"type":"Feature","properties":{"id":"95"},"geometry":{"type":"MultiPolygon","coordinates":[[[[31.603904408,49.508609642],[31.603978733,49.507923259],[31.601641284,49.507884951],[31.601555466,49.508571145],[31.603904408,49.508609642]]]]},"id":"95"},{"type":"Feature","properties":{"id":"96"},"geometry":{"type":"MultiPolygon","coordinates":[[[[31.617644433,49.503180303],[31.61468135,49.503014345],[31.614603275,49.503570537],[31.617549795,49.503735571],[31.617644433,49.503180303]]]]},"id":"96"},{"type":"Feature","properties":{"id":"97"},"geometry":{"type":"MultiPolygon","coordinates":[[[[31.590230041,49.511921798],[31.587656134,49.511751401],[31.587592478,49.512356799],[31.590161016,49.512526843],[31.590204124,49.512148963],[31.590230041,49.511921798]]]]},"id":"97"},{"type":"Feature","properties":{"id":"98"},"geometry":{"type":"MultiPolygon","coordinates":[[[[31.615352889,49.528481653],[31.617785033,49.528459365],[31.617788813,49.528428746],[31.617839002812016,49.5280217849829],[31.617836952209412,49.528021810579006],[31.617837078683635,49.52802049711073],[31.615407042,49.528042767],[31.615352889,49.528481653]]]]},"id":"98"},{"type":"Feature","properties":{"id":"99"},"geometry":{"type":"MultiPolygon","coordinates":[[[[31.611570547,49.513163561],[31.611664595,49.51240188],[31.609146702,49.512353728],[31.609092159,49.512752512],[31.609042561,49.513115228],[31.611570547,49.513163561]]]]},"id":"99"},{"type":"Feature","properties":{"id":"100"},"geometry":{"type":"MultiPolygon","coordinates":[[[[31.58808,49.438613],[31.588547,49.438525],[31.587135,49.438393],[31.585064,49.43883],[31.58456,49.439451],[31.58808,49.438613]]]]},"id":"100"},{"type":"Feature","properties":{"id":"101"},"geometry":{"type":"MultiPolygon","coordinates":[[[[31.600744,49.43602],[31.600434,49.435737],[31.599866,49.43531],[31.599375,49.435532],[31.600048,49.436528],[31.600905,49.436347],[31.600744,49.43602]]]]},"id":"101"},{"type":"Feature","properties":{"id":"102"},"geometry":{"type":"MultiPolygon","coordinates":[[[[31.590781539,49.507087041],[31.588204984,49.506916468],[31.588138315,49.507520602],[31.58821823964619,49.50752589335381],[31.59071265,49.507691034],[31.590746551,49.507393866],[31.590781539,49.507087041]]]]},"id":"102"},{"type":"Feature","properties":{"id":"103"},"geometry":{"type":"MultiPolygon","coordinates":[[[[31.653453168,49.436905419],[31.653178054,49.436724023],[31.65249261,49.436375066],[31.651775724,49.435989605],[31.651438584,49.436145947],[31.652768144,49.437365295],[31.653556702,49.436999609],[31.653544963,49.436988844],[31.653453168,49.436905419]]]]},"id":"103"},{"type":"Feature","properties":{"id":"104"},"geometry":{"type":"MultiPolygon","coordinates":[[[[31.60798796,49.509063196],[31.608059552,49.508672713],[31.608111887,49.508285494],[31.608053066,49.507989316],[31.608042173,49.507851841],[31.608119792,49.507258565],[31.608186104,49.506497056],[31.60732337,49.506469994],[31.606037452,49.506435427],[31.605882403,49.506430597],[31.605569527,49.50932098],[31.605847943,49.509325536],[31.607923728,49.50935948],[31.60798796,49.509063196]]]]},"id":"104"},{"type":"Feature","properties":{"id":"105"},"geometry":{"type":"MultiPolygon","coordinates":[[[[31.570093741,49.51414671],[31.570602036,49.514171506],[31.570835608,49.512283527],[31.570327401,49.512258211],[31.570093741,49.51414671]]]]},"id":"105"},{"type":"Feature","properties":{"id":"106"},"geometry":{"type":"MultiPolygon","coordinates":[[[[31.58226256,49.519127184],[31.582085522,49.519243008],[31.582005934,49.520172609],[31.582739239,49.520167027],[31.582887833,49.518431082],[31.58226256,49.519127184]]]]},"id":"106"},{"type":"Feature","properties":{"id":"107"},"geometry":{"type":"MultiPolygon","coordinates":[[[[31.575828885,49.519123229],[31.575816109,49.518951668],[31.575380058,49.518682117],[31.57524786,49.520223805],[31.576109826,49.5202173],[31.576197815,49.519191069],[31.575828885,49.519123229]]]]},"id":"107"},{"type":"Feature","properties":{"id":"108"},"geometry":{"type":"MultiPolygon","coordinates":[[[[31.617031706,49.507630018],[31.618390238,49.507614217],[31.619243967,49.507589785],[31.619490263,49.507607397],[31.619664579,49.507680837],[31.619697464,49.50776408],[31.619683304,49.508475731],[31.619667098,49.509271613],[31.61959685,49.509830516],[31.619729416,49.509828752],[31.619876234,49.508967126],[31.620356497,49.506148541],[31.6171341,49.506174633],[31.616886652,49.507626379],[31.617031706,49.507630018]]]]},"id":"108"},{"type":"Feature","properties":{"id":"109"},"geometry":{"type":"MultiPolygon","coordinates":[[[[31.620260539,49.507119376],[31.620179452,49.507595212],[31.624461369,49.507545253],[31.6245424,49.507069406],[31.620260539,49.507119376]]]]},"id":"109"},{"type":"Feature","properties":{"id":"110"},"geometry":{"type":"MultiPolygon","coordinates":[[[[31.599286794662415,49.52689365696969],[31.602827310562077,49.52684839100385],[31.602897047996464,49.52625296555176],[31.599356532096802,49.526298232068896],[31.599286794662415,49.52689365696969]]]]},"id":"110"},{"type":"Feature","properties":{"id":"111"},"geometry":{"type":"MultiPolygon","coordinates":[[[[31.60246253013605,49.529790591607366],[31.60613715648645,49.52975229190866],[31.60619616508478,49.52927180222983],[31.602521538734376,49.52931010230498],[31.602521538734376,49.52932751142014],[31.60246253013605,49.529790591607366]]]]},"id":"111"},{"type":"Feature","properties":{"id":"112"},"geometry":{"type":"MultiPolygon","coordinates":[[[[31.603358387947022,49.52258972077639],[31.60702764987939,49.5225514154362],[31.607097387313786,49.52200469049204],[31.603422760963383,49.522039513919175],[31.60337448120111,49.5224364992356],[31.603358387947022,49.52258972077639]]]]},"id":"112"},{"type":"Feature","properties":{"id":"113"},"geometry":{"type":"MultiPolygon","coordinates":[[[[31.606802344322144,49.52493325405294],[31.610187292098935,49.52491932550942],[31.610235571861207,49.52453280684395],[31.606850624084412,49.52454673549757],[31.606802344322144,49.52493325405294]]]]},"id":"113"},{"type":"Feature","properties":{"id":"114"},"geometry":{"type":"MultiPolygon","coordinates":[[[[31.60263955593103,49.5283630370982],[31.606314182281434,49.528324736281036],[31.60636782646173,49.5278546783537],[31.60269320011133,49.52789297953913],[31.602677106857236,49.528042702067],[31.60263955593103,49.5283630370982]]]]},"id":"114"},{"type":"Feature","properties":{"id":"115"},"geometry":{"type":"MultiPolygon","coordinates":[[[[31.602521538734376,49.52931010230498],[31.60619616508478,49.52927180222983],[31.606255173683106,49.528794789688654],[31.602580547332703,49.528833090137546],[31.602521538734376,49.52931010230498]]]]},"id":"115"},{"type":"Feature","properties":{"id":"116"},"geometry":{"type":"MultiPolygon","coordinates":[[[[31.624901890754618,49.530525243656086],[31.62536323070518,49.53051828018139],[31.62566363811485,49.52850927630588],[31.625164747238077,49.528516240066764],[31.624901890754618,49.530525243656086]]]]},"id":"116"}]}