{"type":"FeatureCollection","name":"50_лес_75_4","crs":{"type":"name","properties":{"name":"urn:ogc:def:crs:OGC:1.3:CRS84"}},"features":[{"type":"Feature","properties":{"id":"1"},"geometry":{"type":"MultiPolygon","coordinates":[[[[31.524648708,49.484068085],[31.522610099,49.484431662],[31.522692713,49.484557443],[31.524757697,49.484189157],[31.524648708,49.484068085]]]]},"id":"1"},{"type":"Feature","properties":{"id":"2"},"geometry":{"type":"MultiPolygon","coordinates":[[[[31.569615107,49.434465477],[31.569675665,49.434529234],[31.570803975,49.433866152],[31.570700447,49.433757141],[31.569572152,49.434420231],[31.569615107,49.434465477]]]]},"id":"2"},{"type":"Feature","properties":{"id":"3"},"geometry":{"type":"MultiPolygon","coordinates":[[[[31.645140949,49.502811619],[31.646449758,49.502868775],[31.646526098,49.501940083],[31.645214538,49.501915453],[31.645167774,49.50248444],[31.645140949,49.502811619]]]]},"id":"3"},{"type":"Feature","properties":{"id":"4"},"geometry":{"type":"MultiPolygon","coordinates":[[[[31.602668988,49.452369125],[31.602387371,49.452228517],[31.601683915,49.452946272],[31.60184923,49.453028811],[31.601965534,49.453086874],[31.602668988,49.452369125]]]]},"id":"4"},{"type":"Feature","properties":{"id":"5"},"geometry":{"type":"MultiPolygon","coordinates":[[[[31.547906475,49.524028795],[31.547976943,49.523928227],[31.547752387,49.523812369],[31.546814558,49.523328269],[31.546626857,49.523357116],[31.546176549,49.523131491],[31.546071385,49.523070474],[31.545792648,49.523468291],[31.547906475,49.524028795]]]]},"id":"5"},{"type":"Feature","properties":{"id":"6"},"geometry":{"type":"MultiPolygon","coordinates":[[[[31.611972887,49.459430571],[31.612069327,49.459627864],[31.612209067,49.45976516],[31.613064461,49.458723489],[31.613389965,49.458503352],[31.61410622,49.458276771],[31.614791846,49.458257473],[31.614831761,49.458261821],[31.614736388,49.458058065],[31.611665932,49.458668523],[31.611972887,49.459430571]]]]},"id":"6"},{"type":"Feature","properties":{"id":"7"},"geometry":{"type":"MultiPolygon","coordinates":[[[[31.441224959,49.624621566],[31.44199985,49.624367828],[31.441929257,49.624211816],[31.441805082,49.624120135],[31.441389846,49.624271459],[31.441003445,49.624336105],[31.441224959,49.624621566]]]]},"id":"7"},{"type":"Feature","properties":{"id":"8"},"geometry":{"type":"MultiPolygon","coordinates":[[[[31.609949,49.435774],[31.610092,49.436148],[31.611557,49.43591],[31.611318,49.435882],[31.610788,49.435857],[31.609949,49.435774]]]]},"id":"8"},{"type":"Feature","properties":{"id":"9"},"geometry":{"type":"MultiPolygon","coordinates":[[[[31.527402366,49.49984406],[31.525355589,49.4993767],[31.525305132,49.499512406],[31.527313849,49.499970992],[31.527402366,49.49984406]]]]},"id":"9"},{"type":"Feature","properties":{"id":"10"},"geometry":{"type":"MultiPolygon","coordinates":[[[[31.527189507,49.500149505],[31.52722369,49.500100441],[31.525253682,49.499650648],[31.525201142,49.499791903],[31.527120512,49.500230137],[31.527189507,49.500149505]]]]},"id":"10"},{"type":"Feature","properties":{"id":"11"},"geometry":{"type":"MultiPolygon","coordinates":[[[[31.644034662,49.502679039],[31.644833768,49.502798192],[31.645140908,49.50281161],[31.645167802,49.50248444],[31.645214566,49.50191548],[31.645232091,49.501702339],[31.644116752,49.501680606],[31.644034662,49.502679039]]]]},"id":"11"},{"type":"Feature","properties":{"id":"12"},"geometry":{"type":"MultiPolygon","coordinates":[[[[31.601824129,49.451947306],[31.601542503,49.451806705],[31.600839041,49.452524455],[31.600990257,49.452599949],[31.601120668,49.452665058],[31.601824129,49.451947306]]]]},"id":"12"},{"type":"Feature","properties":{"id":"13"},"geometry":{"type":"MultiPolygon","coordinates":[[[[31.527007533,49.500362154],[31.525147031,49.499937356],[31.525091169,49.500087531],[31.526890897,49.500498443],[31.527007533,49.500362154]]]]},"id":"13"},{"type":"Feature","properties":{"id":"14"},"geometry":{"type":"MultiPolygon","coordinates":[[[[31.525405122,49.499243502],[31.527489228,49.49971934],[31.527622327,49.499528335],[31.526340209,49.499208499],[31.525561865,49.498978677],[31.5255985,49.49892045],[31.525614954,49.498836163],[31.52565199,49.498778036],[31.526419606,49.498984924],[31.527113663,49.499143388],[31.525602838,49.498711961],[31.525405122,49.499243502]]]]},"id":"14"},{"type":"Feature","properties":{"id":"15"},"geometry":{"type":"MultiPolygon","coordinates":[[[[31.592387129,49.449355365],[31.592668218,49.449495765],[31.593360167,49.448789879],[31.593299499,49.448759546],[31.59307908,49.448649472],[31.592387129,49.449355365]]]]},"id":"15"},{"type":"Feature","properties":{"id":"16"},"geometry":{"type":"MultiPolygon","coordinates":[[[[31.601542462,49.451806669],[31.601260921,49.451666102],[31.600557373,49.452383824],[31.600706352,49.45245817],[31.600839054,49.452524482],[31.601542462,49.451806669]]]]},"id":"16"},{"type":"Feature","properties":{"id":"17"},"geometry":{"type":"MultiPolygon","coordinates":[[[[31.596357384,49.451372066],[31.596021193,49.451204171],[31.594587385,49.452666938],[31.594937071,49.452821096],[31.596357384,49.451372066]]]]},"id":"17"},{"type":"Feature","properties":{"id":"18"},"geometry":{"type":"MultiPolygon","coordinates":[[[[31.596021193,49.451204171],[31.595858847,49.45112306],[31.59441843,49.452592421],[31.594587385,49.452666938],[31.596021193,49.451204171]]]]},"id":"18"},{"type":"Feature","properties":{"id":"19"},"geometry":{"type":"MultiPolygon","coordinates":[[[[31.595858847,49.45112306],[31.595696213,49.45104194],[31.594249324,49.452517904],[31.59441843,49.452592421],[31.595858847,49.45112306]]]]},"id":"19"},{"type":"Feature","properties":{"id":"20"},"geometry":{"type":"MultiPolygon","coordinates":[[[[31.593169254,49.447625416],[31.59289226,49.447487109],[31.592188802,49.448204771],[31.592233622,49.44822725],[31.592465784,49.44834317],[31.593169254,49.447625416]]]]},"id":"20"},{"type":"Feature","properties":{"id":"21"},"geometry":{"type":"MultiPolygon","coordinates":[[[[31.378139311,49.632091376],[31.377975363,49.631924609],[31.377638875,49.631756435],[31.377238067,49.631680432],[31.376651456,49.63176247],[31.376208631,49.631678308],[31.375367849,49.6314503],[31.374701358,49.631832309],[31.374643264,49.632154448],[31.374353168,49.632428098],[31.373993536,49.632445185],[31.374014424,49.632530883],[31.378139311,49.632091376]]]]},"id":"21"},{"type":"Feature","properties":{"id":"22"},"geometry":{"type":"MultiPolygon","coordinates":[[[[31.524849241,49.500737872],[31.524784498,49.500911848],[31.526337657,49.501266526],[31.526447752,49.501102825],[31.524849241,49.500737872]]]]},"id":"22"},{"type":"Feature","properties":{"id":"23"},"geometry":{"type":"MultiPolygon","coordinates":[[[[31.418866834,49.632696396],[31.418981848,49.633015253],[31.419697408,49.633492259],[31.420321662,49.633561509],[31.42071502,49.63360517],[31.421358982,49.633147879],[31.421613363,49.63297146],[31.421957915,49.632725888],[31.42195875722323,49.63268154115276],[31.421962521672793,49.63248332592469],[31.421965096,49.632347776],[31.421680038,49.632269639],[31.421675763,49.632268441],[31.421327252508217,49.63232153839318],[31.41900643164836,49.632675127569364],[31.418866834,49.632696396]]]]},"id":"23"},{"type":"Feature","properties":{"id":"24"},"geometry":{"type":"MultiPolygon","coordinates":[[[[31.401858969,49.638885572],[31.401872733,49.638836088],[31.401762527,49.63863955],[31.401631949,49.638186427],[31.401457793,49.637760006],[31.401339009,49.637754582],[31.400678548,49.63761969],[31.400336496,49.637745405],[31.399963671,49.637875488],[31.399587171,49.638169014],[31.399292647,49.638558706],[31.399294183,49.638612744],[31.401858969,49.638885572]]]]},"id":"24"},{"type":"Feature","properties":{"id":"25"},"geometry":{"type":"MultiPolygon","coordinates":[[[[31.443666745,49.623566458],[31.44360531,49.62373331],[31.443611174,49.624047037],[31.443580344,49.624232237],[31.443731223,49.624585532],[31.444006547,49.624863372],[31.444073158,49.625010434],[31.443637004,49.625583022],[31.44472912,49.625538704],[31.444654495,49.624697225],[31.444682044,49.624520547],[31.44498923,49.624373852],[31.445058367,49.624369237],[31.443666745,49.623566458]]]]},"id":"25"},{"type":"Feature","properties":{"id":"26"},"geometry":{"type":"MultiPolygon","coordinates":[[[[31.397604183,49.64158147],[31.397694771,49.641911772],[31.40094,49.641536458],[31.400849405,49.641206159],[31.397604183,49.64158147]]]]},"id":"26"},{"type":"Feature","properties":{"id":"27"},"geometry":{"type":"MultiPolygon","coordinates":[[[[31.623411382,49.460511885],[31.622750471,49.46055205],[31.622872579,49.460973351],[31.623579575,49.460886292],[31.623469901,49.460507948],[31.623411382,49.460511885]]]]},"id":"27"},{"type":"Feature","properties":{"id":"28"},"geometry":{"type":"MultiPolygon","coordinates":[[[[31.59421414,49.450301758],[31.593763981,49.450076945],[31.593326296,49.450523536],[31.593786009,49.450738534],[31.59421414,49.450301758]]]]},"id":"28"},{"type":"Feature","properties":{"id":"29"},"geometry":{"type":"MultiPolygon","coordinates":[[[[31.377664632,49.635524515],[31.377441603,49.63557844],[31.376929502,49.635706018],[31.377165739,49.636640588],[31.378099935,49.636610396],[31.377881699,49.636335742],[31.377730707,49.636009686],[31.378195249,49.635862877],[31.378333537,49.635843997],[31.378836963,49.635774981],[31.379472463,49.635578851],[31.379933302,49.635368968],[31.380006328,49.635064509],[31.379848996,49.634869493],[31.379566307,49.634912508],[31.379219924,49.635056425],[31.378374481,49.635352565],[31.377664632,49.635524515]]]]},"id":"29"},{"type":"Feature","properties":{"id":"30"},"geometry":{"type":"MultiPolygon","coordinates":[[[[31.593126935,49.446400817],[31.594414869,49.445086829],[31.59433576,49.44502355],[31.593032176,49.446353499],[31.593126935,49.446400817]]]]},"id":"30"},{"type":"Feature","properties":{"id":"31"},"geometry":{"type":"MultiPolygon","coordinates":[[[[31.604082644,49.453040962],[31.604342345,49.453170563],[31.605071831,49.452426316],[31.604804273,49.452304654],[31.604082644,49.453040962]]]]},"id":"31"},{"type":"Feature","properties":{"id":"32"},"geometry":{"type":"MultiPolygon","coordinates":[[[[31.553822199,49.526780908],[31.554277393,49.526777882],[31.554423708,49.525449888],[31.553753166,49.525454291],[31.553219379,49.525457747],[31.55353667,49.526101423],[31.553822199,49.526780908]]]]},"id":"32"},{"type":"Feature","properties":{"id":"33"},"geometry":{"type":"MultiPolygon","coordinates":[[[[31.599949222,49.51769279],[31.600081983,49.516697584],[31.599059302,49.516632709],[31.598898434,49.517863363],[31.599922095,49.517921954],[31.599949222,49.51769279]]]]},"id":"33"},{"type":"Feature","properties":{"id":"34"},"geometry":{"type":"MultiPolygon","coordinates":[[[[31.52671946,49.500698788],[31.52677019,49.500639426],[31.525033445,49.500242911],[31.524973652,49.500403624],[31.526659138,49.500788462],[31.52671946,49.500698788]]]]},"id":"34"},{"type":"Feature","properties":{"id":"35"},"geometry":{"type":"MultiPolygon","coordinates":[[[[31.372807456,49.630220398],[31.372473994,49.630255886],[31.37256753,49.630640095],[31.372764371,49.631448451],[31.373328739,49.631388409],[31.373633602,49.631355782],[31.373966363,49.631267413],[31.37429435,49.631408543],[31.374469618,49.631431364],[31.374437184,49.630384127],[31.374229571,49.630280837],[31.373919288,49.630206961],[31.373334472,49.630194058],[31.372807456,49.630220398]]]]},"id":"35"},{"type":"Feature","properties":{"id":"36"},"geometry":{"type":"MultiPolygon","coordinates":[[[[31.41683622,49.627962341],[31.41717993,49.628033986],[31.417381349,49.628588453],[31.420639552,49.628091937],[31.420603431,49.627979137],[31.420434461,49.627459655],[31.420422228,49.627415851],[31.418588614,49.627695316],[31.41816621,49.627759645],[31.418150235,49.627802395],[31.418066897,49.627909023],[31.417828048,49.627968958],[31.417552438,49.627913099],[31.417554962,49.627852798],[31.41683622,49.627962341]]]]},"id":"36"},{"type":"Feature","properties":{"id":"37"},"geometry":{"type":"MultiPolygon","coordinates":[[[[31.520997453,49.478615948],[31.520902392,49.478291938],[31.520676096,49.477779639],[31.520557075,49.477499789],[31.519631873,49.475529335],[31.518524791,49.47421716],[31.517921519,49.473217075],[31.517885856,49.472998934],[31.517554067,49.472216349],[31.516511154,49.470592328],[31.515793666,49.469297324],[31.514820106,49.467875338],[31.514403557,49.467146801],[31.514115783,49.46649201],[31.513940401,49.465758155],[31.513794942,49.464309003],[31.513430063,49.462719334],[31.513359609,49.461252937],[31.513228272,49.460565766],[31.513362817,49.45905723],[31.513418218,49.457993924],[31.513668629,49.457055906],[31.513835065,49.456686696],[31.51480646,49.455602337],[31.516321791,49.453780618],[31.517078685,49.45319587],[31.518191368,49.452474781],[31.518700906,49.452181756],[31.520515284925242,49.451171072492656],[31.52050495147699,49.45116435476182],[31.52047491067443,49.451151125086675],[31.520467838,49.451155006],[31.520066817,49.451374679],[31.519656153,49.451599674],[31.519235186,49.451830326],[31.518803046,49.452067092],[31.518656484,49.452147398],[31.518368505,49.45231309],[31.518145829,49.452441125],[31.517952444,49.452566439],[31.517562458,49.452819109],[31.517181128,49.453066102],[31.517030085,49.453163994],[31.51683382,49.453315535],[31.516523675,49.453555035],[31.516269123,49.453751584],[31.516242142,49.453783992],[31.516047816,49.45401728],[31.515873577,49.454226558],[31.515714294,49.454417887],[31.515600812,49.454554138],[31.515458072,49.454725647],[31.515304316,49.454910277],[31.51513586,49.455112414],[31.514949728,49.45533606],[31.514745793,49.455580864],[31.514743105,49.455583814],[31.514498322,49.455857134],[31.514221658,49.456165974],[31.513915056,49.456508353],[31.513775528,49.456664072],[31.513672514,49.456889684],[31.513602405,49.4570432],[31.513540495,49.457275372],[31.513443695,49.457638253],[31.513354349,49.457973593],[31.513349278,49.45799234],[31.513333346,49.458298909],[31.513318126,49.458589743],[31.513304403,49.458854429],[31.513293876,49.459055745],[31.513290136,49.459098427],[31.513269864,49.459324839],[31.513250802,49.459539122],[31.513232648,49.459743073],[31.513215209,49.459938042],[31.513182462,49.460305249],[31.513166976,49.460479007],[31.513159494,49.460563194],[31.513176954,49.460655595],[31.513210133,49.460830768],[31.513241573,49.460996393],[31.513271368,49.461154088],[31.513280237,49.461200644],[31.513285348,49.461227752],[31.513291218,49.461258465],[31.5133612,49.462720727],[31.513548297,49.46353741],[31.513726658,49.46431571],[31.513787592,49.464922973],[31.513871631,49.465761166],[31.514047634,49.466498888],[31.514264271,49.466992932],[31.514275743,49.467019023],[31.514328119,49.467138511],[31.51433723,49.467159181],[31.514384947,49.467242668],[31.514414664,49.467294715],[31.514444382,49.467346851],[31.514504107,49.467451304],[31.514564095,49.467556027],[31.51462407,49.4676612],[31.514684307,49.467766642],[31.514744834,49.467872453],[31.51475549,49.467891063],[31.514815308,49.467976635],[31.514887741,49.468080295],[31.514960022,49.468183865],[31.515032318,49.468287255],[31.515104476,49.468390457],[31.515176496,49.468493577],[31.51524853,49.468596518],[31.515320275,49.46869936],[31.515392034,49.468802022],[31.515463655,49.468904513],[31.515535291,49.469006905],[31.515606774,49.469109117],[31.515677996,49.46921124],[31.515747465,49.469310557],[31.515748928,49.469313272],[31.515805334,49.469418049],[31.51586214,49.469523284],[31.515919071,49.469629058],[31.515976278,49.469735201],[31.516033748,49.469841875],[31.51609148,49.469949097],[31.516149489,49.470056768],[31.516207746,49.470164898],[31.51626628,49.470273648],[31.516325076,49.470382857],[31.516384287,49.470492524],[31.516443622,49.470602812],[31.51644601,49.470607235],[31.516513042,49.470711749],[31.516583029,49.470820606],[31.516653002,49.470929552],[31.516722989,49.471038579],[31.516793101,49.471147705],[31.516863213,49.471256921],[31.516933339,49.471366137],[31.516950072498336,49.471392173],[31.51700359,49.471475442],[31.517074241,49.471585467],[31.517146356,49.471697757],[31.517220087,49.471812574],[31.517295157,49.471929566],[31.517371704,49.472048635],[31.517449439,49.472169781],[31.517490522,49.472233703],[31.517516759,49.472295334],[31.517572643,49.472426364],[31.517688748,49.472698989],[31.517749107,49.472840754],[31.517811193,49.472986493],[31.517818043,49.473002649],[31.517840473,49.473143646],[31.517852987,49.473221887],[31.517899818,49.473301956],[31.5179908,49.473457742],[31.518083399,49.473616145],[31.518177724,49.473777721],[31.518274065,49.473942543],[31.518371595,49.474109442],[31.518453648,49.474249782],[31.518543829,49.474356377],[31.518611372,49.474436074],[31.518744954,49.47459402],[31.518877074,49.474750069],[31.519007704,49.474904302],[31.519136706,49.475056719],[31.519264245,49.475207428],[31.519390419,49.475356491],[31.519515254,49.475504026],[31.519672802,49.475816832],[31.519752716,49.475975487],[31.519833418,49.47613568],[31.519914907,49.47629759],[31.519997212,49.476461037],[31.520080428,49.476626192],[31.520164447,49.476793163],[31.520249404,49.476961932],[31.520335412,49.477132598],[31.52042236,49.477305161],[31.520523781,49.477506628],[31.52056705,49.477662097],[31.520602455,49.477789264],[31.520627123,49.477846569],[31.520705329,49.478028682],[31.520783535,49.478210616],[31.520825207,49.478307714],[31.520835414,49.478397355],[31.520858003,49.478593746],[31.520869609,49.478662501],[31.520875763,49.478693429],[31.520997453,49.478615948]]]]},"id":"37"},{"type":"Feature","properties":{"id":"38"},"geometry":{"type":"MultiPolygon","coordinates":[[[[31.526989568,49.49256978],[31.526642581,49.492586475],[31.526331938,49.493407679],[31.526652424,49.493461095],[31.526989568,49.49256978]]]]},"id":"38"},{"type":"Feature","properties":{"id":"39"},"geometry":{"type":"MultiPolygon","coordinates":[[[[31.524849241,49.500737872],[31.526447752,49.501102825],[31.526554866,49.500943675],[31.524912247,49.500568644],[31.524849241,49.500737872]]]]},"id":"39"},{"type":"Feature","properties":{"id":"40"},"geometry":{"type":"MultiPolygon","coordinates":[[[[31.392604271,49.627936372],[31.393116764,49.627460566],[31.393051911,49.627432256],[31.391992687,49.627327514],[31.391946387,49.627303411],[31.391943951,49.627209479],[31.390816759,49.627198673],[31.390931749,49.627700085],[31.391179067,49.627537482],[31.391299457,49.627500363],[31.391432671,49.627516268],[31.391880136,49.627718213],[31.392543145,49.627912795],[31.392604271,49.627936372]]]]},"id":"40"},{"type":"Feature","properties":{"id":"41"},"geometry":{"type":"MultiPolygon","coordinates":[[[[31.622440164,49.462806618],[31.622610405,49.463393946],[31.623098136,49.463283538],[31.622941985,49.462744829],[31.622440164,49.462806618]]]]},"id":"41"},{"type":"Feature","properties":{"id":"42"},"geometry":{"type":"MultiPolygon","coordinates":[[[[31.362195665,49.634358769],[31.36486613,49.634081808],[31.364920798,49.634076144],[31.364909913,49.634032786],[31.364795444,49.633579037],[31.364373891614676,49.6336210203662],[31.363515867,49.633706473],[31.362008294,49.633856739],[31.362195665,49.634358769]]]]},"id":"42"},{"type":"Feature","properties":{"id":"43"},"geometry":{"type":"MultiPolygon","coordinates":[[[[31.55531539,49.526816046],[31.553845094,49.526825691],[31.554244226,49.52736592],[31.555165745,49.528174135],[31.55531539,49.526816046]]]]},"id":"43"},{"type":"Feature","properties":{"id":"44"},"geometry":{"type":"MultiPolygon","coordinates":[[[[31.592471305,49.447242882],[31.59272726,49.447370714],[31.59349686,49.446585578],[31.593417892,49.446546143],[31.593240907,49.446457748],[31.592471305,49.447242882]]]]},"id":"44"},{"type":"Feature","properties":{"id":"45"},"geometry":{"type":"MultiPolygon","coordinates":[[[[31.64264,49.502461],[31.642727,49.502484],[31.644035,49.502679],[31.644117,49.501681],[31.642706,49.501653],[31.64264,49.502461]]]]},"id":"45"},{"type":"Feature","properties":{"id":"46"},"geometry":{"type":"MultiPolygon","coordinates":[[[[31.526890883,49.500498461],[31.525091196,49.500087495],[31.525033445,49.500242911],[31.52677019,49.500639426],[31.526890883,49.500498461]]]]},"id":"46"},{"type":"Feature","properties":{"id":"47"},"geometry":{"type":"MultiPolygon","coordinates":[[[[31.436740788,49.623109662],[31.43686612,49.62327112],[31.438216686,49.622828837],[31.43798221,49.622526442],[31.437764896,49.622658034],[31.436740788,49.623109662]]]]},"id":"47"},{"type":"Feature","properties":{"id":"48"},"geometry":{"type":"MultiPolygon","coordinates":[[[[31.63175,49.459882],[31.633323,49.459793],[31.634077,49.45975],[31.635299,49.459681],[31.636534,49.459611],[31.637771,49.45954],[31.639017,49.45947],[31.640329,49.459395],[31.641603,49.459324],[31.642229,49.45929],[31.643492,49.459227],[31.643639,49.45922],[31.643705,49.459225],[31.643709,49.45918],[31.64364,49.459175],[31.643486,49.459182],[31.642697,49.459219],[31.642221,49.459245],[31.641595,49.459279],[31.64131,49.459294],[31.640971,49.459314],[31.640323,49.45935],[31.639659,49.459388],[31.639009,49.459425],[31.638383,49.459461],[31.637765,49.459496],[31.637146,49.459531],[31.636528,49.459566],[31.63591,49.459601],[31.635292,49.459636],[31.634679,49.459671],[31.634072,49.459705],[31.633314,49.459748],[31.63185,49.459831],[31.631795,49.459834],[31.631745,49.459837],[31.630613,49.459901],[31.630212,49.459926],[31.629862,49.459947],[31.629521,49.459968],[31.628854,49.460009],[31.628523,49.460029],[31.628193,49.460049],[31.628195,49.460094],[31.62953,49.460012],[31.630213,49.459971],[31.63175,49.459882]]]]},"id":"48"},{"type":"Feature","properties":{"id":"49"},"geometry":{"type":"MultiPolygon","coordinates":[[[[31.584423587,49.554165538],[31.583948931,49.553473582],[31.583944359,49.553466896],[31.583548046,49.552895049],[31.582922436,49.551992221],[31.582662989,49.551617835],[31.582447217,49.55131015],[31.582055798,49.550751646],[31.583737635,49.550951748],[31.585559299,49.551168455],[31.586432838,49.551272375],[31.587306241,49.551376288],[31.588179649,49.551480096],[31.589056377,49.55158438],[31.589063842,49.551539572],[31.588223384,49.551439621],[31.587379212,49.55133919],[31.586534892,49.551238834],[31.585690865,49.551138381],[31.584846565,49.551038022],[31.584009995,49.550938424],[31.583215752,49.550844023],[31.582020807,49.550701833],[31.58133137737923,49.54971816310122],[31.58131599426264,49.54971629178453],[31.58130446973033,49.549697599312516],[31.581249744,49.54971121],[31.58227514,49.551180539],[31.582889384,49.552060667],[31.583484671,49.552913617],[31.584353776,49.554179066],[31.584423587,49.554165538]]]]},"id":"49"},{"type":"Feature","properties":{"id":"50"},"geometry":{"type":"MultiPolygon","coordinates":[[[[31.627036695,49.46333454],[31.627199996,49.464705971],[31.627399102,49.464716542],[31.627233356,49.463324595],[31.62712715,49.463329963],[31.627036695,49.46333454]]]]},"id":"50"},{"type":"Feature","properties":{"id":"51"},"geometry":{"type":"MultiPolygon","coordinates":[[[[31.445791868,49.626881307],[31.446761264,49.626563774],[31.446675401,49.626482671],[31.44658818,49.626239738],[31.445556358,49.62657774],[31.445791868,49.626881307]]]]},"id":"51"},{"type":"Feature","properties":{"id":"52"},"geometry":{"type":"MultiPolygon","coordinates":[[[[31.624839527,49.530480143],[31.62256262,49.530507297],[31.622333678,49.530509967],[31.619826844,49.530556362],[31.619757487,49.530557099],[31.617523795,49.530577654],[31.615091574,49.530599892],[31.615022217,49.530600527],[31.612575765,49.53062287],[31.612472262,49.530624328],[31.609728102,49.530663029],[31.609722581,49.530708035],[31.612577015,49.530667833],[31.619822022,49.530601467],[31.622335364,49.530554939],[31.624833618,49.530525141],[31.624839527,49.530480143]]]]},"id":"52"},{"type":"Feature","properties":{"id":"53"},"geometry":{"type":"MultiPolygon","coordinates":[[[[31.564324081,49.533605228],[31.564920665,49.533782957],[31.565783044,49.534091948],[31.566954244,49.534507094],[31.567091918,49.534554236],[31.567153133,49.534575141],[31.568592696,49.535067969],[31.568595308,49.535068794],[31.569693396,49.535487911],[31.569788129,49.535519332],[31.57106923,49.535944737],[31.571674535,49.536164918],[31.571260951,49.535863672],[31.569913539,49.535273169],[31.568253301,49.534658549],[31.566851898,49.534126539],[31.564478178,49.533326659],[31.564324081,49.533605228]]]]},"id":"53"},{"type":"Feature","properties":{"id":"54"},"geometry":{"type":"MultiPolygon","coordinates":[[[[31.526789869,49.492552338],[31.526125837,49.491566798],[31.525870205,49.49161164],[31.526513001,49.492565654],[31.526789869,49.492552338]]]]},"id":"54"},{"type":"Feature","properties":{"id":"55"},"geometry":{"type":"MultiPolygon","coordinates":[[[[31.526659,49.500788],[31.524974,49.500404],[31.524912,49.500569],[31.526555,49.500944],[31.526659,49.500788]]]]},"id":"55"},{"type":"Feature","properties":{"id":"56"},"geometry":{"type":"MultiPolygon","coordinates":[[[[31.623469901,49.460507948],[31.623579575,49.460886292],[31.624371748,49.460788735],[31.624274648,49.460453734],[31.623469901,49.460507948]]]]},"id":"56"},{"type":"Feature","properties":{"id":"57"},"geometry":{"type":"MultiPolygon","coordinates":[[[[31.626837054,49.46334464],[31.626997868,49.464695241],[31.627199996,49.464705971],[31.627036695,49.46333454],[31.626941371,49.463339356],[31.626837054,49.46334464]]]]},"id":"57"},{"type":"Feature","properties":{"id":"58"},"geometry":{"type":"MultiPolygon","coordinates":[[[[31.579642853,49.507803752],[31.579726522,49.507179166],[31.579818185,49.506496104],[31.579905016,49.505848515],[31.579933758,49.505633668],[31.580108951,49.50402947],[31.580155953,49.503812525],[31.580179421,49.50376856],[31.58036963,49.502229888],[31.580478676,49.501347756],[31.580503051,49.501150301],[31.580559228,49.50069572],[31.580564759,49.500650895],[31.58058265,49.500506726],[31.580734119,49.499115949],[31.580738865,49.499072401],[31.580940399,49.497524512],[31.580859435,49.497523939],[31.580856883,49.49757573],[31.580690661,49.499014558],[31.580679634,49.499109603],[31.58060578645493,49.49977582665701],[31.580543518066353,49.500409391143734],[31.580535572964745,49.50040926529278],[31.5805346,49.500418043],[31.580490813,49.500689995],[31.580434786,49.501143659],[31.580414772033635,49.501305077049224],[31.580414772033635,49.50135699778364],[31.58040863267892,49.50135655477447],[31.580347723,49.501926575],[31.580328941345158,49.50204626218979],[31.580328941345158,49.50210949586654],[31.580319018536436,49.50210949586654],[31.580318031,49.502115789],[31.580300762,49.502226851],[31.580113589,49.5037404],[31.580097935,49.503784459],[31.580040887,49.50402192],[31.579981735,49.504562431],[31.579941575,49.504929462],[31.579901495,49.505295756],[31.57989945072013,49.50531443608547],[31.57989978790278,49.50531445068274],[31.57989748667414,49.50533238301503],[31.579864939,49.505629795],[31.579860751,49.505661321],[31.579811791,49.506026452],[31.579762775,49.50639214],[31.579713691,49.506758368],[31.579664537,49.507125117],[31.579615315,49.507492415],[31.57956601,49.507860243],[31.579628747,49.507908941],[31.579642853,49.507803752]]]]},"id":"58"},{"type":"Feature","properties":{"id":"59"},"geometry":{"type":"MultiPolygon","coordinates":[[[[31.610435944,49.504347394],[31.610862991,49.50436647],[31.610995496,49.5039341],[31.611946654,49.503978007],[31.611832197800325,49.50473129983794],[31.611829738,49.504747489],[31.611853161287804,49.504748996509484],[31.614150004,49.50489682],[31.614218851,49.504900007],[31.614291542,49.504454268],[31.614345488,49.504123482],[31.614524458,49.502848036],[31.614613873,49.502306299],[31.614683653,49.501746221],[31.614615068,49.501741074],[31.614545479,49.502300253],[31.614455573,49.502845164],[31.614276859,49.504118685],[31.614236635,49.504365552],[31.614222832,49.504450056],[31.614157301,49.504852099],[31.613081627,49.504782896],[31.611905182,49.504707171],[31.612022342,49.50393643],[31.611988568,49.503934871],[31.610939721,49.503886464],[31.610807175,49.504318915],[31.610441601,49.504302594],[31.610435944,49.504347394]]]]},"id":"59"},{"type":"Feature","properties":{"id":"60"},"geometry":{"type":"MultiPolygon","coordinates":[[[[31.541502158,49.450098572],[31.542081156,49.450023997],[31.543189249,49.449964716],[31.544894961,49.449769364],[31.545636972,49.449676555],[31.546547153,49.449560764],[31.547511034,49.449390205],[31.549336259,49.449066756],[31.549558514,49.4490271],[31.550662948,49.448726],[31.552094401,49.448477559],[31.55260423,49.448388414],[31.55414632,49.447888878],[31.554340076,49.447825902],[31.555953289,49.447399767],[31.55592103,49.447360032],[31.554317027,49.447783537],[31.554111098,49.447850277],[31.552571821,49.448348741],[31.552066059,49.448436571],[31.550634594,49.44868503],[31.549527265,49.44898703],[31.54930741,49.449025921],[31.547489397,49.449347523],[31.546547221,49.449515807],[31.545617749,49.449633377],[31.545550015,49.4496419],[31.544897596,49.449724442],[31.543193319,49.449919839],[31.542080442,49.449979041],[31.541500851,49.450053625],[31.541502158,49.450098572]]]]},"id":"60"},{"type":"Feature","properties":{"id":"61"},"geometry":{"type":"MultiPolygon","coordinates":[[[[31.54555,49.449642],[31.545618,49.449633],[31.545544,49.449456],[31.545518,49.449395],[31.5455,49.449352],[31.545267,49.448792],[31.545008,49.448172],[31.544883,49.447874],[31.544397,49.446879],[31.544384,49.446853],[31.543899,49.44586],[31.543834,49.445875],[31.544257,49.44674],[31.544269,49.446766],[31.544817,49.447885],[31.544836,49.44793],[31.545451,49.449404],[31.545476,49.449465],[31.54555,49.449642]]]]},"id":"61"},{"type":"Feature","properties":{"id":"62"},"geometry":{"type":"MultiPolygon","coordinates":[[[[31.630738486,49.460070221],[31.630922989,49.461619759],[31.631115312,49.461610056],[31.630930539,49.460059889],[31.630738486,49.460070221]]]]},"id":"62"},{"type":"Feature","properties":{"id":"63"},"geometry":{"type":"MultiPolygon","coordinates":[[[[31.527121,49.50023],[31.525201,49.499792],[31.525147,49.499937],[31.527008,49.500362],[31.527121,49.50023]]]]},"id":"63"},{"type":"Feature","properties":{"id":"64"},"geometry":{"type":"MultiPolygon","coordinates":[[[[31.525356,49.499377],[31.527402,49.499844],[31.527489,49.499719],[31.525405,49.499244],[31.525356,49.499377]]]]},"id":"64"},{"type":"Feature","properties":{"id":"65"},"geometry":{"type":"MultiPolygon","coordinates":[[[[31.622098247,49.460591671],[31.622231841,49.461052234],[31.62287262,49.460973387],[31.622750471,49.460552014],[31.622098247,49.460591671]]]]},"id":"65"},{"type":"Feature","properties":{"id":"66"},"geometry":{"type":"MultiPolygon","coordinates":[[[[31.527313863,49.499971028],[31.525305104,49.499512388],[31.525253682,49.499650648],[31.52722369,49.500100441],[31.527313863,49.499971028]]]]},"id":"66"},{"type":"Feature","properties":{"id":"67"},"geometry":{"type":"MultiPolygon","coordinates":[[[[31.630544626,49.460080636],[31.630729135,49.461629545],[31.630922989,49.461619759],[31.630738486,49.460070221],[31.630544626,49.460080636]]]]},"id":"67"},{"type":"Feature","properties":{"id":"68"},"geometry":{"type":"MultiPolygon","coordinates":[[[[31.435994695,49.623791202],[31.436949445,49.623478535],[31.436683014,49.623135219],[31.435790873,49.623528578],[31.435994695,49.623791202]]]]},"id":"68"},{"type":"Feature","properties":{"id":"69"},"geometry":{"type":"MultiPolygon","coordinates":[[[[31.598885996,49.45260072],[31.59916922,49.452742136],[31.599861149,49.452036193],[31.599712587,49.451962017],[31.599577927,49.451894779],[31.598885996,49.45260072]]]]},"id":"69"},{"type":"Feature","properties":{"id":"70"},"geometry":{"type":"MultiPolygon","coordinates":[[[[31.630930539,49.460059889],[31.631115312,49.461610056],[31.631303924,49.461600501],[31.631119158,49.460049794],[31.630930539,49.460059889]]]]},"id":"70"},{"type":"Feature","properties":{"id":"71"},"geometry":{"type":"MultiPolygon","coordinates":[[[[31.572002701,49.4331165],[31.570807685,49.433818837],[31.570905428,49.433921755],[31.572100459,49.433219426],[31.572002701,49.4331165]]]]},"id":"71"},{"type":"Feature","properties":{"id":"72"},"geometry":{"type":"MultiPolygon","coordinates":[[[[31.598900556564274,49.51786400822545],[31.599056124687134,49.51663113853829],[31.59885764122003,49.51662069035728],[31.598117351531922,49.51657541488046],[31.59795641899103,49.51781176861504],[31.598900556564274,49.51786400822545]]]]},"id":"72"},{"type":"Feature","properties":{"id":"73"},"geometry":{"type":"MultiPolygon","coordinates":[[[[31.386356949806157,49.63026559191612],[31.386662721633858,49.63017525151344],[31.387102603912304,49.63009186022379],[31.386705636978096,49.629007760466884],[31.386646628379765,49.62884792320547],[31.386190652847237,49.628868771573664],[31.384688615798897,49.628868771573664],[31.383814215660042,49.62889656938403],[31.382966637611336,49.62873325702095],[31.382462382316536,49.62847265105231],[31.38162016868586,49.629080729477074],[31.381990313529915,49.629292686458214],[31.382279992103523,49.62918149602573],[31.382687687873787,49.62904250762823],[31.383154392242382,49.62897996271996],[31.38373911380762,49.628969538560774],[31.38473689556117,49.629056406485816],[31.385809779167122,49.62906683062642],[31.385729312896675,49.629250990075775],[31.385686397552437,49.62959150948789],[31.385804414749096,49.62981736288699],[31.385997533798164,49.63010923342091],[31.386356949806157,49.63026559191612]]]]},"id":"73"},{"type":"Feature","properties":{"id":"74"},"geometry":{"type":"MultiPolygon","coordinates":[[[[31.603918906,49.455147391],[31.603934561,49.455121257],[31.603065385,49.454687421],[31.60292965,49.454619568],[31.602793653,49.454551705],[31.60252166,49.45441589],[31.602249531,49.454280074],[31.601977542,49.454144257],[31.60170554,49.45400844],[31.601433553,49.453872622],[31.60115733,49.453734793],[31.600870988,49.453591847],[31.600584647,49.4534489],[31.600298322,49.453305863],[31.600014443,49.453164108],[31.599733312,49.453023808],[31.599451769,49.452883237],[31.599169261,49.452742118],[31.598885941,49.45260072],[31.598603312,49.452459599],[31.59832259,49.452319384],[31.59804365,49.452180094],[31.597485223,49.451901313],[31.597204094,49.451760916],[31.596922165,49.45162015],[31.596640361,49.451479393],[31.59635896,49.451338904],[31.59607716,49.451198227],[31.595795086,49.451057377],[31.595511923,49.450915881],[31.595225627,49.450772921],[31.59493932,49.450629961],[31.594653704,49.450487277],[31.594368905,49.450345141],[31.593799311,49.450060678],[31.593513426,49.449917902],[31.593229875,49.449776221],[31.592948907,49.449635903],[31.592668218,49.449495765],[31.592387129,49.449355365],[31.59210549,49.449214767],[31.5918233,49.449073819],[31.591541664,49.44893313],[31.591261121,49.448792997],[31.590982221,49.44865368],[31.590703323,49.448514371],[31.590424289,49.448375053],[31.590145394,49.448235734],[31.589866487,49.448096414],[31.589587595,49.447957103],[31.589110715,49.447718931],[31.589109134,49.447752101],[31.589688226,49.448041337],[31.589972584,49.448183395],[31.590271024,49.448332482],[31.590585864,49.44848971],[31.590920375,49.448656794],[31.591278535,49.448835665],[31.591665946,49.449029148],[31.592069608,49.449230764],[31.592480797,49.449436122],[31.592899912,49.44964541],[31.593327231,49.449858889],[31.593763981,49.450076945],[31.59421414,49.450301758],[31.594681365,49.450535151],[31.595103246,49.450745796],[31.595357707,49.450872859],[31.595532212,49.450960003],[31.595696213,49.45104194],[31.595858847,49.45112306],[31.596021193,49.451204171],[31.596357384,49.451372066],[31.596546802,49.451466613],[31.597021987,49.45170392],[31.597314326,49.451849891],[31.597576447,49.451980791],[31.597888862,49.452136805],[31.598140342,49.452262399],[31.598445789,49.452414938],[31.598673761,49.452528754],[31.598978259,49.452680744],[31.599287963,49.452835382],[31.599591926,49.452987191],[31.599878661,49.453130319],[31.600128771,49.453255271],[31.600341039,49.45336114],[31.600494245,49.453437676],[31.600635565,49.453508279],[31.600911924,49.453646199],[31.601051201,49.453715806],[31.60119157,49.45378586],[31.601337945,49.45385893],[31.601495669,49.453937664],[31.601667476,49.454023425],[31.601857606,49.454118324],[31.602073554,49.454226191],[31.602330233,49.454354333],[31.602666205,49.45452203],[31.603129423,49.454753288],[31.603575691,49.454976054],[31.603918906,49.455147391]]]]},"id":"74"},{"type":"Feature","properties":{"id":"75"},"geometry":{"type":"MultiPolygon","coordinates":[[[[31.631419646,49.456648959],[31.631169814,49.456799315],[31.630689264,49.457095204],[31.630419165,49.457198198],[31.63020952,49.457181602],[31.62948834,49.45782437],[31.63036041,49.457720882],[31.630490822,49.457537538],[31.630633836,49.457336575],[31.630701721,49.457241146],[31.630813307,49.457163308],[31.631037457,49.457006921],[31.631193732,49.45689786],[31.631253652,49.456831859],[31.631419646,49.456648959]]]]},"id":"75"},{"type":"Feature","properties":{"id":"76"},"geometry":{"type":"MultiPolygon","coordinates":[[[[31.566673029,49.553665812],[31.566674925572084,49.55366349043577],[31.566810147,49.553497968],[31.56671073,49.553318957],[31.566486111,49.553175624],[31.566263266,49.553128332],[31.565360627,49.552427265],[31.565246501,49.552353242],[31.565175929,49.552358244],[31.563671144,49.553475751],[31.563591323,49.553500996],[31.563313368,49.553531295],[31.563192951,49.553584355],[31.563049908,49.553678507],[31.56296785,49.553705264],[31.562939475,49.553714747],[31.561189686,49.555013201],[31.561167367,49.555081176],[31.561719489,49.555587733],[31.561257962,49.555813717],[31.561123504,49.555906945],[31.561151812,49.555987194],[31.561158731415606,49.555984362330825],[31.565771929,49.554096479],[31.566673029,49.553665812]]]]},"id":"76"},{"type":"Feature","properties":{"id":"77"},"geometry":{"type":"MultiPolygon","coordinates":[[[[31.556170882,49.55415459],[31.556136001,49.554228568],[31.556189425,49.554332677],[31.55636924,49.554511361],[31.556396351,49.55460357],[31.557505756,49.555515887],[31.557984879,49.555842036],[31.558397371,49.55619804],[31.558435639,49.556277836],[31.559837736,49.557434281],[31.561530153,49.558821366],[31.561581726,49.558791399],[31.560882998,49.558223132],[31.559993763,49.557500024],[31.559891287,49.557416648],[31.5592863,49.556913069],[31.561065934,49.555946932],[31.561048098,49.555896798],[31.560963461,49.555942778],[31.560322252,49.556291375],[31.55924373,49.556877566],[31.558497836,49.556256486],[31.558459831,49.55617724],[31.558037682,49.555812888],[31.557579569,49.555501015],[31.557558019,49.55548637],[31.556985486,49.555015229],[31.556460996,49.554584316],[31.556435313,49.554496619],[31.556434537,49.554494183],[31.556252134,49.554312956],[31.556208571,49.554227993],[31.556170882,49.55415459]]]]},"id":"77"},{"type":"Feature","properties":{"id":"78"},"geometry":{"type":"MultiPolygon","coordinates":[[[[31.587524333,49.559252689],[31.587547523,49.559142638],[31.58702123,49.558175606],[31.586820307,49.55783163],[31.586652478,49.557544471],[31.586315744,49.556968255],[31.586181815,49.556739],[31.586021502,49.556501259],[31.585786267,49.556152334],[31.585509906,49.555749322],[31.585089838,49.555137011],[31.586687818,49.555327043],[31.588398404,49.555530436],[31.588405884,49.555485628],[31.587552808,49.555384216],[31.586699598,49.555282717],[31.58505567,49.555087198],[31.584423587,49.554165538],[31.584353776,49.554179066],[31.585250346,49.555484436],[31.585958614,49.556515601],[31.586117494,49.556756113],[31.586955979,49.558191183],[31.587481327,49.559156498],[31.587524333,49.559252689]]]]},"id":"78"},{"type":"Feature","properties":{"id":"79"},"geometry":{"type":"MultiPolygon","coordinates":[[[[31.663227052,49.440860351],[31.663266835,49.440823682],[31.661758502,49.440142243],[31.66127506,49.439924733],[31.65946658,49.438938525],[31.657928654,49.437816869],[31.657746847,49.437652612],[31.656710635,49.436716062],[31.655682399,49.435786639],[31.655047192,49.435298336],[31.654220438,49.434900971],[31.653225827,49.434653258],[31.651791047,49.434666827],[31.65179302,49.434711808],[31.653224285,49.434698226],[31.653995972,49.434891496],[31.654180972,49.434937834],[31.654863406,49.435265818],[31.655003238,49.435333021],[31.655618786,49.435804303],[31.655638807,49.43582242],[31.656467008,49.436571586],[31.657414566,49.437428694],[31.65787388,49.437844152],[31.658457946,49.438270118],[31.659419269,49.438971273],[31.659509851,49.439020664],[31.659929778,49.439249687],[31.660316642,49.439460664],[31.660677057,49.439657209],[31.661232639,49.439960191],[31.661596524,49.440123605],[31.661654382560176,49.44014958552702],[31.661712227,49.440175566],[31.661712241,49.440175566],[31.662536062,49.440545521],[31.662635831,49.440590319],[31.663160035,49.44082974],[31.663227052,49.440860351]]]]},"id":"79"},{"type":"Feature","properties":{"id":"80"},"geometry":{"type":"MultiPolygon","coordinates":[[[[31.576941509,49.504619953],[31.577381403,49.504641806],[31.57740548,49.504447786],[31.57750072,49.503677895],[31.577327717,49.503670755],[31.577469535,49.502354832],[31.577056795,49.502336522],[31.576950643,49.503370852],[31.577016288,49.503536103],[31.577018372,49.503968695],[31.576969243,49.504547618],[31.576941509,49.504619953]]]]},"id":"80"},{"type":"Feature","properties":{"id":"81"},"geometry":{"type":"MultiPolygon","coordinates":[[[[31.594476,49.451877],[31.594192,49.452009],[31.593776,49.452202],[31.593702,49.452277],[31.594079,49.452443],[31.595532,49.45096],[31.595358,49.450873],[31.595103,49.450746],[31.594475,49.451387],[31.594476,49.451877]]]]},"id":"81"},{"type":"Feature","properties":{"id":"82"},"geometry":{"type":"MultiPolygon","coordinates":[[[[31.60355521,49.452777558],[31.603820362,49.452909988],[31.604533984,49.452181807],[31.604260824,49.452057586],[31.60355521,49.452777558]]]]},"id":"82"},{"type":"Feature","properties":{"id":"83"},"geometry":{"type":"MultiPolygon","coordinates":[[[[31.448057089,49.620011275],[31.448982296,49.619340292],[31.448958899,49.619295929],[31.448750131,49.619016107],[31.447680253,49.619792047],[31.448057089,49.620011275]]]]},"id":"83"},{"type":"Feature","properties":{"id":"84"},"geometry":{"type":"MultiPolygon","coordinates":[[[[31.597225607,49.517884935],[31.596981403,49.51904111],[31.594868042,49.518908969],[31.594720437,49.51861595],[31.592951334,49.518218531],[31.592885356,49.518844326],[31.597226474,49.519119793],[31.597355769,49.517892468],[31.597225607,49.517884935]]]]},"id":"84"},{"type":"Feature","properties":{"id":"85"},"geometry":{"type":"MultiPolygon","coordinates":[[[[31.595696213,49.45104194],[31.595532212,49.450960003],[31.594078865,49.452442749],[31.594249324,49.452517904],[31.595696213,49.45104194]]]]},"id":"85"},{"type":"Feature","properties":{"id":"86"},"geometry":{"type":"MultiPolygon","coordinates":[[[[31.520838733,49.478678277],[31.520424969,49.478821679],[31.51984406,49.479191652],[31.519930586,49.47971901],[31.519372778,49.479242828],[31.518952798,49.478886348],[31.518192597,49.478235916],[31.517699007,49.477813708],[31.517576905,49.477709266],[31.516963088,49.477178944],[31.51665653,49.476914142],[31.516578117,49.476846485],[31.516115821,49.476461849],[31.515879514,49.47626544],[31.515756965,49.476163334],[31.515607963,49.47609984],[31.515402658,49.476105378],[31.514566452,49.476222236],[31.514043676,49.476295291],[31.514024748,49.476261405],[31.513973737,49.476169889],[31.513922865,49.476078463],[31.513871854,49.475986938],[31.51382083,49.475895512],[31.51376982,49.475803996],[31.51371881,49.475712471],[31.5136678,49.475620955],[31.513616915,49.475529618],[31.51356603,49.475438363],[31.513515283,49.475347386],[31.513464674,49.4752565],[31.513414066,49.475165793],[31.513363581,49.475075175],[31.513313111,49.474984567],[31.513289933,49.474942913],[31.513262641,49.47489359],[31.513212309,49.474802344],[31.513161853,49.474710827],[31.51311126,49.474619131],[31.513060528,49.474527255],[31.513009672,49.474435019],[31.512958679,49.474342685],[31.512907685,49.474250089],[31.51285643,49.474157215],[31.512805037,49.47406417],[31.512753643,49.473970847],[31.512701988,49.473877253],[31.512650195,49.47378348],[31.512598416,49.473689527],[31.512593088,49.473679862],[31.512546209,49.473595295],[31.512493741,49.473500883],[31.512441286,49.473406301],[31.512388555,49.47331135],[31.512335687,49.47321603],[31.512282695,49.473120539],[31.512229564,49.473024689],[31.512176158,49.47292847],[31.512122628,49.472831981],[31.512068836,49.472735133],[31.512015044,49.472638015],[31.511960852,49.472540537],[31.51190666,49.472442781],[31.511852192,49.472344664],[31.5117976,49.472246198],[31.511742747,49.472147353],[31.511697472,49.47206569],[31.511687755,49.472048158],[31.511632626,49.471948693],[31.511577372,49.47184877],[31.511521857,49.471748585],[31.511466065,49.471647943],[31.51141015,49.47154703],[31.511354097,49.471445659],[31.511297782,49.471343937],[31.511241191,49.471241847],[31.511184476,49.471139397],[31.511127485,49.471036497],[31.511070371,49.470933238],[31.511012981200526,49.470829582664265],[31.511012994,49.47082961],[31.510897565,49.470621095],[31.510839512,49.470516208],[31.510781198,49.470410962],[31.510663908,49.470199102],[31.510545694,49.469985535],[31.51048618,49.469878112],[31.510426404,49.46977015],[31.510366353,49.469661829],[31.510306191,49.469553058],[31.510283556,49.469512221],[31.51024825,49.469443046],[31.510191428,49.469331963],[31.510134356,49.469220153],[31.510057632,49.469069969],[31.510038378,49.469032217],[31.510019138,49.468994383],[31.509988084,49.468933695],[31.509964192,49.468879452],[31.509860632,49.468644061],[31.509807989,49.468524562],[31.509754823,49.468403805],[31.509701132,49.46828178],[31.509611804,49.468079151],[31.509569197,49.467982219],[31.509560652,49.467954536],[31.509521032,49.467825442],[31.509457601,49.467618271],[31.50938394,49.467378012],[31.509378168,49.467349375],[31.509351006,49.467211478],[31.509296558,49.466935424],[31.509269272,49.466796987],[31.509241986,49.46665838],[31.509214576,49.466519404],[31.509187166,49.466380068],[31.509159619,49.466240553],[31.509132085,49.466101127],[31.509104676,49.465961702],[31.509071384,49.46579292],[31.50904903,49.46568321],[31.509020793,49.465544136],[31.508992419,49.46540533],[31.508964307,49.465266624],[31.508936057,49.465128089],[31.508907945,49.464989742],[31.508879696,49.464851567],[31.508851709,49.46471349],[31.508823584,49.464575584],[31.508795597,49.464437866],[31.50876761,49.46430023],[31.50873961,49.464162693],[31.508711624,49.464025245],[31.508683624,49.463887878],[31.508655624,49.463750611],[31.508599915,49.463476246],[31.508571902,49.463339158],[31.508544041,49.46320216],[31.50851618,49.463065072],[31.508508531,49.463027507],[31.508488871,49.462927984],[31.508461838,49.462790716],[31.508434819,49.462653277],[31.508407648,49.46251583],[31.50838063,49.462378481],[31.508353597,49.462241213],[31.508326565,49.462104134],[31.50830529,49.461996141],[31.508308729,49.461935207],[31.508791043,49.461247987],[31.508862631,49.461146012],[31.509144932,49.461231515],[31.509614268,49.461373648],[31.510377706,49.461604894],[31.511212169,49.461857599],[31.51210675,49.462133561],[31.512498434,49.462254336],[31.512829267,49.462356432],[31.512990773,49.46240619],[31.513026142,49.462458552],[31.513029481,49.462463523],[31.513049679,49.46257816],[31.513058680002423,49.462629178997574],[31.513070857,49.4626982],[31.513092036,49.462818231],[31.513113215,49.462938451],[31.513134394,49.463058671],[31.513176738,49.463299282],[31.513197917,49.463419682],[31.51321922,49.463540172],[31.513229251,49.463597445],[31.513255482,49.463782087],[31.513272634,49.463903611],[31.513289924,49.464025324],[31.5133246,49.464269748],[31.513332216,49.464323757],[31.513333583,49.464330959],[31.513344912,49.464391937],[31.51336772,49.464513964],[31.513390377,49.464635901],[31.513413171,49.464757838],[31.51343598,49.464879784],[31.513458637,49.465001721],[31.513481446,49.465123658],[31.513504103,49.465245595],[31.513515929,49.46530918],[31.513526071,49.465367622],[31.513546935,49.465489811],[31.513567937,49.465612099],[31.513588939,49.465734477],[31.513609928,49.465857025],[31.513631068,49.465979583],[31.513652057,49.466102311],[31.513673184,49.466225228],[31.513694298,49.466348325],[31.513696633,49.466362459],[31.513751679,49.466466329],[31.51381295,49.46658186],[31.513873172,49.466695574],[31.513953989,49.466848219],[31.514013011,49.466959497],[31.514070046,49.467067169],[31.514200878,49.467037446],[31.514275743,49.467019023],[31.514264271,49.466992932],[31.514186758,49.467012057],[31.514095573,49.467032766],[31.513737315,49.466356511],[31.513557107,49.465306028],[31.51337338,49.464320875],[31.513270414,49.463594644],[31.513069912,49.462456407],[31.513022343,49.462386136],[31.511229765,49.461833204],[31.508842251,49.461110138],[31.508267606,49.461928925],[31.508263879,49.461997403],[31.508467479,49.463031025],[31.509030343,49.46579643],[31.509343008,49.46738234],[31.509528913,49.467988615],[31.509948601,49.468941718],[31.510244472,49.469521054],[31.511658511,49.472074883],[31.512554125,49.473688965],[31.51325097,49.474952116],[31.514017095,49.476326619],[31.515407924,49.476132217],[31.515596381,49.476127166],[31.515728547,49.476183505],[31.516545365,49.476862934],[31.517543876,49.477725527],[31.518919907,49.4789027],[31.519972664,49.479796489],[31.519889052,49.479206642],[31.52045063,49.478842534],[31.520854337,49.478704726],[31.520838733,49.478678277]]]]},"id":"86"},{"type":"Feature","properties":{"id":"87"},"geometry":{"type":"MultiPolygon","coordinates":[[[[31.61347336013192,49.460991132951655],[31.613473339,49.46099106],[31.613430568,49.460843375],[31.61343391766466,49.460844923594436],[31.613432765006962,49.460840896703495],[31.613250374793942,49.46076070258588],[31.612386703491154,49.46015401240066],[31.612209677696168,49.46029348207364],[31.613239645957883,49.46102220465953],[31.61347336013192,49.460991132951655]]]]},"id":"87"},{"type":"Feature","properties":{"id":"88"},"geometry":{"type":"MultiPolygon","coordinates":[[[[31.628630315,49.463253974],[31.628708604,49.463249976],[31.628821693,49.463244266],[31.628645164,49.461762133],[31.628453806,49.46177175],[31.628630315,49.463253974]]]]},"id":"88"},{"type":"Feature","properties":{"id":"89"},"geometry":{"type":"MultiPolygon","coordinates":[[[[31.629033691,49.46323352],[31.629194131,49.463225402],[31.629202917,49.46322496],[31.629152933799638,49.46280529037391],[31.629026380208995,49.4617428105456],[31.628836026,49.461752435],[31.62901256,49.463234586],[31.629033691,49.46323352]]]]},"id":"89"}]}