{"type":"FeatureCollection","name":"передано_Щигліївка_3","crs":{"type":"name","properties":{"name":"urn:ogc:def:crs:OGC:1.3:CRS84"}},"features":[{"type":"Feature","properties":{"id":"1","кадастр":"1822588700:09:000:0048","№":187,"район":"Коростишівський","н.п.":"Щигліївка","Фактична площа, га":4.5882,"Площа по обміну, га":3.19},"geometry":{"type":"MultiPolygon","coordinates":[[[[29.223902991,50.232608994],[29.22686294,50.239142061],[29.227222266,50.239176534],[29.227136926,50.239549988],[29.227931935,50.239664897],[29.224680034,50.232485449],[29.223916466,50.232606121],[29.223902991,50.232608994]]]]},"id":"1"},{"type":"Feature","properties":{"id":"2","кадастр":"1822588700:10:000:0017","№":177,"район":"Коростишівський","н.п.":"Щигліївка","Фактична площа, га":2.7726,"Площа по обміну, га":2.7726},"geometry":{"type":"MultiPolygon","coordinates":[[[[29.215153401,50.22281059],[29.209071806,50.225371012],[29.209094264,50.225649748],[29.209107739,50.22584515],[29.21085047,50.225198598],[29.215463319,50.223253142],[29.215355522,50.223097962],[29.215153401,50.22281059]]]]},"id":"2"},{"type":"Feature","properties":{"id":"3","кадастр":"1822588700:10:000:0062","№":179,"район":"Коростишівський","н.п.":"Щигліївка","Фактична площа, га":5.78297,"Площа по обміну, га":5.78},"geometry":{"type":"MultiPolygon","coordinates":[[[[29.20458023,50.227529017],[29.205478545,50.227195697],[29.205469562,50.227014668],[29.205146168,50.220862163],[29.204229887,50.220850667],[29.204571247,50.227350863],[29.20458023,50.227529017]]]]},"id":"3"},{"type":"Feature","properties":{"id":"4","кадастр":"1822588700:10:000:0256","№":180,"район":"Коростишівський","н.п.":"Щигліївка","Фактична площа, га":1.796,"Площа по обміну, га":1.796},"geometry":{"type":"MultiPolygon","coordinates":[[[[29.208546292,50.226052044],[29.209049348,50.225865264],[29.208757396,50.222178366],[29.208690022,50.220911018],[29.208281289,50.22090527],[29.208546292,50.226052044]]]]},"id":"4"},{"type":"Feature","properties":{"id":"5","кадастр":"1822588700:10:000:0016","№":176,"район":"Коростишівський","н.п.":"Щигліївка","Фактична площа, га":2.1934,"Площа по обміну, га":2.1934},"geometry":{"type":"MultiPolygon","coordinates":[[[[29.20794442,50.220856415],[29.208685531,50.220865037],[29.208308238,50.216577067],[29.207760266,50.216574193],[29.20794442,50.220856415]]]]},"id":"5"},{"type":"Feature","properties":{"id":"6","кадастр":"1822588700:10:000:0043","№":178,"район":"Коростишівський","н.п.":"Щигліївка","Фактична площа, га":4.9061,"Площа по обміну, га":4.9061},"geometry":{"type":"MultiPolygon","coordinates":[[[[29.207733316,50.212981429],[29.20788603,50.216528208],[29.20837112,50.216528208],[29.208425019,50.217146136],[29.209781475,50.217149011],[29.209646728,50.214001802],[29.207841114,50.213406826],[29.207733316,50.212981429]]]]},"id":"6"},{"type":"Feature","properties":{"id":"7","кадастр":"1822588700:10:000:1016","№":181,"район":"Коростишівський","н.п.":"Щигліївка","Фактична площа, га":1.9192,"Площа по обміну, га":1.1192},"geometry":{"type":"MultiPolygon","coordinates":[[[[29.20871248,50.220373607],[29.209485031,50.220048858],[29.209233503,50.217192122],[29.208429511,50.217192122],[29.20871248,50.220373607]]]]},"id":"7"},{"type":"Feature","properties":{"id":"8","кадастр":"1822588700:11:000:0159","№":182,"район":"Коростишівський","н.п.":"Щигліївка","Фактична площа, га":7.1763,"Площа по обміну, га":0.55},"geometry":{"type":"MultiPolygon","coordinates":[[[[29.18514967,50.215415916],[29.18324075,50.216562697],[29.18480831,50.217663466],[29.185059839,50.217600237],[29.18554942,50.217468031],[29.185657218,50.217442165],[29.185904255,50.21751689],[29.185985103,50.217620355],[29.185998578,50.217738191],[29.185953662,50.217896263],[29.185836881,50.218045712],[29.185657218,50.218160672],[29.185621286,50.218226774],[29.185612302,50.21835323],[29.185594336,50.218456694],[29.185504505,50.21852567],[29.185306875,50.218542913],[29.185252976,50.218726848],[29.185733575,50.218580275],[29.186110867,50.21843945],[29.186582483,50.218154924],[29.187188846,50.217738191],[29.187247236,50.217485275],[29.187471815,50.217149011],[29.187822158,50.216778254],[29.188136568,50.216479348],[29.188441996,50.216344265],[29.188666574,50.216344265],[29.188936069,50.216418992],[29.189129207,50.216281034],[29.18896751,50.216212055],[29.188720473,50.216010866],[29.188585726,50.215864285],[29.188590218,50.215852788],[29.187476307,50.215162988],[29.186955284,50.215637226],[29.185899763,50.215907397],[29.185742558,50.215898774],[29.18574705,50.215855662],[29.185773999,50.215617107],[29.18514967,50.215415916]]]]},"id":"8"},{"type":"Feature","properties":{"id":"9","кадастр":"1822588700:06:000:0024","№":170,"район":"Коростишівський","н.п.":"Щигліївка","Фактична площа, га":5.1352,"Площа по обміну, га":5.0},"geometry":{"type":"MultiPolygon","coordinates":[[[[29.181807937,50.213018795],[29.17754094,50.215594114],[29.178317982,50.21609709],[29.178843497,50.216246544],[29.184026776,50.21312227],[29.182832017,50.213438444],[29.181807937,50.213018795]]]]},"id":"9"},{"type":"Feature","properties":{"id":"10","кадастр":"1822588700:07:000:0029","№":172,"район":"Коростишівський","н.п.":"Щигліївка","Фактична площа, га":3.4859,"Площа по обміну, га":3.4859},"geometry":{"type":"MultiPolygon","coordinates":[[[[29.272151505,50.202457384],[29.266640341,50.20713183],[29.267053566,50.207402048],[29.272537781,50.203132993],[29.272151505,50.202457384]]]]},"id":"10"},{"type":"Feature","properties":{"id":"11","кадастр":"1822588700:07:000:0051","№":173,"район":"Коростишівський","н.п.":"Щигліївка","Фактична площа, га":3.8401,"Площа по обміну, га":2.35},"geometry":{"type":"MultiPolygon","coordinates":[[[[29.273027363,50.19377711],[29.267767727,50.199013065],[29.268423497,50.199340833],[29.273022871,50.194763388],[29.273027363,50.19377711]]]]},"id":"11"},{"type":"Feature","properties":{"id":"12","кадастр":"1822588700:07:000:0379","№":174,"район":"Коростишівський","н.п.":"Щигліївка","Фактична площа, га":3.9352,"Площа по обміну, га":1.63},"geometry":{"type":"MultiPolygon","coordinates":[[[[29.273031854,50.192882828],[29.267260179,50.198624917],[29.267251195,50.198731299],[29.267287128,50.198774426],[29.267767727,50.199013065],[29.273027363,50.19377711],[29.273031854,50.192882828]]]]},"id":"12"},{"type":"Feature","properties":{"id":"13","кадастр":"1822588700:12:000:0037","№":183,"район":"Коростишівський","н.п.":"Щигліївка","Фактична площа, га":5.2469,"Площа по обміну, га":5.2469},"geometry":{"type":"MultiPolygon","coordinates":[[[[29.224347658,50.193710974],[29.223817651,50.19802975],[29.225371737,50.19796362],[29.225784962,50.194587987],[29.225726571,50.193673593],[29.22523699,50.193659215],[29.224347658,50.193710974]]]]},"id":"13"},{"type":"Feature","properties":{"id":"14","кадастр":"1822588700:06:000:0394","№":171,"район":"Коростишівський","н.п.":"Щигліївка","Фактична площа, га":3.3376,"Площа по обміну, га":1.82},"geometry":{"type":"MultiPolygon","coordinates":[[[[29.264830236,50.177427228],[29.263136911,50.182104125],[29.263909463,50.18236298],[29.265728551,50.177338058],[29.264830236,50.177427228]]]]},"id":"14"},{"type":"Feature","properties":{"id":"15","кадастр":"1822588700:13:000:0040","№":186,"район":"Коростишівський","н.п.":"Щигліївка","Фактична площа, га":4.4697,"Площа по обміну, га":4.24},"geometry":{"type":"MultiPolygon","coordinates":[[[[29.249100735,50.187002007],[29.248898614,50.188580841],[29.249478028,50.188583717],[29.249464553,50.188396791],[29.249743031,50.188388163],[29.249756505,50.18857509],[29.250371851,50.188638357],[29.250389818,50.188549208],[29.250946773,50.18859522],[29.252083142,50.188730382],[29.252074159,50.188776395],[29.252402044,50.18881378],[29.25310273,50.187303974],[29.249100735,50.187002007]]]]},"id":"15"},{"type":"Feature","properties":{"id":"16","кадастр":"1822588700:13:000:0024","№":185,"район":"Коростишівський","н.п.":"Щигліївка","Фактична площа, га":2.5589,"Площа по обміну, га":0.22},"geometry":{"type":"MultiPolygon","coordinates":[[[[29.252267297,50.177956494],[29.252047209,50.179084041],[29.251921445,50.179532751],[29.251876529,50.179852023],[29.252518825,50.179981457],[29.252738912,50.177789661],[29.252267297,50.177956494]]]]},"id":"16"},{"type":"Feature","properties":{"id":"17","кадастр":"1822588700:12:000:0060","№":184,"район":"Коростишівський","н.п.":"Щигліївка","Фактична площа, га":5.473895,"Площа по обміну, га":5.2},"geometry":{"type":"MultiPolygon","coordinates":[[[[29.237384,50.204248],[29.238969,50.204739],[29.239297,50.201209],[29.237761,50.200157],[29.237384,50.204248]]]]},"id":"17"},{"type":"Feature","properties":{"id":"18","кадастр":"1822588700:08:000:0213","№":175,"район":"Коростишівський","н.п.":"Щигліївка","Фактична площа, га":3.601851,"Площа по обміну, га":3.31},"geometry":{"type":"MultiPolygon","coordinates":[[[[29.242311,50.228971],[29.243079,50.229086],[29.244386,50.223304],[29.243596,50.223304],[29.242311,50.228971]]]]},"id":"18"}]}