{"type":"FeatureCollection","name":"передано_Голубівка_7","crs":{"type":"name","properties":{"name":"urn:ogc:def:crs:OGC:1.3:CRS84"}},"features":[{"type":"Feature","properties":{"id":"1","кадастр":"1822583600:13:000:0083","№":169,"район":"Коростишівський","н.п.":"Голубівка","Фактична площа, га":4.6745,"Площа по обміну, га":0.11},"geometry":{"type":"MultiPolygon","coordinates":[[[[29.251719324,50.254548966],[29.251669917,50.255490912],[29.257980582,50.255511015],[29.257899733,50.254566197],[29.251719324,50.254548966]]]]},"id":"1"}]}