{"type":"FeatureCollection","name":"понятійні_205га_6","crs":{"type":"name","properties":{"name":"urn:ogc:def:crs:OGC:1.3:CRS84"}},"features":[{"type":"Feature","properties":{"id":"1"},"geometry":{"type":"MultiPolygon","coordinates":[[[[31.402165889739937,49.65748863779845],[31.40510559082026,49.65689133224868],[31.404848098754826,49.65639125684776],[31.404848098754826,49.656363474730384],[31.40190839767451,49.65696078675904],[31.402165889739937,49.65748863779845]]]]},"id":"1"},{"type":"Feature","properties":{"id":"2"},"geometry":{"type":"MultiPolygon","coordinates":[[[[31.402423381805367,49.65801648311232],[31.405363082885685,49.657433074800764],[31.40512704849238,49.65694689586491],[31.40510559082026,49.65689133224868],[31.402165889739937,49.65748863779845],[31.402401924133244,49.65796092071733],[31.402423381805367,49.65801648311232]]]]},"id":"2"},{"type":"Feature","properties":{"id":"3"},"geometry":{"type":"MultiPolygon","coordinates":[[[[31.39637231826777,49.64801422996755],[31.399204730987496,49.64769467966714],[31.399097442626896,49.647250084455415],[31.39727354049677,49.647458488966485],[31.395943164825383,49.64761131837423],[31.39637231826777,49.64801422996755]]]]},"id":"3"},{"type":"Feature","properties":{"id":"4"},"geometry":{"type":"MultiPolygon","coordinates":[[[[31.439116001129097,49.62616883365202],[31.440467834472603,49.62573794168224],[31.440467834472603,49.62572404187783],[31.44031763076777,49.62552944419965],[31.438965797424263,49.6259742377505],[31.439116001129097,49.62616883365202]]]]},"id":"4"},{"type":"Feature","properties":{"id":"5"},"geometry":{"type":"MultiPolygon","coordinates":[[[[31.44179821014399,49.629629730905954],[31.443150043487492,49.62918497073059],[31.44297838211054,49.628962589120086],[31.441626548767037,49.62940735132588],[31.44179821014399,49.629629730905954]]]]},"id":"5"},{"type":"Feature","properties":{"id":"6"},"geometry":{"type":"MultiPolygon","coordinates":[[[[31.441626548767037,49.62940735132588],[31.44297838211054,49.628962589120086],[31.44295692443842,49.62894869023572],[31.442806720733586,49.62874020649437],[31.441454887390083,49.62918497073059],[31.441626548767037,49.62940735132588]]]]},"id":"6"},{"type":"Feature","properties":{"id":"7"},"geometry":{"type":"MultiPolygon","coordinates":[[[[31.583375930786076,49.54996687778108],[31.58346176147455,49.54938217512287],[31.58075809478754,49.54904805617594],[31.58075809478754,49.54915942941217],[31.581230163574162,49.549577076786555],[31.58131599426264,49.54971629178453],[31.583375930786076,49.54996687778108]]]]},"id":"7"},{"type":"Feature","properties":{"id":"8"},"geometry":{"type":"MultiPolygon","coordinates":[[[[31.589770317077583,49.547405271447325],[31.589941978454537,49.546402867187034],[31.590156555175724,49.545344751487775],[31.589341163635197,49.54526121506181],[31.58899784088129,49.545205524031815],[31.588654518127385,49.547266049863325],[31.589770317077583,49.547405271447325]],[[31.589856147766056,49.54590165734402],[31.589255332946724,49.545818121870276],[31.589341163635197,49.545567514592044],[31.589941978454537,49.5456232052094],[31.589856147766056,49.54590165734402]]]]},"id":"8"},{"type":"Feature","properties":{"id":"9"},"geometry":{"type":"MultiPolygon","coordinates":[[[[31.43503904342646,49.61989967487794],[31.43561840057368,49.6187041339575],[31.43533945083613,49.618648526689206],[31.434760093688908,49.61985797045587],[31.43503904342646,49.61989967487794]]]]},"id":"9"},{"type":"Feature","properties":{"id":"10"},"geometry":{"type":"MultiPolygon","coordinates":[[[[31.547586363,49.55478715],[31.547168301,49.554452194],[31.54522126122236,49.55588648285607],[31.545171026,49.555923692],[31.545184761,49.555935052],[31.545581795,49.55626417],[31.547586363,49.55478715]]]]},"id":"10"},{"type":"Feature","properties":{"id":"11"},"geometry":{"type":"MultiPolygon","coordinates":[[[[31.564650388168353,49.561217863441065],[31.56692316697895,49.55998246854673],[31.566671859448405,49.559780384612374],[31.56642899558314,49.55958502183257],[31.56415650115507,49.560820319477216],[31.564650388168353,49.561217863441065]]]]},"id":"11"},{"type":"Feature","properties":{"id":"12"},"geometry":{"type":"MultiPolygon","coordinates":[[[[31.573458964162956,49.531060029893936],[31.575263520811227,49.53103023345678],[31.575361286623156,49.52980234649353],[31.57537844146446,49.5295886692014],[31.573575377690574,49.52960076630917],[31.573458964162956,49.531060029893936]]]]},"id":"12"},{"type":"Feature","properties":{"id":"13"},"geometry":{"type":"MultiPolygon","coordinates":[[[[31.615771555601125,49.496123413860346],[31.61590917091753,49.496131838936265],[31.617012034041164,49.49619888880704],[31.617510396284736,49.49622049585545],[31.617562900589117,49.49583408690067],[31.617074848188057,49.49580743369066],[31.61596138351117,49.49576997494482],[31.615820666263044,49.49576521268252],[31.615771555601125,49.496123413860346]]]]},"id":"13"},{"type":"Feature","properties":{"id":"14"},"geometry":{"type":"MultiPolygon","coordinates":[[[[31.482011561638995,49.50914904888947],[31.483596088674727,49.509099955092566],[31.483608008685955,49.50898452004213],[31.482023623445496,49.50903361524247],[31.482017589750726,49.50909146691318],[31.482011561638995,49.50914904888947]]]]},"id":"14"},{"type":"Feature","properties":{"id":"15"},"geometry":{"type":"MultiPolygon","coordinates":[[[[31.591167204901897,49.449527150847565],[31.591649615936806,49.44903506236867],[31.59126221577551,49.448841578652086],[31.590743114431287,49.449371141168776],[31.59109884064749,49.44949514327633],[31.591167204901897,49.449527150847565]]]]},"id":"15"},{"type":"Feature","properties":{"id":"16"},"geometry":{"type":"MultiPolygon","coordinates":[[[[31.560630798339783,49.50994036306433],[31.56500816345209,49.509884631783486],[31.565051078796326,49.50949451103961],[31.56067371368403,49.50955024276493],[31.560630798339783,49.509856766119235],[31.560630798339783,49.50994036306433]]]]},"id":"16"},{"type":"Feature","properties":{"id":"17"},"geometry":{"type":"MultiPolygon","coordinates":[[[[31.58843994140619,49.502639024617544],[31.588611602783143,49.50110616251774],[31.58762454986567,49.50105042117293],[31.58740997314447,49.50258328501887],[31.58843994140619,49.502639024617544]]]]},"id":"17"},{"type":"Feature","properties":{"id":"18"},"geometry":{"type":"MultiPolygon","coordinates":[[[[31.479477882385197,49.51033048025258],[31.479735374450623,49.5103026148423],[31.479821205139103,49.50943877925081],[31.479349136352482,49.509466645153154],[31.47926330566401,49.51033048025258],[31.479477882385197,49.51033048025258]]]]},"id":"18"},{"type":"Feature","properties":{"id":"19"},"geometry":{"type":"MultiPolygon","coordinates":[[[[31.6067218780517,49.5120023758206],[31.606807708740174,49.51147294840668],[31.605391502380318,49.51141721887188],[31.60388946533197,49.51141721887188],[31.603803634643498,49.51194664688898],[31.6067218780517,49.5120023758206]]]]},"id":"19"},{"type":"Feature","properties":{"id":"20"},"geometry":{"type":"MultiPolygon","coordinates":[[[[31.606206893920845,49.51573606960387],[31.606292724609318,49.515206682602674],[31.60337448120111,49.51515095732185],[31.603331565856877,49.51551317051229],[31.60328865051264,49.51568034492621],[31.606206893920845,49.51573606960387]]]]},"id":"20"},{"type":"Feature","properties":{"id":"21"},"geometry":{"type":"MultiPolygon","coordinates":[[[[31.479735374450623,49.5103026148423],[31.47986412048334,49.510274749416155],[31.480250358581483,49.51024688397415],[31.480336189269963,49.5093830473985],[31.479821205139103,49.50943877925081],[31.479735374450623,49.5103026148423]]]]},"id":"21"},{"type":"Feature","properties":{"id":"22"},"geometry":{"type":"MultiPolygon","coordinates":[[[[31.522049903869572,49.49109957386664],[31.524195671081486,49.490960191890686],[31.52415275573725,49.490876562514615],[31.524109840393013,49.49082080951787],[31.521964073181096,49.490960191890686],[31.522049903869572,49.49109957386664]]]]},"id":"22"},{"type":"Feature","properties":{"id":"23"},"geometry":{"type":"MultiPolygon","coordinates":[[[[31.49213790893549,49.50982890043912],[31.49213790893549,49.50966170602509],[31.490507125854435,49.50955024276493],[31.490507125854435,49.50971743755993],[31.49213790893549,49.50982890043912]]]]},"id":"23"},{"type":"Feature","properties":{"id":"24"},"geometry":{"type":"MultiPolygon","coordinates":[[[[31.482095718383732,49.50846346266856],[31.483683586120545,49.50840772970512],[31.483683586120545,49.50824053043381],[31.48213863372797,49.50826839701871],[31.482095718383732,49.508379863199586],[31.482095718383732,49.50846346266856]]]]},"id":"24"},{"type":"Feature","properties":{"id":"25"},"geometry":{"type":"MultiPolygon","coordinates":[[[[31.493768692016545,49.50846346266856],[31.493811607360783,49.50824053043381],[31.492309570312443,49.50824053043381],[31.492309570312443,49.50826839701871],[31.49226665496821,49.50843559619478],[31.493768692016545,49.50846346266856]]]]},"id":"25"},{"type":"Feature","properties":{"id":"26"},"geometry":{"type":"MultiPolygon","coordinates":[[[[31.480379104614197,49.50966170602509],[31.481966972351017,49.50960597442675],[31.482009887695256,49.50935518144854],[31.480422019958436,49.50941091333259],[31.480379104614197,49.50966170602509]]]]},"id":"26"},{"type":"Feature","properties":{"id":"27"},"geometry":{"type":"MultiPolygon","coordinates":[[[[31.59813880920405,49.43592908419165],[31.59822463989252,49.43590117642268],[31.599383354186955,49.43537092579528],[31.599469184875435,49.435343017708725],[31.59998416900629,49.435091844215115],[31.599383354186955,49.4346732188674],[31.599297523498482,49.43464531038385],[31.599168777465763,49.434756944222784],[31.59861087799067,49.435008119431416],[31.598267555236763,49.435091844215115],[31.59813880920405,49.43592908419165]]]]},"id":"27"},{"type":"Feature","properties":{"id":"28"},"geometry":{"type":"MultiPolygon","coordinates":[[[[31.481881141662544,49.5107484595018],[31.483469009399364,49.51069272914159],[31.483469009399364,49.51049767238084],[31.481881141662544,49.51055340296329],[31.481881141662544,49.5107484595018]]]]},"id":"28"},{"type":"Feature","properties":{"id":"29"},"geometry":{"type":"MultiPolygon","coordinates":[[[[31.592353689,49.51885572],[31.591723291,49.518815705],[31.591460504,49.521325191],[31.59198328341157,49.52135838069797],[31.592090948,49.521365216],[31.592353689,49.51885572]]]]},"id":"29"},{"type":"Feature","properties":{"id":"30"},"geometry":{"type":"MultiPolygon","coordinates":[[[[31.649195,49.443709],[31.651759,49.44252],[31.651464,49.442249],[31.650547,49.442674],[31.650029,49.442914],[31.648589,49.443582],[31.649195,49.443709]]]]},"id":"30"},{"type":"Feature","properties":{"id":"31"},"geometry":{"type":"MultiPolygon","coordinates":[[[[31.448139819,49.627845425],[31.446864556,49.62826325],[31.447033184,49.628480407],[31.448308576,49.628062661],[31.448243652,49.627979078],[31.448139819,49.627845425]]]]},"id":"31"},{"type":"Feature","properties":{"id":"32"},"geometry":{"type":"MultiPolygon","coordinates":[[[[31.444099877,49.630409464],[31.444172288,49.630502619],[31.444270076,49.630628648],[31.445683533,49.630165738],[31.445411374,49.6299799],[31.444099877,49.630409464]]]]},"id":"32"},{"type":"Feature","properties":{"id":"33"},"geometry":{"type":"MultiPolygon","coordinates":[[[[31.546993,49.544143],[31.549015,49.543143],[31.548837,49.542999],[31.548715,49.5429],[31.546697,49.543898],[31.546993,49.544143]]]]},"id":"33"},{"type":"Feature","properties":{"id":"34"},"geometry":{"type":"MultiPolygon","coordinates":[[[[31.559406227,49.526744112],[31.560288146,49.526738344],[31.560434312,49.525410334],[31.5595875,49.52541586],[31.559552403,49.525416112],[31.559406227,49.526744112]]]]},"id":"34"},{"type":"Feature","properties":{"id":"35"},"geometry":{"type":"MultiPolygon","coordinates":[[[[31.525280722,49.488427533],[31.52761188,49.488011718],[31.527546867,49.487899954],[31.525206315,49.488317388],[31.525280722,49.488427533]]]]},"id":"35"},{"type":"Feature","properties":{"id":"36"},"geometry":{"type":"MultiPolygon","coordinates":[[[[31.636504742,49.471504628],[31.636719334,49.471506686],[31.637695103,49.470133059],[31.637463613,49.470154814],[31.636504742,49.471504628]]]]},"id":"36"},{"type":"Feature","properties":{"id":"37"},"geometry":{"type":"MultiPolygon","coordinates":[[[[31.546054946,49.449390988],[31.545543693,49.449455909],[31.545617749,49.449633377],[31.546547221,49.449515807],[31.547489397,49.449347523],[31.54930741,49.449025921],[31.54901285,49.448635895],[31.546054946,49.449390988]]]]},"id":"37"},{"type":"Feature","properties":{"id":"38"},"geometry":{"type":"MultiPolygon","coordinates":[[[[31.550682175,49.55349798],[31.55148514,49.554154646],[31.553532337,49.552597212],[31.552730903,49.55193931],[31.550682175,49.55349798]]]]},"id":"38"},{"type":"Feature","properties":{"id":"39"},"geometry":{"type":"MultiPolygon","coordinates":[[[[31.540146381,49.450322553],[31.541116349,49.450129971],[31.540791519,49.449853163],[31.538293965,49.450061206],[31.538930935,49.450604033],[31.540146381,49.450322553]]]]},"id":"39"},{"type":"Feature","properties":{"id":"40"},"geometry":{"type":"MultiPolygon","coordinates":[[[[31.44589153,49.630070387],[31.44664642,49.629823162],[31.446612848686332,49.62978003807771],[31.44660472869868,49.62978261627837],[31.44643928443419,49.62955638432334],[31.446405209,49.629512474],[31.446369783,49.629466837],[31.445448431,49.629768646],[31.44589153,49.630070387]]]]},"id":"40"},{"type":"Feature","properties":{"id":"41"},"geometry":{"type":"MultiPolygon","coordinates":[[[[31.416831279,49.639930423],[31.415420723,49.639941131],[31.415466313,49.642373203],[31.41636287,49.642526082],[31.416831279,49.639930423]]]]},"id":"41"},{"type":"Feature","properties":{"id":"42"},"geometry":{"type":"MultiPolygon","coordinates":[[[[31.408513305,49.643567912],[31.411944173,49.643170723],[31.411797835,49.642637877],[31.41139047,49.642632521],[31.410646294,49.642631138],[31.409715056,49.64270209],[31.408296707,49.64277913],[31.408393185,49.643130566],[31.408513305,49.643567912]]]]},"id":"42"},{"type":"Feature","properties":{"id":"43"},"geometry":{"type":"MultiPolygon","coordinates":[[[[31.363867763,49.645503894],[31.364368711,49.645895636],[31.366335839,49.644834833],[31.36587483,49.644474245],[31.365834984,49.644443126],[31.363867763,49.645503894]]]]},"id":"43"},{"type":"Feature","properties":{"id":"44"},"geometry":{"type":"MultiPolygon","coordinates":[[[[31.448463679,49.630323054],[31.448645426,49.630557216],[31.44992072,49.630139426],[31.449822379,49.630012673],[31.449738969,49.629905248],[31.448463679,49.630323054]]]]},"id":"44"},{"type":"Feature","properties":{"id":"45"},"geometry":{"type":"MultiPolygon","coordinates":[[[[31.604574826,49.532785938],[31.604551252,49.532964676],[31.60449701,49.53337777],[31.607487442,49.533350079],[31.607565221,49.532758244],[31.604574826,49.532785938]]]]},"id":"45"},{"type":"Feature","properties":{"id":"46"},"geometry":{"type":"MultiPolygon","coordinates":[[[[31.611004931,49.441108469],[31.610239658,49.441260568],[31.610822992,49.442507952],[31.611588296,49.442355768],[31.611004931,49.441108469]]]]},"id":"46"},{"type":"Feature","properties":{"id":"47"},"geometry":{"type":"MultiPolygon","coordinates":[[[[31.596452929,49.535628949],[31.596497078,49.535317387],[31.596951147,49.535342067],[31.596914094,49.535643167],[31.597839441,49.535673401],[31.597924673,49.535066164],[31.595201393,49.534821192],[31.595076115,49.535583215],[31.596452929,49.535628949]]]]},"id":"47"},{"type":"Feature","properties":{"id":"48"},"geometry":{"type":"MultiPolygon","coordinates":[[[[31.552335352,49.54071666],[31.552590178,49.540527956],[31.55234156,49.540331072],[31.552056868,49.540105845],[31.551692294,49.539817203],[31.551124832,49.539368103],[31.550870007,49.539556804],[31.552335352,49.54071666]]]]},"id":"48"},{"type":"Feature","properties":{"id":"49"},"geometry":{"type":"MultiPolygon","coordinates":[[[[31.576038471,49.564140458],[31.576641838,49.56462604],[31.578508431,49.563611144],[31.578341372,49.563467659],[31.577928247,49.563112896],[31.576038471,49.564140458]]]]},"id":"49"},{"type":"Feature","properties":{"id":"50"},"geometry":{"type":"MultiPolygon","coordinates":[[[[31.627835766,49.467677346],[31.627590256,49.467689791],[31.627736028,49.468913998],[31.627981545,49.468901553],[31.627835766,49.467677346]]]]},"id":"50"},{"type":"Feature","properties":{"id":"51"},"geometry":{"type":"MultiPolygon","coordinates":[[[[31.602351364,49.45217657],[31.602679382,49.452340335],[31.603299981,49.451707021],[31.60293866,49.451577257],[31.602351364,49.45217657]]]]},"id":"51"},{"type":"Feature","properties":{"id":"52"},"geometry":{"type":"MultiPolygon","coordinates":[[[[31.58221738,49.542402426],[31.582048575,49.543345079],[31.582633753,49.543418688],[31.583043367,49.543629544],[31.583159043,49.54370941],[31.583369179,49.542535995],[31.583124946,49.542510411],[31.58221738,49.542402426]]]]},"id":"52"},{"type":"Feature","properties":{"id":"53"},"geometry":{"type":"MultiPolygon","coordinates":[[[[31.620597467,49.513730951],[31.620696952,49.512911425],[31.620745148,49.512479933],[31.618496374,49.512541226],[31.618462159,49.512823108],[31.61834448,49.51379247],[31.620597467,49.513730951]]]]},"id":"53"},{"type":"Feature","properties":{"id":"54"},"geometry":{"type":"MultiPolygon","coordinates":[[[[31.566755828,49.442174978],[31.566767251,49.442169137],[31.567461247,49.44180555],[31.566664165,49.440442469],[31.565885444,49.440686326],[31.566755828,49.442174978]]]]},"id":"54"},{"type":"Feature","properties":{"id":"55"},"geometry":{"type":"MultiPolygon","coordinates":[[[[31.619375843,49.460572954],[31.619299887,49.459545643],[31.618734442,49.459570204],[31.618811043,49.460607054],[31.619274484,49.46057893],[31.619375843,49.460572954]]]]},"id":"55"},{"type":"Feature","properties":{"id":"56"},"geometry":{"type":"MultiPolygon","coordinates":[[[[31.538644708,49.544738393],[31.538201334,49.544376762],[31.536005863,49.545498307],[31.536452864,49.545858182],[31.538644708,49.544738393]]]]},"id":"56"},{"type":"Feature","properties":{"id":"57"},"geometry":{"type":"MultiPolygon","coordinates":[[[[31.549051274,49.546541722],[31.548830691,49.546650769],[31.550271031,49.547818897],[31.55045747,49.547682052],[31.549051274,49.546541722]]]]},"id":"57"},{"type":"Feature","properties":{"id":"58"},"geometry":{"type":"MultiPolygon","coordinates":[[[[31.620110125,49.458404892],[31.620189606,49.459479969],[31.620462776,49.459468105],[31.620384288,49.458406451],[31.620110125,49.458404892]]]]},"id":"58"},{"type":"Feature","properties":{"id":"59"},"geometry":{"type":"MultiPolygon","coordinates":[[[[31.647433482,49.441760598],[31.647905464,49.441541777],[31.646513707,49.440265322],[31.646486113,49.440278125],[31.646041731,49.440484146],[31.647433482,49.441760598]]]]},"id":"59"},{"type":"Feature","properties":{"id":"60"},"geometry":{"type":"MultiPolygon","coordinates":[[[[31.552373818,49.446334186],[31.552613377,49.446254325],[31.552118226,49.445242136],[31.551865805,49.44529563],[31.552373818,49.446334186]]]]},"id":"60"},{"type":"Feature","properties":{"id":"61"},"geometry":{"type":"MultiPolygon","coordinates":[[[[31.523110709,49.499383638],[31.525181839,49.499728959],[31.525233454,49.499590205],[31.523188203,49.49924933],[31.523110709,49.499383638]]]]},"id":"61"},{"type":"Feature","properties":{"id":"62"},"geometry":{"type":"MultiPolygon","coordinates":[[[[31.620374715,49.465399366],[31.620765967,49.466237368],[31.620988424,49.46619325],[31.621218148,49.466147694],[31.621276365,49.466136142],[31.620885105,49.465298141],[31.620374715,49.465399366]]]]},"id":"62"},{"type":"Feature","properties":{"id":"63"},"geometry":{"type":"MultiPolygon","coordinates":[[[[31.616765411,49.510034103],[31.616592432,49.511458106],[31.61862974,49.51144338],[31.618649021,49.511284675],[31.618804434,49.510004735],[31.617245313,49.510030913],[31.616765411,49.510034103]]]]},"id":"63"},{"type":"Feature","properties":{"id":"64"},"geometry":{"type":"MultiPolygon","coordinates":[[[[31.630917741,49.530470437],[31.631220818,49.528444535],[31.62995524,49.528459564],[31.629652584,49.530481776],[31.630838853,49.530471101],[31.630917741,49.530470437]]]]},"id":"64"},{"type":"Feature","properties":{"id":"65"},"geometry":{"type":"MultiPolygon","coordinates":[[[[31.549623083,49.539513205],[31.549953751,49.539774958],[31.551133591,49.538901341],[31.550702142,49.538714199],[31.549623083,49.539513205]]]]},"id":"65"},{"type":"Feature","properties":{"id":"66"},"geometry":{"type":"MultiPolygon","coordinates":[[[[31.618194593,49.455148751],[31.618160928,49.454620762],[31.615626803,49.455124681],[31.615855682,49.455613848],[31.618194593,49.455148751]]]]},"id":"66"},{"type":"Feature","properties":{"id":"67"},"geometry":{"type":"MultiPolygon","coordinates":[[[[31.524637143,49.492216234],[31.524692406,49.492653205],[31.525239189,49.492626914],[31.525261535,49.49262584],[31.524714778,49.491814318],[31.524525295,49.491847554],[31.524637143,49.492216234]]]]},"id":"67"},{"type":"Feature","properties":{"id":"68"},"geometry":{"type":"MultiPolygon","coordinates":[[[[31.631124457,49.46312772],[31.631274538,49.463120123],[31.631316855,49.46311798],[31.631140265,49.461635833],[31.63094786,49.461645572],[31.631124457,49.46312772]]]]},"id":"68"},{"type":"Feature","properties":{"id":"69"},"geometry":{"type":"MultiPolygon","coordinates":[[[[31.635604434,49.459808963],[31.635790979,49.4613733],[31.635964625,49.461364509],[31.635778032,49.459799634],[31.635604434,49.459808963]]]]},"id":"69"},{"type":"Feature","properties":{"id":"70"},"geometry":{"type":"MultiPolygon","coordinates":[[[[31.622816652,49.466303511],[31.622223310230137,49.46503277718433],[31.622223291,49.465032736],[31.622144723,49.46504832],[31.622746918,49.466338022],[31.622816652,49.466303511]]]]},"id":"70"},{"type":"Feature","properties":{"id":"71"},"geometry":{"type":"MultiPolygon","coordinates":[[[[31.632315097,49.454491613],[31.632407327,49.454650644],[31.632359264,49.454841719],[31.632280331,49.455047935],[31.632313004,49.45506793],[31.632993198417893,49.454351056990966],[31.632993206,49.454351049],[31.632610831,49.454213992],[31.63247805,49.454156681],[31.632145259,49.454507406],[31.632315097,49.454491613]]]]},"id":"71"},{"type":"Feature","properties":{"id":"72"},"geometry":{"type":"MultiPolygon","coordinates":[[[[31.652400155,49.45336609],[31.65240457810256,49.453739051804966],[31.652404523,49.453739052],[31.655520221,49.453728024],[31.65552136,49.453355046],[31.652400155,49.45336609]]]]},"id":"72"},{"type":"Feature","properties":{"id":"73"},"geometry":{"type":"MultiPolygon","coordinates":[[[[31.517146356,49.471697757],[31.517074241,49.471585467],[31.514618294,49.472025003],[31.514678947,49.472117048],[31.514692074,49.472137034],[31.517146356,49.471697757]]]]},"id":"73"},{"type":"Feature","properties":{"id":"74"},"geometry":{"type":"MultiPolygon","coordinates":[[[[31.562839889,49.499372381],[31.56217293,49.500183388],[31.566275132,49.500130923],[31.566383607,49.499327064],[31.562839889,49.499372381]]]]},"id":"74"},{"type":"Feature","properties":{"id":"75"},"geometry":{"type":"MultiPolygon","coordinates":[[[[31.547210896,49.51576358],[31.546742395,49.515767267],[31.546557515,49.517116344],[31.546411565,49.518181426],[31.546879937,49.518178281],[31.547210896,49.51576358]]]]},"id":"75"},{"type":"Feature","properties":{"id":"76"},"geometry":{"type":"MultiPolygon","coordinates":[[[[31.61742182,49.460691144],[31.617343468,49.45963063],[31.617069026,49.45964247],[31.617147702,49.460707759],[31.61742182,49.460691144]]]]},"id":"76"},{"type":"Feature","properties":{"id":"77"},"geometry":{"type":"MultiPolygon","coordinates":[[[[31.621918839,49.465093118],[31.622546451,49.466437246],[31.622746918,49.466338022],[31.622144723,49.46504832],[31.621918839,49.465093118]]]]},"id":"77"},{"type":"Feature","properties":{"id":"78"},"geometry":{"type":"MultiPolygon","coordinates":[[[[31.546267678,49.447879287],[31.546302863,49.447871127],[31.546477716,49.447830434],[31.545860483,49.446568481],[31.545648473,49.446613386],[31.546267678,49.447879287]]]]},"id":"78"},{"type":"Feature","properties":{"id":"79"},"geometry":{"type":"MultiPolygon","coordinates":[[[[31.629798519,49.459089205],[31.629862108,49.459947019],[31.630211616,49.459925632],[31.630195113,49.459704231],[31.630176086,49.459446481],[31.630148466,49.459073941],[31.629798519,49.459089205]]]]},"id":"79"},{"type":"Feature","properties":{"id":"80"},"geometry":{"type":"MultiPolygon","coordinates":[[[[31.61874111,49.465723324],[31.619132337,49.466561341],[31.619232639,49.466541448],[31.619336636,49.466520823],[31.619409677,49.466506335],[31.619018446,49.465668328],[31.61874111,49.465723324]]]]},"id":"80"},{"type":"Feature","properties":{"id":"81"},"geometry":{"type":"MultiPolygon","coordinates":[[[[31.619978499,49.529326339],[31.61995684,49.52950186],[31.622692571,49.529452702],[31.622718256,49.529244835],[31.622760971,49.52882652],[31.62277184,49.528720503],[31.621915402,49.528735855],[31.62188953137539,49.528945645499995],[31.621846722,49.529292796],[31.619978499,49.529326339]]]]},"id":"81"},{"type":"Feature","properties":{"id":"82"},"geometry":{"type":"MultiPolygon","coordinates":[[[[31.623346621,49.523585768],[31.623327722,49.523738476],[31.625682923,49.523702545],[31.625740554,49.523220141],[31.623387186,49.523256],[31.623346621,49.523585768]]]]},"id":"82"},{"type":"Feature","properties":{"id":"83"},"geometry":{"type":"MultiPolygon","coordinates":[[[[31.635203882,49.52355942],[31.635927513,49.523550797],[31.636232352,49.521368584],[31.635508807,49.521376751],[31.635203882,49.52355942]]]]},"id":"83"},{"type":"Feature","properties":{"id":"84"},"geometry":{"type":"MultiPolygon","coordinates":[[[[31.590490183,49.446287374],[31.590422812,49.446253664],[31.589716878,49.446970127],[31.589786693,49.447005022],[31.590490183,49.446287374]]]]},"id":"84"},{"type":"Feature","properties":{"id":"85"},"geometry":{"type":"MultiPolygon","coordinates":[[[[31.605926,49.429477],[31.607127,49.430205],[31.607347,49.429751],[31.607264,49.429285],[31.60704,49.428923],[31.606961,49.428795],[31.606801,49.428836],[31.60652,49.429028],[31.606087,49.429338],[31.605926,49.429477]]]]},"id":"85"},{"type":"Feature","properties":{"id":"86"},"geometry":{"type":"MultiPolygon","coordinates":[[[[31.555410609,49.544579426],[31.555354818,49.544620785],[31.555038999,49.544854668],[31.556244903,49.545844763],[31.556616251,49.545569238],[31.555410609,49.544579426]]]]},"id":"86"},{"type":"Feature","properties":{"id":"87"},"geometry":{"type":"MultiPolygon","coordinates":[[[[31.597562655,49.449785488],[31.597818484,49.449913272],[31.598587946,49.449128112],[31.598332257,49.449000329],[31.597562655,49.449785488]]]]},"id":"87"},{"type":"Feature","properties":{"id":"88"},"geometry":{"type":"MultiPolygon","coordinates":[[[[31.582375472,49.520214777],[31.581759834,49.52021942],[31.581649075,49.521819543],[31.581878919,49.521817771],[31.582264733,49.52181481],[31.582375472,49.520214777]]]]},"id":"88"},{"type":"Feature","properties":{"id":"89"},"geometry":{"type":"MultiPolygon","coordinates":[[[[31.56378486,49.528128815],[31.564253464,49.52812568],[31.564924056,49.528121216],[31.565074755,49.526751524],[31.563935467,49.526759124],[31.56378486,49.528128815]]]]},"id":"89"},{"type":"Feature","properties":{"id":"90"},"geometry":{"type":"MultiPolygon","coordinates":[[[[31.594749559,49.448380682],[31.595001965,49.44850683],[31.595771587,49.447721598],[31.595590522,49.44763116],[31.595519184,49.447595542],[31.594749559,49.448380682]]]]},"id":"90"},{"type":"Feature","properties":{"id":"91"},"geometry":{"type":"MultiPolygon","coordinates":[[[[31.360318182,49.645888878],[31.360817145,49.646258965],[31.363141084,49.645005887],[31.362657398,49.644627629],[31.360318182,49.645888878]]]]},"id":"91"},{"type":"Feature","properties":{"id":"92"},"geometry":{"type":"MultiPolygon","coordinates":[[[[31.553318202,49.538372939],[31.55311304,49.538659068],[31.55321775,49.538695803],[31.555020885,49.539241492],[31.555185152,49.539012391],[31.555227887,49.538952768],[31.553318202,49.538372939]]]]},"id":"92"},{"type":"Feature","properties":{"id":"93"},"geometry":{"type":"MultiPolygon","coordinates":[[[[31.385997612,49.636401247],[31.38643932,49.636247945],[31.386296328,49.634385559],[31.385914771,49.634308706],[31.385837571,49.634319014],[31.38591099,49.635273167],[31.385997612,49.636401247]]]]},"id":"93"},{"type":"Feature","properties":{"id":"94"},"geometry":{"type":"MultiPolygon","coordinates":[[[[31.628195441,49.528480468],[31.627120394,49.528493214],[31.626819009,49.530507072],[31.6278935,49.530497468],[31.628195441,49.528480468]]]]},"id":"94"},{"type":"Feature","properties":{"id":"95"},"geometry":{"type":"MultiPolygon","coordinates":[[[[31.575445745,49.563663407],[31.576038471,49.564140458],[31.577928247,49.563112896],[31.577716579,49.562931121],[31.577358275,49.56262345],[31.575445745,49.563663407]]]]},"id":"95"},{"type":"Feature","properties":{"id":"96"},"geometry":{"type":"MultiPolygon","coordinates":[[[[31.613734184,49.510099191],[31.613686793,49.510444544],[31.612636235,49.510476328],[31.612156826,49.510498273],[31.612117147,49.511294159],[31.612014296,49.512145707],[31.614262791,49.51208757],[31.614318871,49.511626113],[31.614504598,49.51009774],[31.613734184,49.510099191]]]]},"id":"96"},{"type":"Feature","properties":{"id":"97"},"geometry":{"type":"MultiPolygon","coordinates":[[[[31.557240503,49.539636355],[31.55744537,49.539350569],[31.555389889,49.538726609],[31.555227887,49.538952768],[31.555185152,49.539012391],[31.557240503,49.539636355]]]]},"id":"97"},{"type":"Feature","properties":{"id":"98"},"geometry":{"type":"MultiPolygon","coordinates":[[[[31.619959132,49.464070265],[31.620338244,49.4653784],[31.620550825,49.465336244],[31.620170233,49.464023022],[31.619959132,49.464070265]]]]},"id":"98"},{"type":"Feature","properties":{"id":"99"},"geometry":{"type":"MultiPolygon","coordinates":[[[[31.616603078,49.460740721],[31.616523702,49.459666199],[31.616252737,49.459677953],[31.61633242,49.460756737],[31.616603078,49.460740721]]]]},"id":"99"},{"type":"Feature","properties":{"id":"100"},"geometry":{"type":"MultiPolygon","coordinates":[[[[31.593464554,49.506118095],[31.593317567,49.507407391],[31.595732797,49.507548311],[31.595870491,49.506340498],[31.595879721,49.506259012],[31.593464554,49.506118095]]]]},"id":"100"},{"type":"Feature","properties":{"id":"101"},"geometry":{"type":"MultiPolygon","coordinates":[[[[31.559906822,49.442473097],[31.559370785,49.442585296],[31.56064275,49.444761039],[31.561152824,49.444589865],[31.559914362,49.442471511],[31.559906822,49.442473097]]]]},"id":"101"},{"type":"Feature","properties":{"id":"102"},"geometry":{"type":"MultiPolygon","coordinates":[[[[31.405581299,49.651369064],[31.405778188,49.65177737],[31.408682245,49.651187288],[31.408485335,49.650778888],[31.405581299,49.651369064]]]]},"id":"102"},{"type":"Feature","properties":{"id":"103"},"geometry":{"type":"MultiPolygon","coordinates":[[[[31.554893287,49.545632579],[31.554561828,49.545365258],[31.554183246,49.545642875],[31.55382722,49.545904035],[31.553487732,49.546153012],[31.553161425,49.546392389],[31.553491903,49.546660426],[31.554893287,49.545632579]]]]},"id":"103"},{"type":"Feature","properties":{"id":"104"},"geometry":{"type":"MultiPolygon","coordinates":[[[[31.611277339,49.515565706],[31.611352344,49.514970606],[31.608795568,49.514921719],[31.608744932,49.515291053],[31.60871418,49.51551668],[31.611277339,49.515565706]]]]},"id":"104"},{"type":"Feature","properties":{"id":"105"},"geometry":{"type":"MultiPolygon","coordinates":[[[[31.581562036,49.500746305],[31.580559283,49.500695693],[31.58036963,49.502229888],[31.581370771,49.502280422],[31.581380491,49.50228091],[31.581562036,49.500746305]]]]},"id":"105"},{"type":"Feature","properties":{"id":"106"},"geometry":{"type":"MultiPolygon","coordinates":[[[[31.575797853,49.51097105],[31.576458673,49.511281677],[31.579130197,49.511400908],[31.579221122,49.510566597],[31.576036678,49.51042449],[31.575480947,49.510399632],[31.574900651,49.510373771],[31.574874994,49.510372574],[31.575797853,49.51097105]]]]},"id":"106"},{"type":"Feature","properties":{"id":"107"},"geometry":{"type":"MultiPolygon","coordinates":[[[[31.596624,49.436635],[31.597192,49.436364],[31.597504,49.436214],[31.59814223400261,49.43590681260622],[31.598267555236763,49.435091844215115],[31.59827712935509,49.435089509412144],[31.598283,49.435053],[31.597777,49.435154],[31.596334,49.435422],[31.596046,49.435474],[31.595792,49.437052],[31.596022,49.436951],[31.596624,49.436635]]]]},"id":"107"},{"type":"Feature","properties":{"id":"108"},"geometry":{"type":"MultiPolygon","coordinates":[[[[31.559560273,49.543390156],[31.559894146,49.543143096],[31.559654858,49.542961319],[31.558891694,49.542387309],[31.558593076,49.542222589],[31.558353961,49.542399745],[31.559560273,49.543390156]]]]},"id":"108"},{"type":"Feature","properties":{"id":"109"},"geometry":{"type":"MultiPolygon","coordinates":[[[[31.550218056,49.541900712],[31.549903485,49.541641516],[31.548199803,49.542483752],[31.548416102,49.542658702],[31.548517988,49.54274118],[31.550218056,49.541900712]]]]},"id":"109"},{"type":"Feature","properties":{"id":"110"},"geometry":{"type":"MultiPolygon","coordinates":[[[[31.591670278,49.498467184],[31.592626661,49.498521531],[31.592810862,49.496949754],[31.591822171,49.49689065],[31.591637611,49.498464764],[31.591670278,49.498467184]]]]},"id":"110"},{"type":"Feature","properties":{"id":"111"},"geometry":{"type":"MultiPolygon","coordinates":[[[[31.601495324,49.504912612],[31.598694034,49.504741571],[31.598630823,49.505296742],[31.601436825,49.505468095],[31.60146285,49.505199999],[31.601495324,49.504912612]]]]},"id":"111"},{"type":"Feature","properties":{"id":"112"},"geometry":{"type":"MultiPolygon","coordinates":[[[[31.514221658,49.456165974],[31.514498322,49.455857134],[31.513531619,49.455510078],[31.513422897,49.455739152],[31.513366007,49.455858796],[31.514221658,49.456165974]]]]},"id":"112"},{"type":"Feature","properties":{"id":"113"},"geometry":{"type":"MultiPolygon","coordinates":[[[[31.382460732,49.621570721],[31.382480795,49.621486567],[31.382613217158816,49.620927900899666],[31.380668328286685,49.620734057420755],[31.380602536,49.62076704],[31.380323681,49.620939487],[31.380099665,49.621119381],[31.379996958,49.621324036],[31.382460732,49.621570721]]]]},"id":"113"},{"type":"Feature","properties":{"id":"114"},"geometry":{"type":"MultiPolygon","coordinates":[[[[31.618160928,49.454620762],[31.618155654,49.454538183],[31.61767264,49.454183923],[31.615398234,49.454636187],[31.615617862,49.455105574],[31.615626803,49.455124681],[31.618160928,49.454620762]]]]},"id":"114"},{"type":"Feature","properties":{"id":"115"},"geometry":{"type":"MultiPolygon","coordinates":[[[[31.6012982,49.495191838],[31.600041197,49.495116701],[31.599781443,49.497366394],[31.601038503,49.497441444],[31.6012982,49.495191838]]]]},"id":"115"},{"type":"Feature","properties":{"id":"116"},"geometry":{"type":"MultiPolygon","coordinates":[[[[31.545517053,49.527439568],[31.547096085,49.528609968],[31.547344438,49.528255418],[31.545765397,49.527085111],[31.545696494,49.527183447],[31.545517053,49.527439568]]]]},"id":"116"},{"type":"Feature","properties":{"id":"117"},"geometry":{"type":"MultiPolygon","coordinates":[[[[31.64874218,49.457990434],[31.648422632,49.458005176],[31.648518008,49.458913641],[31.648837533,49.458898494],[31.64874218,49.457990434]]]]},"id":"117"},{"type":"Feature","properties":{"id":"118"},"geometry":{"type":"MultiPolygon","coordinates":[[[[31.652370083,49.45668522],[31.652365486,49.456287128],[31.649522184,49.456429243],[31.649528551,49.456827253],[31.652370083,49.45668522]]]]},"id":"118"},{"type":"Feature","properties":{"id":"119"},"geometry":{"type":"MultiPolygon","coordinates":[[[[31.584219739,49.522873037],[31.586149536,49.5228571],[31.586224992,49.522283784],[31.584246049,49.522300136],[31.584219739,49.522873037]]]]},"id":"119"},{"type":"Feature","properties":{"id":"120"},"geometry":{"type":"MultiPolygon","coordinates":[[[[31.448655843,49.622505466],[31.44890424,49.622648704],[31.448946647,49.622673161],[31.449559274,49.622224814],[31.449231846,49.621809645],[31.44922184324349,49.621816964733526],[31.449222564697216,49.62181803970937],[31.448450942935498,49.62238734372485],[31.448655843,49.622505466]]]]},"id":"120"},{"type":"Feature","properties":{"id":"121"},"geometry":{"type":"MultiPolygon","coordinates":[[[[31.513111273,49.474619149],[31.513161867,49.474710863],[31.515885608,49.473949148],[31.515826732,49.473859756],[31.513111273,49.474619149]]]]},"id":"121"},{"type":"Feature","properties":{"id":"122"},"geometry":{"type":"MultiPolygon","coordinates":[[[[31.560434353,49.525410298],[31.560877034,49.52540737],[31.561009467,49.524203966],[31.559719528,49.524216558],[31.559587513,49.525415896],[31.560434353,49.525410298]]]]},"id":"122"},{"type":"Feature","properties":{"id":"123"},"geometry":{"type":"MultiPolygon","coordinates":[[[[31.644130679,49.435869263],[31.643572337,49.436128035],[31.644816265,49.437269104],[31.645053817,49.437159004],[31.64537449,49.437010318],[31.644130679,49.435869263]]]]},"id":"123"},{"type":"Feature","properties":{"id":"124"},"geometry":{"type":"MultiPolygon","coordinates":[[[[31.566853204,49.514033668],[31.565730644,49.513978842],[31.565487412,49.515859487],[31.566083308,49.515888524],[31.566609945,49.515914235],[31.566853204,49.514033668]]]]},"id":"124"},{"type":"Feature","properties":{"id":"125"},"geometry":{"type":"MultiPolygon","coordinates":[[[[31.520869564,49.485758706],[31.519213537,49.485868107],[31.519304607,49.486035491],[31.52098675,49.485924331],[31.520869564,49.485758706]]]]},"id":"125"},{"type":"Feature","properties":{"id":"126"},"geometry":{"type":"MultiPolygon","coordinates":[[[[31.442923506,49.626810098],[31.444027144,49.626448643],[31.443895173,49.626278765],[31.443840362,49.626208222],[31.442736715,49.626569666],[31.442923506,49.626810098]]]]},"id":"126"},{"type":"Feature","properties":{"id":"127"},"geometry":{"type":"MultiPolygon","coordinates":[[[[31.518750388,49.48250703],[31.517620599,49.482883885],[31.517727651,49.483085749],[31.518935543,49.482682762],[31.518750388,49.48250703]]]]},"id":"127"},{"type":"Feature","properties":{"id":"128"},"geometry":{"type":"MultiPolygon","coordinates":[[[[31.616099,49.444214],[31.616274,49.444126],[31.614557,49.443362],[31.614379,49.443448],[31.614379,49.443449],[31.616099,49.444214]]]]},"id":"128"},{"type":"Feature","properties":{"id":"129"},"geometry":{"type":"MultiPolygon","coordinates":[[[[31.552147162,49.445207651],[31.552405289,49.445152939],[31.551914603,49.444149955],[31.551656618,49.444204944],[31.552147162,49.445207651]]]]},"id":"129"},{"type":"Feature","properties":{"id":"130"},"geometry":{"type":"MultiPolygon","coordinates":[[[[31.594133451,49.52845564],[31.595429037,49.528537795],[31.595718669,49.52622339],[31.594423239,49.526140564],[31.594133451,49.52845564]]]]},"id":"130"},{"type":"Feature","properties":{"id":"131"},"geometry":{"type":"MultiPolygon","coordinates":[[[[31.446687567,49.6308999],[31.447321124,49.630692392],[31.447257014,49.630609816],[31.447041975,49.630332722],[31.446970541,49.630240747],[31.446969388490018,49.63024112440421],[31.4469695091247,49.63024126951649],[31.446289849108503,49.630475140039],[31.446687567,49.6308999]]]]},"id":"131"},{"type":"Feature","properties":{"id":"132"},"geometry":{"type":"MultiPolygon","coordinates":[[[[31.414911597069736,49.63990086250148],[31.414908181342703,49.63960887457777],[31.414879284,49.638065759],[31.413356062,49.637913154],[31.413393512,49.639912331],[31.414911597069736,49.63990086250148]]]]},"id":"132"},{"type":"Feature","properties":{"id":"133"},"geometry":{"type":"MultiPolygon","coordinates":[[[[31.612655104,49.445539952],[31.613240902,49.445043439],[31.612700224,49.443887288],[31.611951784,49.444036109],[31.612655104,49.445539952]]]]},"id":"133"},{"type":"Feature","properties":{"id":"134"},"geometry":{"type":"MultiPolygon","coordinates":[[[[31.547309714,49.544480863],[31.546986194,49.54421304],[31.544987964,49.545200706],[31.545316231,49.545466231],[31.547309714,49.544480863]]]]},"id":"134"},{"type":"Feature","properties":{"id":"135"},"geometry":{"type":"MultiPolygon","coordinates":[[[[31.516444,49.470603],[31.516384,49.470493],[31.513902,49.470937],[31.513918,49.470962],[31.513973,49.471045],[31.516444,49.470603]]]]},"id":"135"},{"type":"Feature","properties":{"id":"136"},"geometry":{"type":"MultiPolygon","coordinates":[[[[31.583979,49.509045],[31.587693,49.509247],[31.587742,49.508828],[31.584025,49.508626],[31.583979,49.509045]]]]},"id":"136"},{"type":"Feature","properties":{"id":"137"},"geometry":{"type":"MultiPolygon","coordinates":[[[[31.629050182,49.467588848],[31.629281746,49.467577108],[31.629127292,49.46628028],[31.629113208,49.466281069],[31.628895734,49.46629202],[31.629050182,49.467588848]]]]},"id":"137"},{"type":"Feature","properties":{"id":"138"},"geometry":{"type":"MultiPolygon","coordinates":[[[[31.603199414,49.450047785],[31.601203973,49.450469366],[31.601629603,49.450806104],[31.603391342,49.450433898],[31.603199414,49.450047785]]]]},"id":"138"},{"type":"Feature","properties":{"id":"139"},"geometry":{"type":"MultiPolygon","coordinates":[[[[31.624493568,49.519241448],[31.624409326,49.519940729],[31.626622144,49.519930008],[31.626636219,49.519813107],[31.626666264,49.51956356],[31.62669624,49.519314696],[31.626706354,49.519230734],[31.624493568,49.519241448]]]]},"id":"139"},{"type":"Feature","properties":{"id":"140"},"geometry":{"type":"MultiPolygon","coordinates":[[[[31.525614568,49.492608868],[31.525040717,49.491757146],[31.524714778,49.491814318],[31.525261535,49.49262584],[31.525553284,49.492611813],[31.525614568,49.492608868]]]]},"id":"140"},{"type":"Feature","properties":{"id":"141"},"geometry":{"type":"MultiPolygon","coordinates":[[[[31.55529622,49.540562773],[31.555192212,49.540639877],[31.55490262,49.540854381],[31.554749975,49.540967328],[31.556028965,49.542017443],[31.556294264,49.541822881],[31.556329769,49.541794757],[31.556575197,49.541612891],[31.55529622,49.540562773]]]]},"id":"141"},{"type":"Feature","properties":{"id":"142"},"geometry":{"type":"MultiPolygon","coordinates":[[[[31.600778327,49.514700441],[31.600679546,49.515440835],[31.603324936,49.515493832],[31.603374961,49.515129078],[31.603448131,49.514594567],[31.603485598,49.514319906],[31.600827579,49.514266726],[31.600778327,49.514700441]]]]},"id":"142"},{"type":"Feature","properties":{"id":"143"},"geometry":{"type":"MultiPolygon","coordinates":[[[[31.602588747,49.54651809],[31.605433748,49.54649922],[31.605450276,49.54639649],[31.602605418,49.54641536],[31.602588747,49.54651809]]]]},"id":"143"},{"type":"Feature","properties":{"id":"144"},"geometry":{"type":"MultiPolygon","coordinates":[[[[31.580252464,49.543866427],[31.580450175,49.543889937],[31.58099765,49.543955066],[31.58129535,49.542292691],[31.580550188,49.542204054],[31.580252464,49.543866427]]]]},"id":"144"},{"type":"Feature","properties":{"id":"145"},"geometry":{"type":"MultiPolygon","coordinates":[[[[31.540103533,49.543584785],[31.540248643,49.543703059],[31.540502848,49.543910531],[31.541972946,49.543159358],[31.541578226,49.542831313],[31.540103533,49.543584785]]]]},"id":"145"},{"type":"Feature","properties":{"id":"146"},"geometry":{"type":"MultiPolygon","coordinates":[[[[31.56250392,49.535834178],[31.562750949,49.535486329],[31.560730736,49.534873],[31.560481774,49.535220288],[31.56250392,49.535834178]]]]},"id":"146"},{"type":"Feature","properties":{"id":"147"},"geometry":{"type":"MultiPolygon","coordinates":[[[[31.548478532,49.545372717],[31.549077605,49.54586875],[31.55113018,49.544854043],[31.551089093,49.544820704],[31.550765155,49.544558735],[31.550522315,49.544362349],[31.548478532,49.545372717]]]]},"id":"147"},{"type":"Feature","properties":{"id":"148"},"geometry":{"type":"MultiPolygon","coordinates":[[[[31.640345353,49.468473706],[31.641233054,49.467263949],[31.640247097,49.467394279],[31.640100186,49.46742447],[31.639296443,49.468306125],[31.640345353,49.468473706]]]]},"id":"148"},{"type":"Feature","properties":{"id":"149"},"geometry":{"type":"MultiPolygon","coordinates":[[[[31.583978907,49.509045385],[31.583933229,49.50946528],[31.587644964,49.509666628],[31.587693372,49.509246936],[31.583978907,49.509045385]]]]},"id":"149"},{"type":"Feature","properties":{"id":"150"},"geometry":{"type":"MultiPolygon","coordinates":[[[[31.601414366,49.553782768],[31.601358403,49.554128859],[31.601311787,49.554417119],[31.602904259,49.554406556],[31.60415711,49.554398191],[31.604259638,49.553763838],[31.601414366,49.553782768]]]]},"id":"150"},{"type":"Feature","properties":{"id":"151"},"geometry":{"type":"MultiPolygon","coordinates":[[[[31.552925319,49.544622752],[31.552504681,49.544831501],[31.55382722,49.545904035],[31.554183246,49.545642875],[31.552925319,49.544622752]]]]},"id":"151"},{"type":"Feature","properties":{"id":"152"},"geometry":{"type":"MultiPolygon","coordinates":[[[[31.629281746,49.467577108],[31.629513323,49.467565449],[31.629358863,49.466268621],[31.629339524,49.46626956],[31.629127292,49.46628028],[31.629281746,49.467577108]]]]},"id":"152"},{"type":"Feature","properties":{"id":"153"},"geometry":{"type":"MultiPolygon","coordinates":[[[[31.557688994,49.539010519],[31.557933318,49.538669858],[31.55587786,49.538045897],[31.555665472,49.538342231],[31.555633663,49.538386564],[31.557688994,49.539010519]]]]},"id":"153"},{"type":"Feature","properties":{"id":"154"},"geometry":{"type":"MultiPolygon","coordinates":[[[[31.549786929,49.549082612],[31.549944859,49.549212125],[31.550084989,49.549325757],[31.551914765,49.547983801],[31.551615723,49.547741371],[31.549786929,49.549082612]]]]},"id":"154"},{"type":"Feature","properties":{"id":"155"},"geometry":{"type":"MultiPolygon","coordinates":[[[[31.64726513,49.45803154],[31.647658008,49.458013417],[31.647580241,49.457272536],[31.647458147,49.457278176],[31.647187356,49.457290667],[31.64726513,49.45803154]]]]},"id":"155"},{"type":"Feature","properties":{"id":"156"},"geometry":{"type":"MultiPolygon","coordinates":[[[[31.59403581,49.557347717],[31.591605227,49.55714371],[31.591414678,49.558378783],[31.592168991,49.558054272],[31.593493649,49.557860379],[31.59403581,49.557347717]]]]},"id":"156"},{"type":"Feature","properties":{"id":"157"},"geometry":{"type":"MultiPolygon","coordinates":[[[[31.555240052,49.444551961],[31.555497525,49.444497369],[31.555005857,49.4434925],[31.554747891,49.443546049],[31.555240052,49.444551961]]]]},"id":"157"},{"type":"Feature","properties":{"id":"158"},"geometry":{"type":"MultiPolygon","coordinates":[[[[31.437695281,49.626732648],[31.43785864,49.626943081],[31.43927734,49.62647856],[31.439114116,49.626268057],[31.437695281,49.626732648]]]]},"id":"158"},{"type":"Feature","properties":{"id":"159"},"geometry":{"type":"MultiPolygon","coordinates":[[[[31.398599869,49.63905541],[31.398901755,49.638598375],[31.394669374,49.637419611],[31.394396949,49.637644398],[31.394040851,49.637785663],[31.394757916,49.637985388],[31.394821616,49.638003078],[31.398599869,49.63905541]]]]},"id":"159"},{"type":"Feature","properties":{"id":"160"},"geometry":{"type":"MultiPolygon","coordinates":[[[[31.524738143,49.493247866],[31.527462674,49.493702061],[31.527500399,49.493602483],[31.527234591,49.493558165],[31.526953225,49.493511287],[31.526652479,49.493461095],[31.52633191,49.493407688],[31.52600212,49.493352663],[31.525638083,49.493291963],[31.524737068,49.493141752],[31.524738143,49.493247866]]]]},"id":"160"},{"type":"Feature","properties":{"id":"161"},"geometry":{"type":"MultiPolygon","coordinates":[[[[31.618452101,49.521354763],[31.618691896,49.521322599],[31.619675999,49.521300782],[31.619742552,49.52073291],[31.617493965,49.520794238],[31.617424968,49.521362182],[31.618452101,49.521354763]]]]},"id":"161"},{"type":"Feature","properties":{"id":"162"},"geometry":{"type":"MultiPolygon","coordinates":[[[[31.547887491,49.544883394],[31.548182063,49.545127238],[31.550221519,49.544119088],[31.550119614,49.544036612],[31.549922621,49.543877373],[31.547887491,49.544883394]]]]},"id":"162"},{"type":"Feature","properties":{"id":"163"},"geometry":{"type":"MultiPolygon","coordinates":[[[[31.58029675483696,49.56240059319428],[31.57882153987877,49.56024675612332],[31.57803407997395,49.5605490561496],[31.578639338325484,49.56114780142382],[31.579422354698103,49.56192042449975],[31.580111271436902,49.5625924256745],[31.58023370781785,49.562467947103606],[31.58029675483696,49.56240059319428]]]]},"id":"163"},{"type":"Feature","properties":{"id":"164"},"geometry":{"type":"MultiPolygon","coordinates":[[[[31.582050919532698,49.556659136465015],[31.582362055778425,49.55654082056126],[31.581582046773303,49.55539830462347],[31.581009809,49.554561772],[31.580389077,49.554800415],[31.580387950281594,49.55480084819026],[31.581745147705004,49.55677745208214],[31.582050919532698,49.556659136465015]]],[[[31.58101070174802,49.554561428647595],[31.581009809,49.554561772],[31.581010701816133,49.55456142874736],[31.58101070174802,49.554561428647595]]]]},"id":"164"},{"type":"Feature","properties":{"id":"165"},"geometry":{"type":"MultiPolygon","coordinates":[[[[31.591765880584635,49.555639522356635],[31.590683871044423,49.555547863801],[31.58864354392075,49.5553764781691],[31.58862233161918,49.55550032423994],[31.58858478069298,49.555924877255606],[31.591680049896162,49.556182391221014],[31.591765880584635,49.555639522356635]]]]},"id":"165"},{"type":"Feature","properties":{"id":"166"},"geometry":{"type":"MultiPolygon","coordinates":[[[[31.569347977638188,49.565010123098],[31.571638584136902,49.56377148362604],[31.571279168128907,49.563482695187],[31.571182608604374,49.563406148567374],[31.568902730941716,49.564644797307565],[31.569347977638188,49.565010123098]]]]},"id":"166"},{"type":"Feature","properties":{"id":"167"},"geometry":{"type":"MultiPolygon","coordinates":[[[[31.595525,49.432183],[31.596629,49.433857],[31.597174,49.43382],[31.596922,49.433438],[31.596642,49.433014],[31.596077,49.432156],[31.595904,49.432168],[31.595525,49.432183]]]]},"id":"167"},{"type":"Feature","properties":{"id":"168"},"geometry":{"type":"MultiPolygon","coordinates":[[[[31.548558647,49.55873211],[31.548173013,49.558412438],[31.548136965,49.558382557],[31.546187654,49.55981869],[31.546609335,49.56016816],[31.548558647,49.55873211]]]]},"id":"168"},{"type":"Feature","properties":{"id":"169"},"geometry":{"type":"MultiPolygon","coordinates":[[[[31.592719996,49.559655548],[31.593840987,49.559273298],[31.593219198,49.558283696],[31.592373007,49.558412289],[31.592031239,49.558559314],[31.592719996,49.559655548]]]]},"id":"169"},{"type":"Feature","properties":{"id":"170"},"geometry":{"type":"MultiPolygon","coordinates":[[[[31.383601156,49.627540249],[31.38378082,49.628116313],[31.387050687,49.627676992],[31.386978822,49.627592618],[31.38651619,49.627150383],[31.383601156,49.627540249]]]]},"id":"170"},{"type":"Feature","properties":{"id":"171"},"geometry":{"type":"MultiPolygon","coordinates":[[[[31.57075465,49.566166402],[31.571218723,49.566553339],[31.573533148,49.565295047],[31.573058889,49.56491361],[31.57075465,49.566166402]]]]},"id":"171"},{"type":"Feature","properties":{"id":"172"},"geometry":{"type":"MultiPolygon","coordinates":[[[[31.567463552,49.529636004],[31.566796269,49.529640418],[31.566674539,49.531166074],[31.567342248,49.531155106],[31.567463552,49.529636004]]]]},"id":"172"},{"type":"Feature","properties":{"id":"173"},"geometry":{"type":"MultiPolygon","coordinates":[[[[31.61113142967218,49.538539545389874],[31.61186635494226,49.53848732786847],[31.611726880073487,49.5377075395774],[31.61019265651697,49.53782590110113],[31.610142780639432,49.538148158683754],[31.610071507,49.538621468],[31.610071285745434,49.53862293513738],[31.61113142967218,49.538539545389874]]]]},"id":"173"},{"type":"Feature","properties":{"id":"174"},"geometry":{"type":"MultiPolygon","coordinates":[[[[31.619639396667402,49.53214074297503],[31.619843244552534,49.532126816484904],[31.619811058044355,49.53088734297343],[31.619387269020002,49.530897788106245],[31.61941945552818,49.53200844115874],[31.619634032249376,49.532126816484904],[31.619639396667402,49.53214074297503]]]]},"id":"174"},{"type":"Feature","properties":{"id":"175"},"geometry":{"type":"MultiPolygon","coordinates":[[[[31.612765068782135,49.55288242392455],[31.613371,49.55268],[31.613374152823088,49.55267894557904],[31.61364734172815,49.55093440609312],[31.612821221351563,49.55121978848202],[31.612740755081116,49.55124415031604],[31.6124671697616,49.55298076974997],[31.612765068782135,49.55288242392455]]]]},"id":"175"},{"type":"Feature","properties":{"id":"176"},"geometry":{"type":"MultiPolygon","coordinates":[[[[31.612038016319215,49.55148428774395],[31.611555218696534,49.551651339171435],[31.611287080261757,49.55337697307887],[31.611767,49.553216],[31.611770179435204,49.55321493716023],[31.612038016319215,49.55148428774395]]]]},"id":"176"},{"type":"Feature","properties":{"id":"177"},"geometry":{"type":"MultiPolygon","coordinates":[[[[31.619831870528646,49.54531712822199],[31.619869394799135,49.5450785013913],[31.619977355003293,49.54438059321574],[31.61865234374994,49.54445368891375],[31.61843806717,49.54579535867736],[31.618439355,49.545794918],[31.619274738857403,49.54550899658155],[31.619831870528646,49.54531712822199]]]]},"id":"177"},{"type":"Feature","properties":{"id":"178"},"geometry":{"type":"MultiPolygon","coordinates":[[[[31.615485501990516,49.546805729171524],[31.615819534,49.546691401],[31.615820012042324,49.54669123743351],[31.616082787513676,49.54500712422158],[31.614961624145444,49.54575198951892],[31.614757776260316,49.54705373618386],[31.615485501990516,49.546805729171524]]]]},"id":"178"},{"type":"Feature","properties":{"id":"179"},"geometry":{"type":"MultiPolygon","coordinates":[[[[31.630663275718607,49.545703260360646],[31.63047552108757,49.544578995570184],[31.630191206931993,49.54458247630606],[31.629037857055586,49.544596399247055],[31.62906975514713,49.544862013453454],[31.62907,49.544862],[31.62907595548444,49.54490964387549],[31.62935435771934,49.54489922223215],[31.629552841186445,49.54609309226596],[31.630663275718607,49.545703260360646]]]]},"id":"179"},{"type":"Feature","properties":{"id":"180"},"geometry":{"type":"MultiPolygon","coordinates":[[[[31.63315773010246,49.53767620853783],[31.633350849151537,49.537672727309975],[31.63366198539726,49.537669246081876],[31.633635163307115,49.53671538023809],[31.633130908012316,49.536718861534155],[31.63315773010246,49.53767620853783]]]]},"id":"180"},{"type":"Feature","properties":{"id":"181"},"geometry":{"type":"MultiPolygon","coordinates":[[[[31.626800894737165,49.53357863172484],[31.628726720809862,49.53345329685807],[31.628689169883653,49.53318869997279],[31.628689169883653,49.53317825532952],[31.626757979392927,49.533310553979476],[31.626800894737165,49.53357863172484]]]]},"id":"181"},{"type":"Feature","properties":{"id":"182"},"geometry":{"type":"MultiPolygon","coordinates":[[[[31.606850624084412,49.52454673549757],[31.610235571861207,49.52453280684395],[31.610283851623475,49.5241706604568],[31.60689353942865,49.5241845892136],[31.606850624084412,49.52454673549757]]]]},"id":"182"},{"type":"Feature","properties":{"id":"183"},"geometry":{"type":"MultiPolygon","coordinates":[[[[31.601362824439942,49.5254207505762],[31.60151839256281,49.5254207505762],[31.603004336357056,49.52539985796776],[31.60304725170129,49.525086467769746],[31.603079438209477,49.52481486130655],[31.599529285805986,49.52485663416156],[31.599529,49.524859],[31.59950533867357,49.52505124827725],[31.599489288743868,49.52518300140131],[31.59945845603937,49.525441643175725],[31.601362824439942,49.5254207505762]]]]},"id":"183"},{"type":"Feature","properties":{"id":"184"},"geometry":{"type":"MultiPolygon","coordinates":[[[[31.63296461105339,49.51625500261583],[31.633007526397623,49.51595548490495],[31.633034348487776,49.515802242576115],[31.62958284813426,49.5158474770288],[31.62954840436127,49.51608920628603],[31.629520654678267,49.51630376113934],[31.63296461105339,49.51625500261583]]]]},"id":"184"},{"type":"Feature","properties":{"id":"185"},"geometry":{"type":"MultiPolygon","coordinates":[[[[31.52597665786738,49.48554140996625],[31.52588009834284,49.48543337670462],[31.525878101752973,49.48543373451477],[31.525879572,49.485435369],[31.523691732125588,49.48582555521806],[31.52354657649988,49.485851568650844],[31.523620885823416,49.48596190908951],[31.525495200821226,49.48562761829552],[31.52597665786738,49.48554140996625]]]]},"id":"185"},{"type":"Feature","properties":{"id":"186"},"geometry":{"type":"MultiPolygon","coordinates":[[[[31.5257835388183,49.48532534320461],[31.52568361828652,49.48521943297078],[31.524128151973436,49.48549685145287],[31.52339637279505,49.4856285333907],[31.52340042289867,49.485634782259176],[31.523439169,49.485693771],[31.52344962107145,49.485709291188556],[31.52347142280833,49.485739978181705],[31.523552754862646,49.48572547216192],[31.5257835388183,49.48532534320461]]]]},"id":"186"},{"type":"Feature","properties":{"id":"187"},"geometry":{"type":"MultiPolygon","coordinates":[[[[31.513975238766964,49.47479936593911],[31.513313094363426,49.47498453710183],[31.513313111,49.474984567],[31.513340855617788,49.47503437647749],[31.51336480272727,49.475074833356295],[31.516119679,49.47430446],[31.516062470657754,49.47421773734946],[31.513975238766964,49.47479936593911]]]]},"id":"187"},{"type":"Feature","properties":{"id":"188"},"geometry":{"type":"MultiPolygon","coordinates":[[[[31.51486158370966,49.47239793716416],[31.514845490455574,49.47237005015201],[31.514837141476587,49.47235716508194],[31.51480268556024,49.4723050453854],[31.51371878914903,49.47260816278961],[31.512233018875065,49.47302539074011],[31.51228662428952,49.4731194400696],[31.51242906982359,49.47307960138461],[31.51486158370966,49.47239793716416]]]]},"id":"188"},{"type":"Feature","properties":{"id":"189"},"geometry":{"type":"MultiPolygon","coordinates":[[[[31.513657578,49.470566106],[31.513620214,49.470509501],[31.513591698,49.470466194],[31.511184476,49.471139397],[31.511241191,49.471241847],[31.513657578,49.470566106]]]]},"id":"189"},{"type":"Feature","properties":{"id":"190"},"geometry":{"type":"MultiPolygon","coordinates":[[[[31.516130631927368,49.47002176722654],[31.516092656326922,49.46995128039043],[31.513552665710392,49.47040397578029],[31.51357167810787,49.47043574583862],[31.513591698,49.470466194],[31.513620214,49.470509501],[31.516148127157752,49.470057011765874],[31.516130631927368,49.47002176722654]]]]},"id":"190"},{"type":"Feature","properties":{"id":"191"},"geometry":{"type":"MultiPolygon","coordinates":[[[[31.509159619,49.466240553],[31.511193929276516,49.465998620326566],[31.511175,49.465897],[31.511168,49.465859],[31.51116798816378,49.46585893371716],[31.509132085,49.466101127],[31.509159619,49.466240553]]]]},"id":"191"},{"type":"Feature","properties":{"id":"192"},"geometry":{"type":"MultiPolygon","coordinates":[[[[31.5111589673028,49.46580841689569],[31.511153,49.465775],[31.511154827057158,49.4657747824932],[31.511154784500448,49.46577443677228],[31.511152589,49.465774698],[31.511149406433045,49.465757404793536],[31.511149406433045,49.46575340780223],[31.511148685220807,49.46575348592165],[31.51114292068269,49.46572216298355],[31.509105563163697,49.46596258825735],[31.509132206598437,49.46610111253452],[31.51116522614513,49.46585926228994],[31.5111589673028,49.46580841689569]]]]},"id":"192"},{"type":"Feature","properties":{"id":"193"},"geometry":{"type":"MultiPolygon","coordinates":[[[[31.511090397834725,49.46543963544501],[31.51108503341669,49.46540825809876],[31.51106377203457,49.465301169089514],[31.509020793,49.465544136],[31.50902870022606,49.46558308098555],[31.509051736038767,49.465682888142034],[31.51009776151608,49.465558473208816],[31.511090397834725,49.46543963544501]]]]},"id":"193"},{"type":"Feature","properties":{"id":"194"},"geometry":{"type":"MultiPolygon","coordinates":[[[[31.510391502701953,49.46227981009995],[31.510500298290328,49.462266866650076],[31.510473489761292,49.46213095794958],[31.508381366729683,49.462378506358824],[31.508408188819825,49.46251448312189],[31.510391502701953,49.46227981009995]]]]},"id":"194"},{"type":"Feature","properties":{"id":"195"},"geometry":{"type":"MultiPolygon","coordinates":[[[[31.548035144805834,49.44497734093002],[31.5477776527404,49.44503314612251],[31.54826567021344,49.44603035781462],[31.548267538,49.446029962],[31.54852648002248,49.44597508969051],[31.548325613139145,49.445564431145094],[31.548035144805834,49.44497734093002]]]]},"id":"195"},{"type":"Feature","properties":{"id":"196"},"geometry":{"type":"MultiPolygon","coordinates":[[[[31.583200799608363,49.43605587563726],[31.583005,49.434827],[31.582889280967485,49.43483474328099],[31.582198217322755,49.434882362579174],[31.582302391314837,49.43553551697396],[31.582388877868578,49.436065134337916],[31.583214998245158,49.436145368862654],[31.583200799608363,49.43605587563726]]]]},"id":"196"},{"type":"Feature","properties":{"id":"197"},"geometry":{"type":"MultiPolygon","coordinates":[[[[31.59415306177261,49.4469130308863],[31.594151,49.446912],[31.594713386895904,49.44633855634653],[31.595268300796445,49.44576962967455],[31.5951772692993,49.44569621717685],[31.594040393829264,49.44685724338116],[31.594153046607897,49.446913046433956],[31.59415306177261,49.4469130308863]]]]},"id":"197"},{"type":"Feature","properties":{"id":"198"},"geometry":{"type":"MultiPolygon","coordinates":[[[[31.594909429550096,49.44548307316644],[31.594901513843993,49.445476211075196],[31.594826294273016,49.44541603541841],[31.593616604804915,49.44664798136749],[31.59372140009302,49.44669567463121],[31.59479071881502,49.445604607608246],[31.594909429550096,49.44548307316644]]]]},"id":"198"},{"type":"Feature","properties":{"id":"199"},"geometry":{"type":"MultiPolygon","coordinates":[[[[31.594153046607897,49.446913046433956],[31.594040393829264,49.44685724338116],[31.594003559507062,49.446843558837955],[31.59323728549116,49.447625308762035],[31.593317889916168,49.447665703761984],[31.593491005,49.447752204],[31.59425936792629,49.44696834644373],[31.594153046607897,49.446913046433956]]]]},"id":"199"},{"type":"Feature","properties":{"id":"200"},"geometry":{"type":"MultiPolygon","coordinates":[[[[31.603342294692936,49.44231605707788],[31.6039484739303,49.442187000322555],[31.60375026472558,49.44177249713898],[31.60285967278072,49.441960695336526],[31.601529121398862,49.442242808690864],[31.60156667232507,49.442323033109034],[31.60163104534143,49.442448601500054],[31.60165852045302,49.442508150153124],[31.601732245,49.442656495],[31.602757611026817,49.44243983262674],[31.603342294692936,49.44231605707788]]]]},"id":"200"},{"type":"Feature","properties":{"id":"201"},"geometry":{"type":"MultiPolygon","coordinates":[[[[31.608765721321046,49.452280305699276],[31.607993245124753,49.450599394913375],[31.60764455795282,49.44987051734194],[31.607478260993894,49.44976240539166],[31.6075694561004,49.44963336823566],[31.607526540756165,49.449528743265226],[31.606931516929425,49.45050104982239],[31.607202894767287,49.45110984589988],[31.607526540756165,49.45183392837296],[31.607848018382686,49.45255708352167],[31.608203059,49.453353612],[31.608219235,49.453389976],[31.608715986,49.454504162],[31.608819047461235,49.45473530833482],[31.608895973,49.454907837],[31.609312396,49.455859101],[31.609311925876757,49.455859552087354],[31.609500646591126,49.45629054467549],[31.61021947860712,49.45571169565972],[31.60953283309931,49.453996030707245],[31.608765721321046,49.452280305699276]]]]},"id":"201"},{"type":"Feature","properties":{"id":"202"},"geometry":{"type":"MultiPolygon","coordinates":[[[[31.615836024284302,49.43611048430281],[31.615551710128724,49.43610001893002],[31.61533369006297,49.43676297073109],[31.615172,49.437257],[31.615374756446606,49.43725799390415],[31.615836024284302,49.43611048430281]]]]},"id":"202"},{"type":"Feature","properties":{"id":"203"},"geometry":{"type":"MultiPolygon","coordinates":[[[[31.6128641366958,49.43665468061081],[31.612864342102732,49.43665247664163],[31.612872857229405,49.43653988774456],[31.6103965044021,49.43694073009511],[31.610439419746335,49.437048870319224],[31.6128641366958,49.43665468061081]]]]},"id":"203"},{"type":"Feature","properties":{"id":"204"},"geometry":{"type":"MultiPolygon","coordinates":[[[[31.619237065315186,49.44258114556395],[31.619312167167607,49.44248696955539],[31.61753166848973,49.44169540333148],[31.617531,49.441696],[31.617412309077096,49.441801832739586],[31.61920487880701,49.44259858554569],[31.619237065315186,49.44258114556395]]]]},"id":"204"},{"type":"Feature","properties":{"id":"205"},"geometry":{"type":"MultiPolygon","coordinates":[[[[31.626575589179918,49.46014703890659],[31.626533847313883,49.4595546678771],[31.626529152713605,49.459504319641745],[31.626509110715713,49.45923357102958],[31.626392533905427,49.459237359710926],[31.626191133532338,49.45924614618807],[31.62622520923902,49.45970626349286],[31.62622677116798,49.4597397659499],[31.626258959621683,49.46016625157961],[31.626259274,49.460166233],[31.62650192342913,49.46015190816276],[31.626575589179918,49.46014703890659]]]]},"id":"205"},{"type":"Feature","properties":{"id":"206"},"geometry":{"type":"MultiPolygon","coordinates":[[[[31.624011397361677,49.45934159366522],[31.623937076101036,49.45934413618544],[31.623706661,49.459354141],[31.623705791362024,49.45935417898355],[31.623723150977984,49.45957662354813],[31.623780596478237,49.460312725044915],[31.6240809884703,49.46029496420555],[31.624011397361677,49.45934159366522]]]]},"id":"206"},{"type":"Feature","properties":{"id":"207"},"geometry":{"type":"MultiPolygon","coordinates":[[[[31.614612936973508,49.46285268010136],[31.614620520627152,49.46285268010136],[31.61462805,49.462851757],[31.61462874270258,49.46285167184114],[31.614628740814794,49.46285166522127],[31.614627995,49.462851757],[31.614422243053596,49.462141494104905],[31.614403724670357,49.46207168560968],[31.614402097238173,49.46207195004743],[31.61439415003535,49.462044516026104],[31.614394134,49.462044518],[31.614356958379165,49.462049093016624],[31.614044552664307,49.46208908742096],[31.61406619546078,49.46216380111877],[31.61428034305567,49.462894518740704],[31.614612936973508,49.46285268010136]]]]},"id":"207"},{"type":"Feature","properties":{"id":"208"},"geometry":{"type":"MultiPolygon","coordinates":[[[[31.61347336013192,49.460991132951655],[31.613473339,49.46099106],[31.613430568,49.460843375],[31.61343391766466,49.460844923594436],[31.613432765006962,49.460840896703495],[31.613250374793942,49.46076070258588],[31.612386703491154,49.46015401240066],[31.612209677696168,49.46029348207364],[31.613239645957883,49.46102220465953],[31.61347336013192,49.460991132951655]]]]},"id":"208"},{"type":"Feature","properties":{"id":"209"},"geometry":{"type":"MultiPolygon","coordinates":[[[[31.63460535979869,49.46547105047798],[31.634609,49.465468],[31.634942135786158,49.465188724490645],[31.634756326675337,49.46519907527694],[31.63445376422835,49.46521243904137],[31.634203062,49.465225116],[31.634202873315463,49.465223532645524],[31.634202868973723,49.465223532894505],[31.634203062,49.465225152],[31.633960470219773,49.465237433235224],[31.63365662097923,49.465254857450084],[31.63368880748741,49.465516335540116],[31.63460535979869,49.46547105047798]]]]},"id":"209"},{"type":"Feature","properties":{"id":"210"},"geometry":{"type":"MultiPolygon","coordinates":[[[[31.629697262220766,49.468810864072644],[31.62956082308924,49.46769813375127],[31.62955922427178,49.467682894751356],[31.629551756128166,49.46762205488747],[31.629551494562907,49.46762205488747],[31.62954765899782,49.46759077390874],[31.629381836608005,49.46759915337627],[31.629306077957075,49.467604623807425],[31.629456281661913,49.468824784433274],[31.629697262220766,49.468810864072644]]]]},"id":"210"},{"type":"Feature","properties":{"id":"211"},"geometry":{"type":"MultiPolygon","coordinates":[[[[31.639058589935225,49.464819057532345],[31.63904655551973,49.46482861692799],[31.638723531,49.465086587],[31.639251708984315,49.465250132232974],[31.6399292808277,49.46545993583758],[31.641998291015547,49.46610058494307],[31.641998291015547,49.46609893337817],[31.64201922538537,49.46610536690079],[31.642111874,49.465974902],[31.641913204182718,49.46574945948153],[31.641853451728757,49.465683680785396],[31.641853451725908,49.465683680784515],[31.639058589935225,49.464819057532345]]]]},"id":"211"},{"type":"Feature","properties":{"id":"212"},"geometry":{"type":"MultiPolygon","coordinates":[[[[31.632234276,49.469861633],[31.632234285719424,49.469861621953534],[31.632234249,49.469861597],[31.632884474595357,49.46912265956725],[31.633012985,49.468976603],[31.632826016,49.468813357],[31.632027321,49.469720985],[31.632234276,49.469861633]]]]},"id":"212"},{"type":"Feature","properties":{"id":"213"},"geometry":{"type":"MultiPolygon","coordinates":[[[[31.444700360298082,49.62022288293881],[31.445816159248277,49.61940269485989],[31.445564031600878,49.619253252324775],[31.444437503814623,49.62007344291906],[31.444646716117784,49.62019160483307],[31.444700360298082,49.62022288293881]]]]},"id":"213"},{"type":"Feature","properties":{"id":"214"},"geometry":{"type":"MultiPolygon","coordinates":[[[[31.615562438964783,49.46632516559726],[31.615723371505677,49.46629378881812],[31.615337133407536,49.46496200033256],[31.61517083644861,49.46497245954548],[31.615562438964783,49.46632516559726]]]]},"id":"214"},{"type":"Feature","properties":{"id":"215"},"geometry":{"type":"MultiPolygon","coordinates":[[[[31.543630957603376,49.54135572772417],[31.54560506343834,49.54038452866513],[31.545508503913805,49.54031142687955],[31.5454173088073,49.54023484393927],[31.543453931808397,49.54120952694947],[31.543630957603376,49.54135572772417]]]]},"id":"215"},{"type":"Feature","properties":{"id":"216"},"geometry":{"type":"MultiPolygon","coordinates":[[[[31.541823148727342,49.544986239984155],[31.543276906013418,49.54424136301225],[31.54318571090691,49.544168266996586],[31.542837023734972,49.54387936262634],[31.54137790203087,49.54462424511715],[31.541624665260237,49.54482612720069],[31.541823148727342,49.544986239984155]]]]},"id":"216"},{"type":"Feature","properties":{"id":"217"},"geometry":{"type":"MultiPolygon","coordinates":[[[[31.57375216484064,49.54084054209675],[31.573902368545475,49.54033231311516],[31.573913097381535,49.540280097509395],[31.570758819580014,49.53990414350082],[31.570597887039128,49.54046459240004],[31.57375216484064,49.54084054209675]]]]},"id":"217"},{"type":"Feature","properties":{"id":"218"},"geometry":{"type":"MultiPolygon","coordinates":[[[[31.56523346900934,49.55544464488217],[31.567540168762147,49.55418836249932],[31.566826701164185,49.55357586962001],[31.56675159931177,49.55366287191749],[31.56694471836084,49.55386819672508],[31.5669554471969,49.55392735795013],[31.566923260688725,49.55404220012361],[31.566896438598572,49.55416748218671],[31.566805243492066,49.554299724015806],[31.56649410724634,49.55441804534885],[31.566365361213627,49.55440760524276],[31.56628489494318,49.55435540467882],[31.56625807285303,49.55435192463924],[31.565383672714173,49.55479736768997],[31.56518518924707,49.55482172773965],[31.564986705779972,49.55480084769781],[31.564857959747258,49.554804327705405],[31.564573645591672,49.55491568781745],[31.56523346900934,49.55544464488217]]]]},"id":"218"},{"type":"Feature","properties":{"id":"219"},"geometry":{"type":"MultiPolygon","coordinates":[[[[31.559643745422303,49.536283697605604],[31.559885144233643,49.5359425263759],[31.557830572128236,49.535319360532895],[31.557766199111875,49.53540639534588],[31.557589173316895,49.535660536112765],[31.559643745422303,49.536283697605604]]]]},"id":"219"},{"type":"Feature","properties":{"id":"220"},"geometry":{"type":"MultiPolygon","coordinates":[[[[31.563001871108945,49.53513832762541],[31.56324863433832,49.53479018553401],[31.561231613159123,49.53417744943004],[31.560979485511716,49.53452559588601],[31.563001871108945,49.53513832762541]]]]},"id":"220"},{"type":"Feature","properties":{"id":"221"},"geometry":{"type":"MultiPolygon","coordinates":[[[[31.55634462833399,49.53404515312655],[31.556607484817448,49.53367611417679],[31.554713845252927,49.53309817965689],[31.554628014564454,49.533220033889236],[31.55444562435144,49.533470704497674],[31.55634462833399,49.53404515312655]]]]},"id":"221"},{"type":"Feature","properties":{"id":"222"},"geometry":{"type":"MultiPolygon","coordinates":[[[[31.581696867942735,49.53921140585455],[31.581745147705004,49.53890158533715],[31.58182561397545,49.53846295967271],[31.57900929450981,49.537871156902085],[31.578939557075422,49.538261051297596],[31.581696867942735,49.53921140585455]]]]},"id":"222"},{"type":"Feature","properties":{"id":"223"},"geometry":{"type":"MultiPolygon","coordinates":[[[[31.59635782241814,49.45133872377048],[31.597049832343977,49.45063078174243],[31.59692108631126,49.45056800806422],[31.59677088260643,49.450491284570546],[31.596073508262556,49.45119922861317],[31.59635782241814,49.45133872377048]]]]},"id":"223"},{"type":"Feature","properties":{"id":"224"},"geometry":{"type":"MultiPolygon","coordinates":[[[[31.61567509174341,49.462723677405194],[31.61592721939081,49.46269229831964],[31.61602914333337,49.46267835205293],[31.615793108940064,49.46187294841741],[31.615444421768128,49.46191827451467],[31.61567509174341,49.462723677405194]]]]},"id":"224"},{"type":"Feature","properties":{"id":"225"},"geometry":{"type":"MultiPolygon","coordinates":[[[[31.620808839797895,49.46048873894893],[31.621103882789537,49.46047130533098],[31.62102341651909,49.459470605265274],[31.620733737945482,49.459484552444934],[31.620808839797895,49.46048873894893]]]]},"id":"225"},{"type":"Feature","properties":{"id":"226"},"geometry":{"type":"MultiPolygon","coordinates":[[[[31.63902103900902,49.461210485288476],[31.63916587829582,49.461200025272504],[31.638978123664778,49.459627510807614],[31.638833284377977,49.45963797115924],[31.63902103900902,49.461210485288476]]]]},"id":"226"},{"type":"Feature","properties":{"id":"227"},"geometry":{"type":"MultiPolygon","coordinates":[[[[31.589636206626814,49.44897771473615],[31.590274572372362,49.448336002819985],[31.58996880054466,49.44818254872596],[31.589308977127,49.44885913816692],[31.589555740356367,49.44894283930438],[31.589636206626814,49.44897771473615]]]]},"id":"227"},{"type":"Feature","properties":{"id":"228"},"geometry":{"type":"MultiPolygon","coordinates":[[[[31.609216332435548,49.44610389595186],[31.611083149909913,49.445730705669355],[31.61086857318872,49.44526682967616],[31.608996391296326,49.44564002348949],[31.609216332435548,49.44610389595186]]]]},"id":"228"},{"type":"Feature","properties":{"id":"229"},"geometry":{"type":"MultiPolygon","coordinates":[[[[31.57986223697655,49.50565931917945],[31.579867601394575,49.505631451108385],[31.57989978790275,49.50529703301742],[31.5773141384124,49.50518207627073],[31.577271223068163,49.505513011629255],[31.577271223068163,49.505547846799935],[31.57986223697655,49.50565931917945]]]]},"id":"229"},{"type":"Feature","properties":{"id":"230"},"geometry":{"type":"MultiPolygon","coordinates":[[[[31.59969985485071,49.455094481648004],[31.601051688194215,49.453713567914924],[31.600912213325437,49.45364382376501],[31.59954428672784,49.455042175018555],[31.59969985485071,49.455094481648004]]]]},"id":"230"},{"type":"Feature","properties":{"id":"231"},"geometry":{"type":"MultiPolygon","coordinates":[[[[31.561548113822877,49.54951791029227],[31.56167685985559,49.54942393983055],[31.562063097953736,49.54913506653845],[31.560727357864316,49.5480352441554],[31.560716629028263,49.54804568562357],[31.560405492782536,49.54827539735843],[31.560212373733457,49.54841809652859],[31.561548113822877,49.54951791029227]]]]},"id":"231"},{"type":"Feature","properties":{"id":"232"},"geometry":{"type":"MultiPolygon","coordinates":[[[[31.539782123,49.54092472],[31.541807076,49.539923879],[31.541558663,49.539718161],[31.539528901329053,49.54072151579823],[31.539782123,49.54092472]]]]},"id":"232"},{"type":"Feature","properties":{"id":"233"},"geometry":{"type":"MultiPolygon","coordinates":[[[[31.544103026389998,49.53916963241622],[31.54609858989708,49.53818098395232],[31.545744538307112,49.53802433007131],[31.543847836397944,49.53896310640923],[31.54384553432457,49.538964245824964],[31.544103026389998,49.53916963241622]]]]},"id":"233"},{"type":"Feature","properties":{"id":"234"},"geometry":{"type":"MultiPolygon","coordinates":[[[[31.5446609258651,49.524978521791965],[31.544955968856733,49.52455021766036],[31.5428960323333,49.524003515065715],[31.54259562492363,49.52443182398646],[31.5446609258651,49.524978521791965]]]]},"id":"234"},{"type":"Feature","properties":{"id":"235"},"geometry":{"type":"MultiPolygon","coordinates":[[[[31.625593900680464,49.52846749371976],[31.626049876212992,49.52846052995193],[31.6263931989669,49.52616591443947],[31.625996232032698,49.526172878534155],[31.62593722343437,49.526172878534155],[31.625593900680464,49.52846749371976]]]]},"id":"235"},{"type":"Feature","properties":{"id":"236"},"geometry":{"type":"MultiPolygon","coordinates":[[[[31.543512940406725,49.55455028649952],[31.545481681823652,49.553099094278245],[31.54515445232384,49.55283460376048],[31.544945240020677,49.55283460376048],[31.543094515800405,49.55420228270277],[31.543480753898546,49.554525926314454],[31.543512940406725,49.55455028649952]]]]},"id":"236"},{"type":"Feature","properties":{"id":"237"},"geometry":{"type":"MultiPolygon","coordinates":[[[[31.54113650321953,49.55558036320552],[31.543056964874193,49.55417096223944],[31.542681455612104,49.553854276426414],[31.542236208915636,49.55349234726864],[31.54032647609703,49.554894807815785],[31.54047667980187,49.55502356768385],[31.541034579276964,49.55549684428193],[31.54113650321953,49.55558036320552]]]]},"id":"237"},{"type":"Feature","properties":{"id":"238"},"geometry":{"type":"MultiPolygon","coordinates":[[[[31.53924822807305,49.55019310014612],[31.539527177810598,49.55002256338353],[31.54021382331841,49.54966408620679],[31.541495919227525,49.54900281072619],[31.54097020626061,49.54857123663776],[31.540712714195177,49.548369370029555],[31.539312601089403,49.54909330158379],[31.53833091258995,49.549594478683005],[31.53924822807305,49.55019310014612]]]]},"id":"238"},{"type":"Feature","properties":{"id":"239"},"geometry":{"type":"MultiPolygon","coordinates":[[[[31.552380323409956,49.54836240909715],[31.55402183532707,49.54716163341496],[31.553716063499376,49.54691451359806],[31.552074551582262,49.54811529535426],[31.552214026451036,49.54823015119305],[31.552380323409956,49.54836240909715]]]]},"id":"239"},{"type":"Feature","properties":{"id":"240"},"geometry":{"type":"MultiPolygon","coordinates":[[[[31.55408084392542,49.55256315147668],[31.555904746055546,49.55122326874477],[31.555577516555726,49.550955287787865],[31.55548632144922,49.55088220181719],[31.55365705490106,49.552222093904746],[31.55408084392542,49.55256315147668]]]]},"id":"240"},{"type":"Feature","properties":{"id":"241"},"geometry":{"type":"MultiPolygon","coordinates":[[[[31.60116970539087,49.50820918050683],[31.601239442825257,49.507665778580325],[31.59838020801538,49.50749161001886],[31.598321199417054,49.50803849721857],[31.60116970539087,49.50820918050683]]]]},"id":"241"},{"type":"Feature","properties":{"id":"242"},"geometry":{"type":"MultiPolygon","coordinates":[[[[31.59897029399866,49.441384748008964],[31.600901484489384,49.440973152597266],[31.600745916366517,49.440669685970995],[31.60067617893213,49.44052667231216],[31.598744988441407,49.440934783357434],[31.59897029399866,49.441384748008964]]]]},"id":"242"},{"type":"Feature","properties":{"id":"243"},"geometry":{"type":"MultiPolygon","coordinates":[[[[31.57676696777336,49.43802560992749],[31.577389240264814,49.43773259008753],[31.576370000839155,49.43663723851511],[31.575790643691942,49.43697212566862],[31.57676696777336,49.43802560992749]]]]},"id":"243"},{"type":"Feature","properties":{"id":"244"},"geometry":{"type":"MultiPolygon","coordinates":[[[[31.528905630111634,49.49746193848649],[31.528943181037846,49.49735044743111],[31.526454091072026,49.4967825359258],[31.526416540145814,49.496890544142886],[31.528905630111634,49.49746193848649]]]]},"id":"244"},{"type":"Feature","properties":{"id":"245"},"geometry":{"type":"MultiPolygon","coordinates":[[[[31.564026474952644,49.531197214297805],[31.564659476280152,49.53119025091883],[31.56478822231287,49.5296548016311],[31.56414985656732,49.52965828343007],[31.564026474952644,49.531197214297805]]]]},"id":"245"},{"type":"Feature","properties":{"id":"246"},"geometry":{"type":"MultiPolygon","coordinates":[[[[31.56597912311548,49.53117980584852],[31.566671133041325,49.53116587908462],[31.566794514656006,49.529640874432715],[31.56610250473017,49.52964435623268],[31.56597912311548,49.53117980584852]]]]},"id":"246"},{"type":"Feature","properties":{"id":"247"},"geometry":{"type":"MultiPolygon","coordinates":[[[[31.59126698970787,49.50284456383886],[31.59132063388817,49.5023847121826],[31.591331362724222,49.50224536234261],[31.588745713233873,49.5020746582478],[31.588675975799486,49.50267386183447],[31.59126698970787,49.50284456383886]]]]},"id":"247"},{"type":"Feature","properties":{"id":"248"},"geometry":{"type":"MultiPolygon","coordinates":[[[[31.605992317199647,49.51732767890408],[31.60606205463403,49.516794826415975],[31.60315454006189,49.51673562022559],[31.603079438209477,49.517258025313915],[31.603079438209477,49.51726847335876],[31.605992317199647,49.51732767890408]]]]},"id":"248"},{"type":"Feature","properties":{"id":"249"},"geometry":{"type":"MultiPolygon","coordinates":[[[[31.595172286033556,49.55405612036871],[31.59525811672203,49.55349582736946],[31.593959927558817,49.55342970541139],[31.59396529197685,49.5533809839113],[31.59220576286308,49.553231339000035],[31.592119932174608,49.55379859519209],[31.595172286033556,49.55405612036871]]]]},"id":"249"},{"type":"Feature","properties":{"id":"250"},"geometry":{"type":"MultiPolygon","coordinates":[[[[31.570882201194703,49.55213160884309],[31.57142937183374,49.55171746353699],[31.570732518549526,49.551065534047595],[31.570695262082044,49.55103067937966],[31.56971812248224,49.5501165326937],[31.569165587425175,49.550527211261276],[31.570145854120863,49.551443397268876],[31.57018171194683,49.55147691104483],[31.570882201194703,49.55213160884309]]]]},"id":"250"},{"type":"Feature","properties":{"id":"251"},"geometry":{"type":"MultiPolygon","coordinates":[[[[31.569852232932988,49.55290072652419],[31.569872658448592,49.552885405034964],[31.569927485556104,49.55284427838956],[31.570367217063847,49.55251442911221],[31.569666131942068,49.55185997714365],[31.569631425481692,49.551827579207064],[31.568655967712346,49.550917004674005],[31.568204430128823,49.55124961797281],[31.568180421696567,49.551267361419484],[31.568180387648834,49.55126732823408],[31.568140983581486,49.551296354205135],[31.569852232932988,49.55290072652419]]]]},"id":"251"}]}