{"type":"FeatureCollection","name":"обміни_2","crs":{"type":"name","properties":{"name":"urn:ogc:def:crs:OGC:1.3:CRS84"}},"features":[{"type":"Feature","properties":{"id":"1","контрагент":"сусіди1","статус":"передано","площа":6.42},"geometry":{"type":"MultiPolygon","coordinates":[[[[29.854348897933885,50.36921930107161],[29.85737442970268,50.367953281530866],[29.85542178153984,50.366078141879996],[29.85241770744316,50.367357898502014],[29.853372573852464,50.368281765521566],[29.853383302688524,50.36829545230517],[29.854348897933885,50.36921930107161]]]]},"id":"1"},{"type":"Feature","properties":{"id":"2","контрагент":"сусіди1","статус":"передано","площа":2.37},"geometry":{"type":"MultiPolygon","coordinates":[[[[29.847557544708174,50.36689938004341],[29.850604534149088,50.36560592350073],[29.849992990493696,50.365024198747896],[29.849896430969164,50.36492154069837],[29.846849441528242,50.366215015894156],[29.847557544708174,50.36689938004341]]]]},"id":"2"},{"type":"Feature","properties":{"id":"3","контрагент":"сусіди1","статус":"передано","площа":2.93},"geometry":{"type":"MultiPolygon","coordinates":[[[[29.845529794692915,50.37012260247406],[29.846516847610395,50.369705169872205],[29.84659194946281,50.36967095392234],[29.845551252365034,50.36864446395314],[29.844553470611494,50.367645325724446],[29.844027757644575,50.36711837448676],[29.843984842300333,50.36707731310561],[29.843534231185835,50.36746739479203],[29.843491315841593,50.3675221428423],[29.843276739120405,50.36787800362941],[29.845529794692915,50.37012260247406]]]]},"id":"3"},{"type":"Feature","properties":{"id":"4","контрагент":"сусіди1","статус":"передано","площа":9.28},"geometry":{"type":"MultiPolygon","coordinates":[[[[29.850325584411543,50.369575149131414],[29.853372573852464,50.368281765521566],[29.85241770744316,50.367357898502014],[29.8524069786071,50.367344211448],[29.851462841033857,50.3664340134957],[29.85143065452568,50.366406638850776],[29.851226806640543,50.366208172202825],[29.850711822509684,50.365715423833215],[29.850604534149088,50.36560592350073],[29.847557544708174,50.36689938004341],[29.848394393920817,50.367706917045616],[29.84935998916618,50.36863762061217],[29.850325584411543,50.369575149131414]]]]},"id":"4"},{"type":"Feature","properties":{"id":"5","контрагент":"сусіди1","статус":"передано","площа":1.97},"geometry":{"type":"MultiPolygon","coordinates":[[[[29.853790998458784,50.37265449202392],[29.854381084442057,50.372613435433244],[29.854595661163252,50.37259290712457],[29.852052927017137,50.37030052345045],[29.851505756378096,50.37053318833602],[29.851988554000776,50.37115590344611],[29.85314726829521,50.37260659266467],[29.853790998458784,50.37265449202392]]]]},"id":"5"},{"type":"Feature","properties":{"id":"6","контрагент":"сусіди1","статус":"передано","площа":1.82},"geometry":{"type":"MultiPolygon","coordinates":[[[[29.858608245849528,50.3701362887267],[29.85882282257072,50.369992582877096],[29.85939145088188,50.36962305155105],[29.857578277587812,50.36798749871933],[29.856644868850626,50.36837072954441],[29.858608245849528,50.3701362887267]]]]},"id":"6"},{"type":"Feature","properties":{"id":"7","контрагент":"сусіди1","статус":"передано","площа":3.24},"geometry":{"type":"MultiPolygon","coordinates":[[[[29.851291179656904,50.37049897298321],[29.854348897933885,50.36921930107161],[29.853383302688524,50.36829545230517],[29.853372573852464,50.368281765521566],[29.850325584411543,50.369575149131414],[29.851291179656904,50.37049897298321]]]]},"id":"7"},{"type":"Feature","properties":{"id":"8","контрагент":"сусіди1","статус":"передано","площа":3.03},"geometry":{"type":"MultiPolygon","coordinates":[[[[29.849864244460978,50.371114845558644],[29.851237535476603,50.370526345267436],[29.849199056625288,50.36856234379632],[29.8478686809539,50.36912349536879],[29.849864244460978,50.371114845558644]]]]},"id":"8"},{"type":"Feature","properties":{"id":"9","контрагент":"сусіди1","статус":"передано","площа":1.92},"geometry":{"type":"MultiPolygon","coordinates":[[[[29.856526851653975,50.371600694949734],[29.85689163208,50.371320134640705],[29.857159852981486,50.37112853152509],[29.85491752624504,50.369102965550155],[29.85412359237663,50.36943144158236],[29.856526851653975,50.371600694949734]]]]},"id":"9"},{"type":"Feature","properties":{"id":"10","контрагент":"сусіди1","статус":"передано","площа":1.96},"geometry":{"type":"MultiPolygon","coordinates":[[[[29.857159852981486,50.37112853152509],[29.85785722732536,50.37061530508206],[29.85578656196586,50.36874027062314],[29.85491752624504,50.369102965550155],[29.857159852981486,50.37112853152509]]]]},"id":"10"},{"type":"Feature","properties":{"id":"11","контрагент":"сусіди1","статус":"передано","площа":3.22},"geometry":{"type":"MultiPolygon","coordinates":[[[[29.857438802719034,50.36793275120595],[29.860786199569628,50.366529824628586],[29.85988497734062,50.36568804877378],[29.856559038162153,50.36708415667161],[29.857438802719034,50.36793275120595]]]]},"id":"11"},{"type":"Feature","properties":{"id":"12","контрагент":"сусіди1","статус":"передано","площа":2.9},"geometry":{"type":"MultiPolygon","coordinates":[[[[29.845551252365034,50.36864446395314],[29.84813690185539,50.36754267334486],[29.847117662429728,50.36655719920244],[29.844553470611494,50.367645325724446],[29.845551252365034,50.36864446395314]]]]},"id":"12"},{"type":"Feature","properties":{"id":"13","контрагент":"сусіди1","статус":"передано","площа":3.22},"geometry":{"type":"MultiPolygon","coordinates":[[[[29.856559038162153,50.36708415667161],[29.85988497734062,50.36568804877378],[29.858983755111613,50.36484625798759],[29.855668544769205,50.36622870327386],[29.856559038162153,50.36708415667161]]]]},"id":"13"},{"type":"Feature","properties":{"id":"14","контрагент":"сусіди1","статус":"передано","площа":3.02},"geometry":{"type":"MultiPolygon","coordinates":[[[[29.84659194946281,50.36967095392234],[29.8478686809539,50.36912349536879],[29.849199056625288,50.36856234379632],[29.84813690185539,50.36754267334486],[29.845551252365034,50.36864446395314],[29.84659194946281,50.36967095392234]]]]},"id":"14"},{"type":"Feature","properties":{"id":"15","контрагент":"сусіди1","статус":"передано","площа":1.92},"geometry":{"type":"MultiPolygon","coordinates":[[[[29.854595661163252,50.37259290712457],[29.85502481460564,50.37254500770315],[29.855400323867713,50.37245605150649],[29.8554325103759,50.37242868033551],[29.852750301361006,50.370006269167234],[29.852052927017137,50.37030052345045],[29.854595661163252,50.37259290712457]]]]},"id":"15"},{"type":"Feature","properties":{"id":"16","контрагент":"сусіди1","статус":"передано","площа":1.82},"geometry":{"type":"MultiPolygon","coordinates":[[[[29.855968952178873,50.372024953729294],[29.856526851653975,50.371600694949734],[29.85412359237663,50.36943144158236],[29.8534154891967,50.36972569943029],[29.855968952178873,50.372024953729294]]]]},"id":"16"},{"type":"Feature","properties":{"id":"17","контрагент":"сусіди1","статус":"передано","площа":1.84},"geometry":{"type":"MultiPolygon","coordinates":[[[[29.85785722732536,50.37061530508206],[29.858608245849528,50.3701362887267],[29.856644868850626,50.36837072954441],[29.85578656196586,50.36874027062314],[29.85785722732536,50.37061530508206]]]]},"id":"17"},{"type":"Feature","properties":{"id":"18","контрагент":"сусіди1","статус":"передано","площа":1.83},"geometry":{"type":"MultiPolygon","coordinates":[[[[29.8554325103759,50.37242868033551],[29.855765104293745,50.37218233908605],[29.855968952178873,50.372024953729294],[29.8534154891967,50.36972569943029],[29.853157997131266,50.36984203342499],[29.852750301361006,50.370006269167234],[29.8554325103759,50.37242868033551]]]]},"id":"18"},{"type":"Feature","properties":{"id":"19","контрагент":"сусіди1","статус":"передано","площа":3.21},"geometry":{"type":"MultiPolygon","coordinates":[[[[29.854778051376265,50.36537323445526],[29.858071804046553,50.36399760825981],[29.857159852981486,50.36314209922321],[29.85388755798332,50.364510906279634],[29.854778051376265,50.36537323445526]]]]},"id":"19"},{"type":"Feature","properties":{"id":"20","контрагент":"сусіди1","статус":"передано","площа":2.5},"geometry":{"type":"MultiPolygon","coordinates":[[[[29.849992990493696,50.365024198747896],[29.853007793426432,50.36373753514411],[29.852256774902266,50.363012060499486],[29.849241971969523,50.364291899803526],[29.849896430969164,50.36492154069837],[29.849992990493696,50.365024198747896]]]]},"id":"20"},{"type":"Feature","properties":{"id":"21","контрагент":"сусіди1","статус":"передано","площа":2.39},"geometry":{"type":"MultiPolygon","coordinates":[[[[29.850711822509684,50.365715423833215],[29.853726625442427,50.36443562291746],[29.853007793426432,50.36373753514411],[29.849992990493696,50.365024198747896],[29.850604534149088,50.36560592350073],[29.850711822509684,50.365715423833215]]]]},"id":"21"},{"type":"Feature","properties":{"id":"22","контрагент":"сусіди1","статус":"передано","площа":2.06},"geometry":{"type":"MultiPolygon","coordinates":[[[[29.84617352485649,50.365558017025805],[29.849209785461344,50.36426452392295],[29.848812818527144,50.36387441590897],[29.84859824180595,50.36366909461364],[29.845551252365034,50.36496944781579],[29.846001863479536,50.36540060969631],[29.84617352485649,50.365558017025805]]]]},"id":"22"},{"type":"Feature","properties":{"id":"23","контрагент":"сусіди1","статус":"передано","площа":2.53},"geometry":{"type":"MultiPolygon","coordinates":[[[[29.845551252365034,50.36496944781579],[29.84859824180595,50.36366909461364],[29.848308563232344,50.363388487406844],[29.847836494445723,50.36294361892284],[29.84480023384086,50.36423714802659],[29.845325946807787,50.36474359955316],[29.845551252365034,50.36496944781579]]]]},"id":"23"},{"type":"Feature","properties":{"id":"24","контрагент":"сусіди1","статус":"передано","площа":2.51},"geometry":{"type":"MultiPolygon","coordinates":[[[[29.844553470611494,50.367645325724446],[29.847117662429728,50.36655719920244],[29.84591603279106,50.365393765887525],[29.844574928283613,50.36656404284344],[29.843984842300333,50.36707731310561],[29.844027757644575,50.36711837448676],[29.844553470611494,50.367645325724446]]]]},"id":"24"},{"type":"Feature","properties":{"id":"25","контрагент":"сусіди1","статус":"передано","площа":2.47},"geometry":{"type":"MultiPolygon","coordinates":[[[[29.851462841033857,50.3664340134957],[29.854466915130537,50.36515423195851],[29.853726625442427,50.36443562291746],[29.850711822509684,50.365715423833215],[29.851226806640543,50.366208172202825],[29.85143065452568,50.366406638850776],[29.851462841033857,50.3664340134957]]]]},"id":"25"},{"type":"Feature","properties":{"id":"26","контрагент":"сусіди1","статус":"передано","площа":2.28},"geometry":{"type":"MultiPolygon","coordinates":[[[[29.846849441528242,50.366215015894156],[29.849896430969164,50.36492154069837],[29.849241971969523,50.364291899803526],[29.849209785461344,50.36426452392295],[29.84617352485649,50.365558017025805],[29.846849441528242,50.366215015894156]]]]},"id":"26"},{"type":"Feature","properties":{"id":"27","контрагент":"сусіди1","статус":"передано","площа":3.16},"geometry":{"type":"MultiPolygon","coordinates":[[[[29.85241770744316,50.367357898502014],[29.85542178153984,50.366078141879996],[29.854466915130537,50.36515423195851],[29.851462841033857,50.3664340134957],[29.85241770744316,50.367357898502014]]]]},"id":"27"},{"type":"Feature","properties":{"id":"28","контрагент":"сусіди1","статус":"передано","площа":3.21},"geometry":{"type":"MultiPolygon","coordinates":[[[[29.855668544769205,50.36622870327386],[29.858983755111613,50.36484625798759],[29.858071804046553,50.36399760825981],[29.854778051376265,50.36537323445526],[29.855668544769205,50.36622870327386]]]]},"id":"28"},{"type":"Feature","properties":{"id":"29","контрагент":"сусіди1","статус":"передано","площа":3.03},"geometry":{"type":"MultiPolygon","coordinates":[[[[29.84716057777397,50.37226445297799],[29.848512411117476,50.37168965275009],[29.846516847610395,50.369705169872205],[29.845529794692915,50.37012260247406],[29.845165014266893,50.37027999414107],[29.84716057777397,50.37226445297799]]]]},"id":"29"},{"type":"Feature","properties":{"id":"30","контрагент":"сусіди1","статус":"передано","площа":3.04},"geometry":{"type":"MultiPolygon","coordinates":[[[[29.848512411117476,50.37168965275009],[29.849864244460978,50.371114845558644],[29.8478686809539,50.36912349536879],[29.84659194946281,50.36967095392234],[29.846516847610395,50.369705169872205],[29.848512411117476,50.37168965275009]]]]},"id":"30"},{"type":"Feature","properties":{"id":"31","контрагент":"сусіди2","статус":"отримано","площа":1.99},"geometry":{"type":"MultiPolygon","coordinates":[[[[29.875677824020308,50.369000316323785],[29.878199100494303,50.36789169052946],[29.877480268478315,50.36721418423794],[29.87494826316825,50.3683296692469],[29.875677824020308,50.369000316323785]]]]},"id":"31"},{"type":"Feature","properties":{"id":"32","контрагент":"сусіди2","статус":"отримано","площа":2.11},"geometry":{"type":"MultiPolygon","coordinates":[[[[29.876450300216597,50.36971885624526],[29.878971576690592,50.3686102472384],[29.878284931182783,50.36796012497054],[29.878199100494303,50.36789169052946],[29.875677824020308,50.369000316323785],[29.876450300216597,50.36971885624526]]]]},"id":"32"},{"type":"Feature","properties":{"id":"33","контрагент":"сусіди2","статус":"отримано","площа":2.13},"geometry":{"type":"MultiPolygon","coordinates":[[[[29.87412214279167,50.371381721192115],[29.876857995986864,50.370177347460924],[29.87613916397087,50.36951356023511],[29.873403310775675,50.370711107772834],[29.874057769775316,50.37131329168562],[29.87412214279167,50.371381721192115]]]]},"id":"33"},{"type":"Feature","properties":{"id":"34","контрагент":"сусіди2","статус":"отримано","площа":1.87},"geometry":{"type":"MultiPolygon","coordinates":[[[[29.876493215560835,50.366303983791674],[29.87861752510063,50.36537323445526],[29.877845048904337,50.36463409697833],[29.87565636634819,50.36553064187557],[29.876493215560835,50.366303983791674]]]]},"id":"34"},{"type":"Feature","properties":{"id":"35","контрагент":"сусіди2","статус":"отримано","площа":1.93},"geometry":{"type":"MultiPolygon","coordinates":[[[[29.863178730010908,50.36810383697553],[29.86364006996147,50.36787800362941],[29.864079952239912,50.36758373432334],[29.862320423126143,50.365996017282],[29.861311912536543,50.366420326175216],[29.863178730010908,50.36810383697553]]]]},"id":"35"},{"type":"Feature","properties":{"id":"36","контрагент":"сусіди2","статус":"отримано","площа":2.03},"geometry":{"type":"MultiPolygon","coordinates":[[[[29.867191314697184,50.37208653936585],[29.86829638481132,50.371600694949734],[29.866558313369673,50.37004048487532],[29.86601114273063,50.37027999414107],[29.865453243255537,50.370526345267436],[29.867191314697184,50.37208653936585]]]]},"id":"36"},{"type":"Feature","properties":{"id":"37","контрагент":"сусіди2","статус":"отримано","площа":2.54},"geometry":{"type":"MultiPolygon","coordinates":[[[[29.86263155937187,50.371764924604754],[29.86266374588005,50.37175123882188],[29.86373662948601,50.37127907689535],[29.861601591110148,50.36935616602582],[29.861011505126875,50.36958199233718],[29.860410690307535,50.369759915340694],[29.86263155937187,50.371764924604754]]]]},"id":"37"},{"type":"Feature","properties":{"id":"38","контрагент":"сусіди2","статус":"отримано","площа":2.11},"geometry":{"type":"MultiPolygon","coordinates":[[[[29.869219064712446,50.36682410047008],[29.87195491790764,50.36562645483231],[29.871171712875288,50.36490100906181],[29.868972301483073,50.36601654844481],[29.86859679222099,50.36624923433601],[29.869219064712446,50.36682410047008]]]]},"id":"38"},{"type":"Feature","properties":{"id":"39","контрагент":"сусіди2","статус":"отримано","площа":1.98},"geometry":{"type":"MultiPolygon","coordinates":[[[[29.866837263107218,50.369917308210745],[29.867663383483805,50.3695546195082],[29.867169857025072,50.3691166520969],[29.865474700927656,50.3675905778163],[29.864745140075602,50.36772060399501],[29.86450910568229,50.36781641253031],[29.866837263107218,50.369917308210745]]]]},"id":"39"},{"type":"Feature","properties":{"id":"40","контрагент":"сусіди2","статус":"отримано","площа":1.83},"geometry":{"type":"MultiPolygon","coordinates":[[[[29.861333370208662,50.36887713695903],[29.861601591110148,50.368781330565355],[29.862298965454016,50.368528127022365],[29.860389232635416,50.366803569656646],[29.8594665527343,50.367193653593255],[29.861333370208662,50.36887713695903]]]]},"id":"40"},{"type":"Feature","properties":{"id":"41","контрагент":"сусіди2","статус":"отримано","площа":2.54},"geometry":{"type":"MultiPolygon","coordinates":[[[[29.864938259124678,50.370752166009666],[29.865453243255537,50.370526345267436],[29.86601114273063,50.37027999414107],[29.863704442977824,50.368206488141205],[29.86326456069938,50.36848706686106],[29.862792491912764,50.36882239047204],[29.864938259124678,50.370752166009666]]]]},"id":"41"},{"type":"Feature","properties":{"id":"42","контрагент":"сусіди2","статус":"отримано","площа":2.07},"geometry":{"type":"MultiPolygon","coordinates":[[[[29.867770671844404,50.36942459835488],[29.87065672874443,50.36815858429152],[29.870570898055952,50.36808330671576],[29.86999154090873,50.36754267334486],[29.86709475517265,50.36881554715673],[29.867770671844404,50.36942459835488]]]]},"id":"42"},{"type":"Feature","properties":{"id":"43","контрагент":"сусіди2","статус":"отримано","площа":2.01},"geometry":{"type":"MultiPolygon","coordinates":[[[[29.8712468147277,50.36871289730859],[29.87398266792289,50.367508455835655],[29.873306751251143,50.36687884926252],[29.870570898055952,50.36808330671576],[29.87065672874443,50.36815858429152],[29.87086057662956,50.36835019940009],[29.8712468147277,50.36871289730859]]]]},"id":"43"},{"type":"Feature","properties":{"id":"44","контрагент":"сусіди2","статус":"отримано","площа":2.06},"geometry":{"type":"MultiPolygon","coordinates":[[[[29.873478412628096,50.36696097233275],[29.875999689102095,50.36585229889354],[29.87524867057793,50.36515423195851],[29.872727394103922,50.36626292170586],[29.87293124198906,50.366468231779656],[29.873478412628096,50.36696097233275]]]]},"id":"44"},{"type":"Feature","properties":{"id":"45","контрагент":"сусіди2","статус":"отримано","площа":2.13},"geometry":{"type":"MultiPolygon","coordinates":[[[[29.873403310775675,50.370711107772834],[29.87613916397087,50.36951356023511],[29.87542033195488,50.368842920412064],[29.872684478759687,50.370047328013975],[29.8733711242675,50.37067689254833],[29.873403310775675,50.370711107772834]]]]},"id":"45"},{"type":"Feature","properties":{"id":"46","контрагент":"сусіди2","статус":"отримано","площа":2.14},"geometry":{"type":"MultiPolygon","coordinates":[[[[29.869176149368208,50.370690578641096],[29.872030019760054,50.36943828480884],[29.8719656467437,50.3693766957349],[29.87134337425224,50.36879501720487],[29.86847877502434,50.370054171151644],[29.869176149368208,50.370690578641096]]]]},"id":"46"},{"type":"Feature","properties":{"id":"47","контрагент":"сусіди2","статус":"отримано","площа":2.04},"geometry":{"type":"MultiPolygon","coordinates":[[[[29.86985206603996,50.37130644872953],[29.872684478759687,50.370047328013975],[29.872030019760054,50.36943828480884],[29.869176149368208,50.370690578641096],[29.869755506515425,50.37121064724081],[29.86985206603996,50.37130644872953]]]]},"id":"47"},{"type":"Feature","properties":{"id":"48","контрагент":"сусіди2","статус":"отримано","площа":1.99},"geometry":{"type":"MultiPolygon","coordinates":[[[[29.864079952239912,50.36758373432334],[29.864230155944743,50.36748792531828],[29.865238666534346,50.36721418423794],[29.863382577896036,50.36555117323972],[29.862320423126143,50.365996017282],[29.864079952239912,50.36758373432334]]]]},"id":"48"},{"type":"Feature","properties":{"id":"49","контрагент":"сусіди2","статус":"отримано","площа":2.17},"geometry":{"type":"MultiPolygon","coordinates":[[[[29.865442514419478,50.36732368085957],[29.86652612686149,50.3669883466579],[29.864380359649584,50.3650584180484],[29.863404035568163,50.36548273532466],[29.865442514419478,50.36732368085957]]]]},"id":"49"},{"type":"Feature","properties":{"id":"50","контрагент":"сусіди2","статус":"отримано","площа":2.08},"geometry":{"type":"MultiPolygon","coordinates":[[[[29.870538711547773,50.371922310824054],[29.8733711242675,50.37067689254833],[29.872684478759687,50.370047328013975],[29.86985206603996,50.37130644872953],[29.870538711547773,50.371922310824054]]]]},"id":"50"},{"type":"Feature","properties":{"id":"51","контрагент":"сусіди2","статус":"отримано","площа":2.15},"geometry":{"type":"MultiPolygon","coordinates":[[[[29.86753463745109,50.36665301008662],[29.86836075782768,50.36614657893642],[29.866247177123945,50.36423714802659],[29.865313768386763,50.36464778481399],[29.86753463745109,50.36665301008662]]]]},"id":"51"},{"type":"Feature","properties":{"id":"52","контрагент":"сусіди2","статус":"отримано","площа":2.1},"geometry":{"type":"MultiPolygon","coordinates":[[[[29.86709475517265,50.36881554715673],[29.86999154090873,50.36754267334486],[29.86991643905632,50.36746739479203],[29.869326353073046,50.366919910815405],[29.8664188385009,50.36819964473707],[29.86709475517265,50.36881554715673]]]]},"id":"52"},{"type":"Feature","properties":{"id":"53","контрагент":"сусіди2","статус":"отримано","площа":2.17},"geometry":{"type":"MultiPolygon","coordinates":[[[[29.86652612686149,50.3669883466579],[29.867427349090498,50.36671460269573],[29.86753463745109,50.36665301008662],[29.865313768386763,50.36464778481399],[29.864380359649584,50.3650584180484],[29.86652612686149,50.3669883466579]]]]},"id":"53"},{"type":"Feature","properties":{"id":"54","контрагент":"сусіди2","статус":"отримано","площа":2.88},"geometry":{"type":"MultiPolygon","coordinates":[[[[29.86085057258598,50.36650245003892],[29.86256718635551,50.365783861412716],[29.86400485038749,50.36515423195851],[29.863382577896036,50.36457250166895],[29.86316800117485,50.36436718339368],[29.860002994537275,50.365715423833215],[29.86085057258598,50.36650245003892]]]]},"id":"54"},{"type":"Feature","properties":{"id":"55","контрагент":"сусіди2","статус":"отримано","площа":2.8},"geometry":{"type":"MultiPolygon","coordinates":[[[[29.866847991943278,50.36319685226344],[29.87086057662956,50.3614241905052],[29.870227575302046,50.36082188109368],[29.86620426177971,50.362601409559204],[29.866847991943278,50.36319685226344]]]]},"id":"55"},{"type":"Feature","properties":{"id":"56","контрагент":"сусіди2","статус":"отримано","площа":2.23},"geometry":{"type":"MultiPolygon","coordinates":[[[[29.862127304077063,50.363395331504805],[29.86542105674736,50.36195120497059],[29.864798784255903,50.36136943541999],[29.861505031585615,50.362813579655324],[29.862127304077063,50.363395331504805]]]]},"id":"56"},{"type":"Feature","properties":{"id":"57","контрагент":"сусіди2","статус":"отримано","площа":5.65},"geometry":{"type":"MultiPolygon","coordinates":[[[[29.860002994537275,50.365715423833215],[29.86316800117485,50.36436718339368],[29.862749576568522,50.36398392023661],[29.862309694290083,50.36356643363288],[29.862127304077063,50.363395331504805],[29.861505031585615,50.36282042383618],[29.858340024948042,50.364168708216596],[29.85914468765251,50.36492154069837],[29.860002994537275,50.365715423833215]]]]},"id":"57"},{"type":"Feature","properties":{"id":"58","контрагент":"сусіди2","статус":"отримано","площа":2.25},"geometry":{"type":"MultiPolygon","coordinates":[[[[29.862749576568522,50.36398392023661],[29.86605405807487,50.362539811611704],[29.86542105674736,50.36195120497059],[29.862127304077063,50.363395331504805],[29.862309694290083,50.36356643363288],[29.862749576568522,50.36398392023661]]]]},"id":"58"},{"type":"Feature","properties":{"id":"59","контрагент":"сусіди2","статус":"отримано","площа":2.26},"geometry":{"type":"MultiPolygon","coordinates":[[[[29.863382577896036,50.36457250166895],[29.866687059402384,50.36312841095328],[29.86605405807487,50.362539811611704],[29.862749576568522,50.36398392023661],[29.86316800117485,50.36436718339368],[29.863382577896036,50.36457250166895]]]]},"id":"59"},{"type":"Feature","properties":{"id":"60","контрагент":"сусіди2","статус":"отримано","площа":2.28},"geometry":{"type":"MultiPolygon","coordinates":[[[[29.8608720302581,50.36223182067508],[29.864176511764445,50.360787658738545],[29.86354351043693,50.3601921858095],[29.860239028930582,50.36163636586381],[29.860539436340254,50.36192382773986],[29.860700368881147,50.362074402313446],[29.8608720302581,50.36223182067508]]]]},"id":"60"},{"type":"Feature","properties":{"id":"61","контрагент":"сусіди2","статус":"отримано","площа":2.24},"geometry":{"type":"MultiPolygon","coordinates":[[[[29.86400485038749,50.36515423195851],[29.865860939025804,50.364346651517295],[29.86730933189384,50.36371015894377],[29.866687059402384,50.36312841095328],[29.863382577896036,50.36457250166895],[29.86400485038749,50.36515423195851]]]]},"id":"61"},{"type":"Feature","properties":{"id":"62","контрагент":"сусіди2","статус":"отримано","площа":2.53},"geometry":{"type":"MultiPolygon","coordinates":[[[[29.87279176712028,50.36287517724751],[29.876954555511396,50.36113672560311],[29.876407384872362,50.3606028575945],[29.872212409973066,50.362348173041596],[29.87279176712028,50.36287517724751]]]]},"id":"62"},{"type":"Feature","properties":{"id":"63","контрагент":"сусіди2","статус":"отримано","площа":2.2},"geometry":{"type":"MultiPolygon","coordinates":[[[[29.871193170547407,50.36465462873034],[29.872223138809126,50.36413448827458],[29.870334863662638,50.3624303039521],[29.869251251220625,50.36290939809752],[29.871193170547407,50.36465462873034]]]]},"id":"63"},{"type":"Feature","properties":{"id":"64","контрагент":"сусіди2","статус":"отримано","площа":2.12},"geometry":{"type":"MultiPolygon","coordinates":[[[[29.872727394103922,50.36626292170586],[29.87524867057793,50.36515423195851],[29.874465465545576,50.36443562291746],[29.87195491790764,50.3655374856646],[29.872727394103922,50.36626292170586]]]]},"id":"64"},{"type":"Feature","properties":{"id":"65","контрагент":"сусіди2","статус":"отримано","площа":0.71},"geometry":{"type":"MultiPolygon","coordinates":[[[[29.868242740631025,50.369848876592265],[29.871107339858927,50.36858287384885],[29.87088203430168,50.36837072954441],[29.86800670623771,50.36963673794778],[29.868242740631025,50.369848876592265]]]]},"id":"65"},{"type":"Feature","properties":{"id":"66","контрагент":"сусіди2","статус":"отримано","площа":1.95},"geometry":{"type":"MultiPolygon","coordinates":[[[[29.870570898055952,50.36808330671576],[29.873306751251143,50.36687884926252],[29.87265229225151,50.36626976538929],[29.86991643905632,50.36746739479203],[29.86999154090873,50.36754267334486],[29.870570898055952,50.36808330671576]]]]},"id":"66"},{"type":"Feature","properties":{"id":"67","контрагент":"сусіди2","статус":"отримано","площа":2.69},"geometry":{"type":"MultiPolygon","coordinates":[[[[29.86373662948601,50.37127907689535],[29.86403703689567,50.371149060467346],[29.864938259124678,50.370752166009666],[29.862792491912764,50.36882239047204],[29.862395524978556,50.36908927899948],[29.861955642700114,50.36921245781354],[29.861601591110148,50.36935616602582],[29.86373662948601,50.37127907689535]]]]},"id":"67"},{"type":"Feature","properties":{"id":"68","контрагент":"сусіди2","статус":"отримано","площа":2.05},"geometry":{"type":"MultiPolygon","coordinates":[[[[29.86601114273063,50.37027999414107],[29.866558313369673,50.37004048487532],[29.866837263107218,50.369917308210745],[29.86450910568229,50.36781641253031],[29.863929748535078,50.36806277644709],[29.863704442977824,50.368206488141205],[29.86601114273063,50.37027999414107]]]]},"id":"68"},{"type":"Feature","properties":{"id":"69","контрагент":"сусіди2","статус":"отримано","площа":1.82},"geometry":{"type":"MultiPolygon","coordinates":[[[[29.862298965454016,50.368528127022365],[29.862384796142496,50.368500753585444],[29.863178730010908,50.36810383697553],[29.861311912536543,50.366420326175216],[29.860389232635416,50.366803569656646],[29.862298965454016,50.368528127022365]]]]},"id":"69"},{"type":"Feature","properties":{"id":"70","контрагент":"сусіди2","статус":"отримано","площа":2.15},"geometry":{"type":"MultiPolygon","coordinates":[[[[29.86836075782768,50.36614657893642],[29.86878991127006,50.36587967385823],[29.869261980056685,50.365640142381764],[29.867223501205366,50.363805975575886],[29.866247177123945,50.36423714802659],[29.86836075782768,50.36614657893642]]]]},"id":"70"},{"type":"Feature","properties":{"id":"71","контрагент":"сусіди2","статус":"отримано","площа":2.16},"geometry":{"type":"MultiPolygon","coordinates":[[[[29.8664188385009,50.36819964473707],[29.869326353073046,50.366919910815405],[29.869219064712446,50.36682410047008],[29.86859679222099,50.36624923433601],[29.86758828163139,50.366858318472765],[29.86561417579643,50.36747423830177],[29.8664188385009,50.36819964473707]]]]},"id":"71"},{"type":"Feature","properties":{"id":"72","контрагент":"сусіди2","статус":"отримано","площа":2.1},"geometry":{"type":"MultiPolygon","coordinates":[[[[29.872684478759687,50.370047328013975],[29.87542033195488,50.368842920412064],[29.874701499938883,50.36817911451874],[29.872019290923994,50.3693766957349],[29.871987104415812,50.36939038220268],[29.872030019760054,50.36943828480884],[29.872684478759687,50.370047328013975]]]]},"id":"72"},{"type":"Feature","properties":{"id":"73","контрагент":"сусіди2","статус":"отримано","площа":2.05},"geometry":{"type":"MultiPolygon","coordinates":[[[[29.86991643905632,50.36746739479203],[29.87265229225151,50.36626976538929],[29.87195491790764,50.36562645483231],[29.869219064712446,50.36682410047008],[29.869326353073046,50.366919910815405],[29.86991643905632,50.36746739479203]]]]},"id":"73"},{"type":"Feature","properties":{"id":"74","контрагент":"сусіди2","статус":"отримано","площа":2.14},"geometry":{"type":"MultiPolygon","coordinates":[[[[29.872019290923994,50.3693766957349],[29.874701499938883,50.36817911451874],[29.87398266792289,50.367508455835655],[29.8712468147277,50.36871289730859],[29.87134337425224,50.36879501720487],[29.872019290923994,50.3693766957349]]]]},"id":"74"},{"type":"Feature","properties":{"id":"75","контрагент":"сусіди2","статус":"отримано","площа":0.71},"geometry":{"type":"MultiPolygon","coordinates":[[[[29.86847877502434,50.370054171151644],[29.87134337425224,50.36879501720487],[29.8712468147277,50.36871289730859],[29.871107339858927,50.36858287384885],[29.868242740631025,50.369848876592265],[29.86847877502434,50.370054171151644]]]]},"id":"75"},{"type":"Feature","properties":{"id":"76","контрагент":"сусіди2","статус":"отримано","площа":0.71},"geometry":{"type":"MultiPolygon","coordinates":[[[[29.86800670623771,50.36963673794778],[29.87088203430168,50.36837072954441],[29.87086057662956,50.36835019940009],[29.87065672874443,50.36815858429152],[29.867770671844404,50.36942459835488],[29.86800670623771,50.36963673794778]]]]},"id":"76"},{"type":"Feature","properties":{"id":"77","контрагент":"сусіди2","статус":"отримано","площа":2.02},"geometry":{"type":"MultiPolygon","coordinates":[[[[29.86829638481132,50.371600694949734],[29.8693907260894,50.371114845558644],[29.867663383483805,50.3695546195082],[29.866837263107218,50.369917308210745],[29.866558313369673,50.37004048487532],[29.86829638481132,50.371600694949734]]]]},"id":"77"},{"type":"Feature","properties":{"id":"78","контрагент":"сусіди2","статус":"отримано","площа":2.48},"geometry":{"type":"MultiPolygon","coordinates":[[[[29.860239028930582,50.36163636586381],[29.86354351043693,50.3601921858095],[29.86284613609306,50.3595487928693],[29.859541654586714,50.360992992499185],[29.8598635196685,50.36128730267372],[29.860239028930582,50.36163636586381]]]]},"id":"78"},{"type":"Feature","properties":{"id":"79","контрагент":"сусіди2","статус":"отримано","площа":2.52},"geometry":{"type":"MultiPolygon","coordinates":[[[[29.871643781661906,50.361821162983986],[29.875860214233317,50.36006213900353],[29.87532377243034,50.35953510356305],[29.871085882186808,50.36130099147464],[29.871643781661906,50.361821162983986]]]]},"id":"79"},{"type":"Feature","properties":{"id":"80","контрагент":"сусіди2","статус":"отримано","площа":2.52},"geometry":{"type":"MultiPolygon","coordinates":[[[[29.871085882186808,50.36130099147464],[29.87532377243034,50.35953510356305],[29.874787330627363,50.359008062270775],[29.870527982711714,50.360787658738545],[29.870592355728068,50.360849258960016],[29.871085882186808,50.36130099147464]]]]},"id":"80"},{"type":"Feature","properties":{"id":"81","контрагент":"сусіди2","статус":"отримано","площа":2.92},"geometry":{"type":"MultiPolygon","coordinates":[[[[29.86620426177971,50.362601409559204],[29.870227575302046,50.36082188109368],[29.869573116302412,50.36019903036836],[29.86553907394401,50.361978582185515],[29.86620426177971,50.362601409559204]]]]},"id":"81"},{"type":"Feature","properties":{"id":"82","контрагент":"сусіди2","статус":"отримано","площа":2.14},"geometry":{"type":"MultiPolygon","coordinates":[[[[29.869261980056685,50.365640142381764],[29.870216846465986,50.36515423195851],[29.868221282958906,50.36336111100516],[29.867223501205366,50.363805975575886],[29.869261980056685,50.365640142381764]]]]},"id":"82"},{"type":"Feature","properties":{"id":"83","контрагент":"сусіди2","статус":"отримано","площа":2.15},"geometry":{"type":"MultiPolygon","coordinates":[[[[29.870216846465986,50.36515423195851],[29.871193170547407,50.36465462873034],[29.869251251220625,50.36290939809752],[29.868221282958906,50.36336111100516],[29.870216846465986,50.36515423195851]]]]},"id":"83"},{"type":"Feature","properties":{"id":"84","контрагент":"сусіди2","статус":"отримано","площа":2.24},"geometry":{"type":"MultiPolygon","coordinates":[[[[29.861505031585615,50.362813579655324],[29.864798784255903,50.36136943541999],[29.864176511764445,50.360787658738545],[29.8608720302581,50.36223182067508],[29.861505031585615,50.362813579655324]]]]},"id":"84"},{"type":"Feature","properties":{"id":"85","контрагент":"сусіди2","статус":"отримано","площа":2.26},"geometry":{"type":"MultiPolygon","coordinates":[[[[29.872223138809126,50.36413448827458],[29.87329602241508,50.36358696584679],[29.871493577957075,50.36191698342971],[29.870334863662638,50.3624303039521],[29.872223138809126,50.36413448827458]]]]},"id":"85"},{"type":"Feature","properties":{"id":"86","контрагент":"сусіди2","статус":"отримано","площа":2.29},"geometry":{"type":"MultiPolygon","coordinates":[[[[29.867362976074137,50.36368278272763],[29.86930489540092,50.36283411219494],[29.87138628959648,50.36191013911857],[29.87086057662956,50.3614241905052],[29.866847991943278,50.36319685226344],[29.867362976074137,50.36368278272763]]]]},"id":"86"},{"type":"Feature","properties":{"id":"87","контрагент":"сусіди2","статус":"отримано","площа":2.96},"geometry":{"type":"MultiPolygon","coordinates":[[[[29.86553907394401,50.361978582185515],[29.869573116302412,50.36019903036836],[29.86889719963066,50.359569326821266],[29.864863157272257,50.36134890224674],[29.86553907394401,50.361978582185515]]]]},"id":"87"},{"type":"Feature","properties":{"id":"88","контрагент":"сусіди2","статус":"отримано","площа":2.13},"geometry":{"type":"MultiPolygon","coordinates":[[[[29.87195491790764,50.3655374856646],[29.874465465545576,50.36443562291746],[29.87393975257866,50.36393601212436],[29.87362861633293,50.363655406495695],[29.871225357055586,50.36486678964783],[29.87195491790764,50.3655374856646]]]]},"id":"88"},{"type":"Feature","properties":{"id":"89","контрагент":"сусіди2","статус":"отримано","площа":2.55},"geometry":{"type":"MultiPolygon","coordinates":[[[[29.872212409973066,50.362348173041596],[29.876407384872362,50.3606028575945],[29.875860214233317,50.36006213900353],[29.871643781661906,50.361821162983986],[29.87183690071098,50.36199911508637],[29.872212409973066,50.362348173041596]]]]},"id":"89"},{"type":"Feature","properties":{"id":"90","контрагент":"сусіди2","статус":"отримано","площа":3.07},"geometry":{"type":"MultiPolygon","coordinates":[[[[29.864863157272257,50.36134890224674],[29.86889719963066,50.359569326821266],[29.868210554122847,50.358912235952566],[29.86416578292839,50.360698680499745],[29.864863157272257,50.36134890224674]]]]},"id":"90"},{"type":"Feature","properties":{"id":"91","контрагент":"сусіди2","статус":"отримано","площа":1.82},"geometry":{"type":"MultiPolygon","coordinates":[[[[29.885044097900312,50.37153226575903],[29.8868250846862,50.37038264059915],[29.886170625686567,50.36974622897949],[29.884099960327067,50.370628991192596],[29.88433599472038,50.370861654467525],[29.885044097900312,50.37153226575903]]]]},"id":"91"},{"type":"Feature","properties":{"id":"92","контрагент":"сусіди2","статус":"отримано","площа":10.33},"geometry":{"type":"MultiPolygon","coordinates":[[[[29.8856556415557,50.36494891619996],[29.889410734176554,50.36335426690226],[29.88855242729179,50.36255350005139],[29.887715578079142,50.36177325268858],[29.887694120407023,50.36175271969003],[29.886921644210734,50.36095877026743],[29.883112907409586,50.36249874626897],[29.88397121429436,50.36333373458768],[29.884003400802527,50.36335426690226],[29.88481879234306,50.364148176254346],[29.8848617076873,50.364182396186486],[29.8856556415557,50.36494891619996]]]]},"id":"92"},{"type":"Feature","properties":{"id":"93","контрагент":"сусіди2","статус":"отримано","площа":3.25},"geometry":{"type":"MultiPolygon","coordinates":[[[[29.885430335998453,50.368966099865645],[29.888488054275435,50.367665856173716],[29.887962341308516,50.36715943583238],[29.88752245903007,50.36673513354767],[29.884464740753092,50.36803540274172],[29.885430335998453,50.368966099865645]]]]},"id":"93"},{"type":"Feature","properties":{"id":"94","контрагент":"сусіди2","статус":"отримано","площа":3.95},"geometry":{"type":"MultiPolygon","coordinates":[[[[29.883134365081705,50.362437148188235],[29.886878728866495,50.360924548011],[29.8858702182769,50.35996631481325],[29.88219022750846,50.3615063230146],[29.882351160049353,50.36166374326034],[29.883134365081705,50.362437148188235]]]]},"id":"94"},{"type":"Feature","properties":{"id":"95","контрагент":"сусіди2","статус":"отримано","площа":3.0},"geometry":{"type":"MultiPolygon","coordinates":[[[[29.884464740753092,50.36803540274172],[29.88752245903007,50.36673513354767],[29.886621236801066,50.36587283011855],[29.883574247360148,50.36717312293969],[29.884464740753092,50.36803540274172]]]]},"id":"95"},{"type":"Feature","properties":{"id":"96","контрагент":"сусіди2","статус":"отримано","площа":2.13},"geometry":{"type":"MultiPolygon","coordinates":[[[[29.87484097480766,50.3720454822837],[29.877576828002848,50.37084796842411],[29.876857995986864,50.370177347460924],[29.87412214279167,50.371381721192115],[29.87474441528313,50.371949682287166],[29.87484097480766,50.3720454822837]]]]},"id":"96"},{"type":"Feature","properties":{"id":"97","контрагент":"сусіди2","статус":"отримано","площа":2.55},"geometry":{"type":"MultiPolygon","coordinates":[[[[29.87336039543144,50.36340901969775],[29.87751245498649,50.36168427629738],[29.876954555511396,50.36113672560311],[29.87279176712028,50.36287517724751],[29.87336039543144,50.36340901969775]]]]},"id":"97"},{"type":"Feature","properties":{"id":"98","контрагент":"сусіди2","статус":"отримано","площа":2.5},"geometry":{"type":"MultiPolygon","coordinates":[[[[29.874508380889814,50.36446984264234],[29.87860679626457,50.36275882617293],[29.878059625625532,50.36221813214262],[29.87393975257866,50.36393601212436],[29.874508380889814,50.36446984264234]]]]},"id":"98"},{"type":"Feature","properties":{"id":"99","контрагент":"сусіди2","статус":"отримано","площа":2.06},"geometry":{"type":"MultiPolygon","coordinates":[[[[29.87422943115227,50.36765901269161],[29.876761436462324,50.36655035556046],[29.875999689102095,50.36585229889354],[29.873478412628096,50.36696097233275],[29.87422943115227,50.36765901269161]]]]},"id":"99"},{"type":"Feature","properties":{"id":"100","контрагент":"сусіди2","статус":"отримано","площа":1.97},"geometry":{"type":"MultiPolygon","coordinates":[[[[29.87494826316825,50.3683296692469],[29.877480268478315,50.36721418423794],[29.876761436462324,50.36655035556046],[29.87422943115227,50.36765901269161],[29.87494826316825,50.3683296692469]]]]},"id":"100"},{"type":"Feature","properties":{"id":"101","контрагент":"сусіди2","статус":"отримано","площа":2.36},"geometry":{"type":"MultiPolygon","coordinates":[[[[29.87505555152885,50.36496944781579],[29.879132509231486,50.363272137590634],[29.87860679626457,50.36275882617293],[29.874508380889814,50.36446984264234],[29.87505555152885,50.36496944781579]]]]},"id":"101"},{"type":"Feature","properties":{"id":"102","контрагент":"сусіди2","статус":"отримано","площа":2.5},"geometry":{"type":"MultiPolygon","coordinates":[[[[29.87393975257866,50.36393601212436],[29.878059625625532,50.36221813214262],[29.87751245498649,50.36168427629738],[29.87336039543144,50.36340901969775],[29.87393975257866,50.36393601212436]]]]},"id":"102"},{"type":"Feature","properties":{"id":"103","контрагент":"сусіди2","статус":"отримано","площа":2.17},"geometry":{"type":"MultiPolygon","coordinates":[[[[29.876214265823283,50.365243201844706],[29.87802743911735,50.36450406234256],[29.879690408706583,50.36382650768617],[29.879132509231486,50.363272137590634],[29.87505555152885,50.36496944781579],[29.875087738037035,50.36501051102079],[29.875731468200602,50.364825726318465],[29.876214265823283,50.365243201844706]]]]},"id":"103"},{"type":"Feature","properties":{"id":"104","контрагент":"сусіди2","статус":"отримано","площа":2.17},"geometry":{"type":"MultiPolygon","coordinates":[[[[29.876214265823283,50.365243201844706],[29.87802743911735,50.36450406234256],[29.879690408706583,50.36382650768617],[29.879132509231486,50.363272137590634],[29.87505555152885,50.36496944781579],[29.875087738037035,50.36501051102079],[29.875731468200602,50.364825726318465],[29.876214265823283,50.365243201844706]]]]},"id":"104"}]}