{"type":"FeatureCollection","name":"точки","crs":{"type":"name","properties":{"name":"urn:ogc:def:crs:OGC:1.3:CRS84"}},"features":[{"type":"Feature","properties":{"id":"1","статус":"тест1"},"geometry":{"type":"Point","coordinates":[29.85904014948779,50.3731798568867]},"id":"1"},{"type":"Feature","properties":{"id":"2","статус":"тест2"},"geometry":{"type":"Point","coordinates":[29.87960706958397,50.365935441201636]},"id":"2"},{"type":"Feature","properties":{"id":"3","статус":"тест3"},"geometry":{"type":"Point","coordinates":[29.857582046943662,50.36480952054704]},"id":"3"}]}